ix,name,street,city,postalcode,duns,countrycode
1a6ccbe5-5e23-4cd3-b567-8366ac84c500,vri gmbh,wilhelm maybach str,ellwangen,73479,,DE
b3d57f9d-db16-42b5-ac05-44a27f15fc97,aeroflex ltd,monks brook industrial park,chandler s ford,so534ra,,GB
f2e19b58-c741-48ad-bcc8-27ada952a5b7,altron gmbh co kg,10 gaustr,lehrte,31275,315672964.0,DE
fe5db42f-8b19-4295-968a-096fce0df486,le joint francais,centre administratif,thure,86540,,FR
1b69ccb6-5901-4746-b1f9-8eef0d9a9870,nespresso deutschland gmbh,speditionsstrae,dusseldorf,40221,,DE
303a4b5d-b64c-4ec3-8026-61ddc082efa0,muehlinghaus hildesheim,klingelholl,wuppertal,42281,319390084.0,DE
78b4a267-3adf-46a8-afc9-35d8f07e5b14,buerklin ohg,80 am wehrhahn,dusseldorf,40211,316757657.0,DE
7a037111-f074-4934-bec9-3042d2a26421,dr ursula matschke,33 emilienstr,stuttgart,70563,,DE
9acc114b-09a3-45ba-998e-2b09cfa3126a,ats gmbh,14 schanzenstr,waldbrol,51545,323710764.0,DE
5e02efdb-9f45-42f9-9324-0d5708c3fb21,bozic tours,32 zinglerstr,ulm,89077,,DE
8b5d81b9-44a9-44a4-a373-3ce3760a230b,nespresso deutschland gmbh,23 speditionstr,dusseldorf,40221,333868649.0,DE
39e80128-8b75-44b9-a197-f253b2bb9fec,alexander speith gmbh co kg,14 bahnhofstr,varel,26316,319220083.0,DE
b5729da0-1fd8-4c57-8ea5-efc234032ca0,brklin ohg,41 schillerstr,munich,80336,316757657.0,DE
6c39db4f-af5f-4073-a447-d42f79981ac1,natixis factor,1012 avenue winston churchill,charenton le pont,94220,,FR
0259216a-6687-4146-b0ed-9373702b7d9f,hotel villa hentzel,bauhausstr,weimar,99423,,DE
4c115719-4309-459e-8f48-8929761074f7,hamilton sundstrand aerospace,4747 harrison ave,rockford,61108-7929,,US
dcc308de-62f6-4c91-bd0e-b7ad77424c9c,drei bond gmbh,17 carl zeiss ring,ismaning,85737,319143681.0,DE
d6557d2d-69b5-4e0a-af78-8f2b72b33d06,maximilian wigger suttner,jahnstr,ulm,89073,,DE
a029fb9a-c6e0-4732-96dc-b384ef9f62f7,delta computer products gmbh,4 rntgenstr,reinbek,21465,31634716.0,DE
680f5a62-9a45-462e-a744-bd79d091d26f,genkinger hubtex gmbh,albstrae,munsingen,72525,332679625.0,DE
6537b899-866f-4456-a542-0c0eb4718a57,utc aerospace systems,250 knotter dr,kansas city,64101,41668195.0,US
e1a325bd-f709-4d29-9071-236e44030908,klever gmbh und co kg,20 hauptstr,aham,84168,,DE
be102af6-1552-480a-98fe-53eced051582,aspen electronics limited,1 kildare close,ruislip,ha4 9lg,217199405.0,GB
3c4377c9-7da5-45b2-b9ab-4181554594ee,ergonomia verlag ohg,29a julius halder s trasse,stuttgart,70597,,DE
a9b7c40b-6448-407b-89f9-a7d0b040a6ea,selex sensors and airborne systems,2 crewe road north,edinburgh,eh5 2xs,23226769.0,GB
19c06e93-9aaf-4165-80ef-50f4e63ae433,denzel kg,12 mhlwinkel,wertingen,86637,316456565.0,DE
4c1e2c61-3b2f-4257-bab8-067f5ea58f2d,swansea university,singleton park,swansea,sa2 8pp,232227629.0,GB
8ae6cdb0-5808-4cbb-bb1e-9a6980f8817b,ge sensing,fir tree lane,groby,le6 0fh,219144201.0,GB
4c772645-57f5-490a-a336-b2e4ce1f10d3,mewa textil mietservice,5 hermann gebauer str,meisenheim,77974,314496969.0,DE
39082433-598a-49f1-b84b-6c3400305119,sinus electronic gmbh,schleifweg,untereisesheim,74257,,DE
5c91b347-a801-4eb4-a917-6caced005db8,phoenix contact hmi ipc,29 kurze str,filderstadt,70794,,DE
893c79db-1d58-403f-9a9f-dec3ae1bb49d,gesa equipos y suministros indus,19 carrer de la industria,teia,8329,,ES
d23b2dac-e7e3-4390-a895-4b205d05e976,aaf sa,avenue de paris,vincennes,94300,,FR
77f5274a-b8ab-45bc-ae41-2e1f6c06e51c,selex es spa,via piemonte,rome,187,434003576.0,IT
3ff0a037-ccd9-4dae-ac82-741386469e20,siemens ag,1 gnther scharowsky strae,erlangen,91058,331491514.0,DE
2b6c43e5-0ab7-4180-a5f8-2a1a5e7f67cb,industrie und,fasanenstr,berlin,10623,,DE
97571df1-a5a3-402d-b8a8-203ce91702f9,kvt koenig gmbh,14 max eyth str,illerrieden,89186,,DE
bace2c59-b9e4-49ce-a6d4-e49d649c720a,vri,wilhelm maybach str,ellwangen,73479,342019866.0,DE
0297485a-a3ef-415b-bf99-bc7b1c8f254a,gross karlheinz,37 ulmenweg,zweibrucken,66482,,DE
37fa1e22-ee69-49b0-8d88-90e3407d0251,marconi selenia communications spa,1a via ambrogio negrone,genoa,16153,,IT
8946d1cc-a77a-4ccd-8eaf-2b103195ceef,isr stephan walter,56 nahestr,rodgau,63110,,DE
fa96a218-64c7-48b5-8156-2023308ba14e,vds schadenverhtung gmbh,rheinstr,darmstadt,64283,332836506.0,DE
8c071814-2bec-4693-b5bc-524d149161f2,ge aviation systems ltdcustomer services,evesham road,cheltenham,gl528sf,211207784.0,GB
f21fdcf5-a8b8-4582-8a04-6722c121b836,smiths aerospace customer services,bishops cleeve,cheltenham,gl528yb,288525181.0,GB
f02cb731-ebe7-4505-af04-61df8df093a5,selex sensos and airborne systems,lg,edinburgh,28000,23226769.0,ES
e649baee-018e-4473-b911-9f41d76e6818,blumenhof frey,wa3rmbachstraerasse,unterschleissheim,85716,,DE
b1120134-9729-48c8-8e80-f6dd7e2a19a3,sogeti high tech,bp n 90076,blagnac,31700,287711456.0,FR
0a8de44c-737e-4f10-bb2c-2ae14687aa62,rdmadrid sl,79 calle de caleruega,madrid,28033,56330515.0,ES
a30fe96c-51ca-4c9a-add4-8b7e9859cd19,edmund optics inc,lysander close,york,yo30 4xb,236713199.0,GB
01c34b3a-67aa-418e-95e2-43b6eb926fd3,haufe gmbhcokg,weilburger str,usingen,61250,,DE
6880aa5d-69dd-476f-8883-26d92867022d,ge aviation systems ltd,arle court,cheltenham,gl51 0,,GB
b8f79f98-63ea-446e-aced-20f11ab70fbd,phytec messtechnik gmbh,robert koch str,mainz,55129,,DE
f7da5ee1-7c3f-4d8d-b644-d01791d1793d,e a elektro automatik gmbh,31 37 helmholtzstr,viersen,41747,344304634.0,DE
1d2e777b-15af-403c-9b9d-b16819dceda3,citaku gbr,32 papenbreede,bad essen,49152,,DE
35508103-f282-411d-b321-5dbf96d486c7,hr kommunikation,max von mller s trasse,rottenburg,84056,340190931.0,DE
150322b3-a3ee-4252-936c-f98ef776bc45,fako gmbh,peutestr,hamburg,20539,313518398.0,DE
83024ff7-2624-431f-b299-ff6fbdf0cebf,battery direct gmbh,1 ewald renz str,bad schonborn,76669,331599808.0,DE
7a60d395-c89b-43ff-9fc1-ce032f99bdcf,battery direct gmbh,ewald renz str,bad schonborn,76669,,DE
39734970-79ff-4020-a019-e3b60b6279fc,oracle deutschland gmbh,14 schiffbauergasse,potsdam,14467,33170335.0,DE
0ad4aa46-8342-46eb-b598-9aebd7095cc9,algner safety consulting services,14 weiherstr,friedrichshafen,88048,,DE
77ca58f8-2fff-411b-875a-6648fa533bd1,buchde,an den speichern,munster,48157,31539316.0,DE
b5596907-b72e-40c9-a5aa-d4634e98ed8d,dga techniques aeronautique dga techniques aeronautique dga techniques aeronautique,47 rue saint jean,balma,31130,,FR
0908a0aa-68e5-4364-9b39-aa74de13cbda,selex es spa,4 piazza monte grappa,rome,195,,IT
8e647a80-473c-488e-862b-1ce8748f0ef3,general dynamics uk ltd,bryn briithdir,blackwood,np12,295449961.0,GB
816d262e-cf5d-405c-9012-df0053cfd848,ge measurement control,fir tree lane,groby,le60fh,226525053.0,GB
13e982e5-26a3-45b1-bca2-02ef23caaf90,landeshauptstadt mnchen referat f,sendlinger strae,munich,80331,,DE
3c4c091c-b787-4017-a393-b14cd4e68dc6,industrie und,olgastr,ulm,89073,,DE
05ab6b6a-80bd-41e6-81cc-2dc5967ceb09,cablematic dos mil s l,85 carrer de santander,barcelona,8020,464065908.0,ES
d63e3340-e8a6-45d9-8462-cb314524e61b,umt umweltingenieure gmbh,1 adolph kolping platz,ulm,89073,333374796.0,DE
71747e06-0621-47b4-847c-9d1cc92d03ab,tropack packmittel gmbh,8 vor dem polstck,lahnau,35633,,DE
8de0b63f-f94c-443f-8ad5-8f16bdf761ed,bueromarkt boettcher ag,3 brusseler str,jena,07745,,DE
76e834db-6e0c-400a-8f51-98b2652fd479,datalis,8 avenue gutenberg,portet sur garonne,31125,260332779.0,FR
f0d34671-a63e-4a7a-a0fd-91de34614366,hamilton sundstrand,cl4747 harrison ave,rockford,61125,,US
591099fe-6fcd-4a72-9e4b-9365594dbb41,nespresso deutschland gmbh,speditionsstrae,dusseldorf,40221,,DE
7deb146f-57f9-4a7b-b05f-1784c677bdf1,smiths aerospace electronic systems,cheltenham,cheltenham,gl528sf,,GB
c6401891-df76-43c4-abf2-0c95504419f7,dr ing k busch gmbh,1 schauinslandstr,maulburg,79689,,DE
e67441ba-c61a-4e50-ae15-61401e231568,ma componentes sl,pg el pino calle,seville,41016,,ES
b9b20b60-5718-4a95-b6b3-401a799f1b53,translogic inc,5641 engineer dr,huntington beach,92648,75072116.0,US
d42eb6b4-8e7e-4933-ab79-2ff87951d099,tino winter,obere au,rechtenstein,89611,,DE
b60f09c2-8bb6-4321-8473-c2601b852d4a,stc steyr wlzlager,40 41 rosenthaler str,berlin,10178,,DE
4389becc-7453-4350-83b2-094b74a6d4d1,ask distribution,rue de la boucherie,molsheim,67120,,FR
7675fecc-f993-4513-8251-ef7e15cdcf44,salicru electronics,calle parque ind,seville,41016,,ES
2f0901d9-1f1f-4efe-a974-05e8d6b7edea,mike garwood ltd,shelleys lane,alton,gu34,,GB
e8c68ece-5bfb-4a0d-bc02-b663d4945580,uk space agency,north star avenue,swindon,sn2 1sz,,GB
7bb6b025-4c4d-493d-9658-121ac975073b,mayre sc,5 b calle lopez de legazpi,seville,41008,,ES
ea3544e6-0ce6-4322-a2ec-8841087a5570,honeywell international sarl honeywell international sarl honeywell international sarl,4 avenue saint granier,toulouse,31024,,FR
9438b5e4-21a5-421c-a6aa-559cad3e9674,dichtelemente arcus gmbh,6 gromoor ring,hamburg,21079,313821894.0,DE
f51fd948-c519-4e86-a635-410bbc27cf82,adf technologies,6 avenue jean monnet,colomiers,31770,,FR
68ba9560-9ddf-449e-bde2-7ed15604bf18,frey blumenhof,mittenheimer str,oberschleissheim,85764,342418069.0,DE
a9f4905c-0461-4e42-8dea-85377323db78,inficon gmbh,bonner str,cologne,50968,,DE
4fe4ecd1-1cab-4e44-95e3-7121402a2f1b,le manoir de gressy,chemin des carrosses,gressy,77410,,FR
291ef3cc-9d3e-4efa-b8ea-f14bb19cb77c,fako chemische fabrik,15 peutestr,hamburg,20539,340213235.0,DE
ea4e028b-b041-4b62-9e50-d9ad49e80f87,franz spahn,7 wiedhof,bad salzdetfurth,31162,,DE
43cb5eea-2018-44a8-aecb-71c7dd001ea9,kerb konus vertriebs gmbh,7 werner von braun str,amberg,92224,,DE
a0a1b780-952c-4c09-978e-a34f8cc56eae,pts automation gmbh,166 donatusstr,pulheim,50259,332540769.0,DE
787940de-0e47-4b50-9eda-75591b01ef6b,marconi selenia communications spa,1a via ambrogio negrone,genoa,16153,440028405.0,IT
9b938f7e-ce01-4623-815f-099ce1097edd,siemens ag,16 sieboldstr,erlangen,91052,342558576.0,DE
84ba9e9f-825e-42e2-9499-5983619b7e98,rts elektronik systeme gmbh,66 preysingstr,wolnzach,85283,,DE
149303db-da40-460a-9665-eef86ed8f2ea,casa compras,calle la mata,seville,41002,,ES
536d4a08-8f02-4ec5-9b7d-e02fa09beb6a,ge aviation,arle court,cheltenham,gl51 0tp,505518316.0,GB
2948b589-071f-40e5-8e19-58024c8c8b10,ea elektro automatik ea elektro automatik gmbh co kg ea elektro automatik,31 37 helmholtzstr,viersen,41747,,DE
afe75b2f-6adc-4d92-975e-2f366d6809d7,galileo avionica spa,2 via dei castelli romani,pomeziarome,00040,,IT
c88a84fd-e132-41bb-a424-d75b7621d2ba,hartmetallwerkzeugf a maier gmbh,2 stegwiesen,schwendi,88477,343071213.0,DE
417a8fd6-9b08-44a3-942e-f4bcf6325ce4,siemens ag,67 siemens str,erlangen,91052,506764468.0,DE
3e254c40-3b26-4633-8cb2-da0877d48c98,hahnkolb werkzeuge gmbh,schlieffenstr,ludwigsburg,71636,,DE
e2dbddca-9b25-4796-9f73-96e9f6994c6a,kalzbw reglab 4 cottbus,66 sielower landstr,cottbus,3044,,DE
07587bc5-5794-407f-8150-002c338d1e47,wuerttembergische allplastik,12 johannes kepler str,herrenberg,71083,,DE
864118ea-165e-4fdc-8241-4777a254140c,selex sensors and airborne,2 crewe road north,edinburgh,eh5 2xs,,GB
daeb8443-5a51-43bc-9a6c-be67fbad8104,fleurop gmbh,3 4 lindenstr,berlin,12207,313232118.0,DE
398fd377-cf45-4490-8a49-8b11402c0421,uwe sieber,36 morgenstr,magdeburg,39114,,DE
95f31722-137b-4d41-91e8-53ff8cbb9c50,galileo avionica spa,2 via dei castelli romani,pomezia,00040,,IT
ea502496-0ffc-4d51-8ea1-8e4789ac3a1e,northrop grumman systems corporation,8710 freport pkwy ste 180,irving,75063,624839184.0,US
f925cc7a-d9d6-4b41-9ad4-aa93166dde54,r g gmbh r g gmbh faserverbundwerkstoffe r g gmbh,7 im meiel,waldenbuch,71111,,DE
e6e0f237-a9a0-4b65-a55e-1d6c23c7aa18,fako heinrich a anton,suderstr,hamburg,20537,,DE
ad6aa35d-b6ee-41b5-992e-cb6347071891,yoshida deutschland gmbh ykk,33 ostring,mainhausen,63533,,DE
087ec076-7c29-49d3-a241-9ce411dd05bf,waycon,4 mehlbeerenstr,taufkirchen,82024,315952668.0,DE
bfe44ff1-eba1-4204-9e86-7a24b38bc5ff,honeywell aerospace,23500 w 105th st,olathe,66061-8425,,US
3d27ce91-f5b2-4b4b-9fa5-54acd8a3a598,isocel management conseil,rue robert caumont,bordeaux,33049,,FR
35b7cba1-e1db-482a-9f42-f01691e97e8f,clinter traducciones e,57 calle gran via,madrid,28013,,ES
f89ddf6d-2770-44a7-9788-3bf2b89671c6,aeroflex test solutions,school close,chandler s ford,so534ra,216834002.0,GB
3e20c961-a27b-444e-890f-ff54b37c994b,les parents et amis des enfants de,8 rue jules ferry,frouzins,31270,273813845.0,FR
d01db847-5ae7-4e84-86dd-ac3a98381b51,wuerttembergische allplastik,12 johannes kepler str,herrenberg,71083,,DE
65f1dcb1-357d-4ee2-8dbc-79b1bad4ce5c,srtechnics,calle de mario roso de luna,madrid,28022,,ES
225abc01-a570-4716-9c1e-d2661e9655ab,marconi selenia,1a via a negrone calda,genoa,16153,339927545.0,IT
87f5d711-033d-483b-9fb0-b6d6309f473f,zarm technik ag,am fallturm,bremen,28359,537384638.0,DE
480d52bc-b7f6-46af-bfe1-dfd8bce107b0,mbs ag,51 eisbachstr,sulzbach laufen,74429,316133263.0,DE
42778260-6697-4209-8763-8ee736dac674,buerklin ohg,grnwalder weg,oberhaching,82041,,DE
f6dbbbb7-d1c7-4f3b-8fd0-0574a0d31c18,bats feuerschutz,7 heckenweg,pfaffenhofen,89284,,DE
9e20622b-f670-4ea3-9b4b-9a84ca3a1018,general dynamics uk ltd,blackwood,blackwood,np12,,GB
46a13500-d743-497c-8c3c-77db656624b7,ge aviation,bishops cleeve po box 162,cheltenham,gl528yb,,GB
125d44ed-d5d7-4327-8032-6b4a3d8c3ec4,knab gmbh,4 himmelkronstr,bayreuth,95445,312951213.0,DE
0f8eb8df-0881-4d88-af56-b1b75421cd4c,ucon ag containersysteme kg,sechsheldener str,haiger,35708,341057797.0,DE
96a49b82-74ab-4cb2-9fda-29bc1694c4c6,druck ltd,fir tree lane,groby,le60fh,,GB
de51d1e5-d11b-4304-af25-bb43649d5b87,von roll uk limited,wharfedale road,bradford,bd4 6sg,21309974.0,GB
f3020ce6-f5c1-47cf-b904-ea2f014012cf,linde technische gase gmbh,70 seitnerstr,pullach,82049,329252832.0,DE
f37452c7-2145-4ac7-82ab-4a145b2401df,swansea university prifysgol aberta,singleton park,swansea,sa2 8pp,232227629.0,GB
82a5d8aa-7202-48f6-8c68-840fa3a52f4d,gss kalender gmbh,11 carl zeiss str,heiligenhaus,42579,,DE
6694cef8-c256-4ead-bb58-b9e9a7bd15f1,roth gmbh und co kg,28 zusamstr,augsburg,86165,313234338.0,DE
9e25be5b-261d-4ced-8417-83e36417d9f7,selex galileo,strada privata aeroporto caselle smaurizioc se,,10077,,IT
a17ba961-73be-4421-b31f-bb176a09e058,honeywell aerospace,190th st,torrance,25250,,US
0cb14cd7-6af1-4c00-b5ed-c7f1ffe84878,en deko vertriebs gmbh,4 zeppelinstr,dornstadt,89160,,DE
b67216e7-12ad-4b1e-97ab-5f5de72261c9,juliane rode,33 leonrodstr,munich,80000,,DE
932b06e8-de2d-4e34-a1e3-f4506666fc1c,natixis factor starplast,avenue winston churchill,charenton le pont,94220,281985668.0,FR
79533769-e833-40b7-8fc4-b379bd526fb7,ristorante roma,17 marktstr,ostheim,97645,,DE
d6f7e7e1-a9d8-4f8c-996d-760adab27aaf,witec elektrotechnik gmbh,hauptstr,leichlingen,42799,312570586.0,DE
289e052c-5351-455f-bac9-785bd5577a8d,comptoir du sud ouest,58 boulevard pierre lefaucheux,le mans,72029,,FR
c4101dee-fc07-4085-886a-ff937734c83e,ht instruments gmbh,1b am waldfriedhof,korschenbroich,41352,,DE
1cbe52ce-3d4e-4c89-b1af-372857fe42d9,fischer pierce und waldburg,8 frst maximilian str,kilegg,88353,322962465.0,DE
b05a1ef5-b44d-4037-a78f-0cc896e526fe,wupptool,herbringhausen,wuppertal,42399,341522115.0,DE
7d694999-c376-448f-8ae4-a5870b75f96b,nespresso deutschland gmbh,8 zollhof,dusseldorf,40221,333868649.0,DE
e29b4c7f-4a7d-4d39-82db-d015f6b617ed,frey blumenhof,mittenheimerstrasse,unterschleissheim,85716,,DE
911661a6-5d6a-4499-9ae6-31999051781f,josef hubersmd technik und nc metechnik,42 hauptstr,palling,83349,340637959.0,DE
ccd0b6df-bee0-4e55-8de8-650a4135b24d,luces sl,46 calle del general diaz porlier,madrid,28001,,ES
77d9d097-d4fc-40c8-b7fe-7f3ca33ca17c,copac,calle bahia de pollensa,madrid,28042,,ES
85defdc1-6bb3-4beb-a458-4f5b43bbff74,hamilton sundstrand,4747 harrison ave,rockford,61108-7929,,US
63370b08-047d-4fde-9f73-26027fe127a0,nm medical,200 avenue des gresillons,asnieres sur seine,92600,38107119.0,FR
8e8b6e06-12c3-4179-9c54-5799d5143401,gorlo,12 am buhl,gerbershausen,37318,,DE
afa3b342-6177-4481-9bed-059b02a9a397,honeywell aerospace,23500 w 105th st,olathe,66061-8425,21214283.0,US
bc538853-9dde-4582-b1ee-051eafe942d8,strher druckerei verlag,h h warnke strae,celle,29227,,DE
c5f81518-76a2-4cf2-9d01-a59ff2ec86b3,ge aviation systems ltd,bishops cleeve,cheltenham,gl528yb,,GB
0384d657-aef0-4cf0-90ee-f42eebb6e58e,noveltis,2 pl canal,ramonville saint agne,31520,,FR
e6950a84-487a-44b5-be32-50523b84202f,temai ingenieros,10 calle de rivas,coslada,28821,,ES
079d4185-23e8-4cce-ae8c-26f095d62d4c,maxstore gmbh,31 gunterstr,helmbrechts,95233,,DE
5a985e0b-9ee7-44fe-9401-a60dbdd9a589,polytec pt gmbh,1 7 polytec platz,waldbronn,76337,,DE
7ca58742-beb2-485d-936d-cdeaf84a935b,united parcel service,1 grlitzer strae,neuss,41401,315081096.0,DE
1c697ecd-ac6e-4d2d-900a-0f1668d0be55,dga techniques aeronautiques,47 rue saint jean,balma,31130,,FR
f3bfed60-958f-454d-8aeb-8674989f7b35,vds,29 rheinstr,darmstadt,64283,,DE
b4c7a05a-55c2-4524-b1c9-da7b2dd97ba8,intercomp europe ltd,manor farm road,reading,rg10 0py,221393783.0,GB
d0fec07a-5b5e-4a87-96b8-0ba95b6281b3,honeywell international sarl,4 avenue saint granier,toulouse,31024,,FR
b92be33e-2d1b-4c44-84eb-bf57da5f4eac,gaudin gerard,43 rue victor hugo,puteaux,92800,279719202.0,FR
9bb2f5d9-7014-4fb0-a984-daae588730a0,specialty fasteners components,unit d seymour wharf,totnes,tq9,233148675.0,GB
2d652dca-2fb8-467c-8382-a4842707c9b9,natixis factor hi techmetal,avenue winston churchill,charenton le pont,94220,281985668.0,FR
de3c7522-c134-4b49-a75b-4a3ae1fc7d22,spieth maschinenelemente,41 alleenstr,esslingen am neckar,73728,317648764.0,DE
93094ac3-c6bf-4b16-9c07-e7b335157f06,kfv kasse,13 heimstr,asselfingen,89176,,DE
4007988f-fb00-4da6-a5ba-af91de579784,nerb kg,16 ingolstadter str,manching,85077,,DE
9b5a40f0-a99f-4719-85ac-95d72b29ac18,miller company pc,4929 main st,kansas city,64112-2631,21212477.0,US
6bc2d697-49e9-4c87-8a53-ceb5e3f06c72,hbs electronic gmbh,89 91 mannheimer str,bruhl,50321,,DE
40dc815f-311d-458f-8717-38549f594472,febrotec gmbh,frankfurter str,halver,58553,,DE
3b3b9e66-80ff-4aab-a199-c001d63244f3,arrow iberia electronica slu,75 calle albasnz,madrid,28037,56509457.0,ES
c55aca6c-d3d1-4f04-81a9-8d31a6fa6a7c,viking direct,lancer house,leicester,le31ub,505049999.0,GB
793de89f-ba83-4fda-b32b-67051c7b7153,kalzbw reglab 4 cottbus,66 sielower landstr,cottbus,3044,,DE
86ca1988-2267-4f88-99c9-a46a39c26cc9,dataprof espaa sa,63 calle santa leonor,madrid,28037,466352929.0,ES
ae724f31-222f-465e-a014-7cd9ca40f8da,ernst haefele siehe 157m0,22 hafenbad,ulm,89073,,DE
066c325e-fd41-40f0-864b-a99af89f9fd5,intersport,6 am westpark,ingolstadt,85057,,DE
6bec18c7-85c3-473a-a6ae-f6a5cabb697a,sealershop gmbh,siemensstr,kleve,47533,312678741.0,DE
34152c07-9982-44fd-8e76-075b6675e403,buerklin ohg,30 grunwalder weg,oberhaching,82041,,DE
94c93a16-c01f-417d-9c73-77a3a210da43,csb battery store,14 badstr,neumarkt in der oberpfalz,92318,,DE
5fae6160-823d-40c0-886a-80def797a48a,ads analyse detection securite,31 route de paris,jouars pontchartrain,78760,,FR
c6270995-2a86-4a58-9a4a-427aeb63f2d3,ups deutschland inc co ohg,1 grlitzer str,neuss,41460,318066107.0,DE
f1a33bdb-4b90-49ab-ac95-5833cfabeb85,moravia gesellschaft fuer,10 rostocker str,wiesbaden,65191,,DE
ff973ba5-ab42-42e0-8244-6aa82de46691,acm,9 rue de la gare,villiers saint frederic,78640,380071407.0,FR
9a51e10b-15db-40fc-8ace-47de7ef25aed,cover construction company limited,filkins mill,lechlade on thames,gl7,,GB
9d90ddbc-534f-4edd-91b9-a4acd9f6d751,faure herman,route de bonnetable,la ferte bernard,72400,,FR
9f0dae5b-ee0c-453c-b6b5-8506b23b6554,specialty fasteners components,unit d seymour wharf,totnes,tq9,233148675.0,GB
f21848af-7ec2-4626-9d6d-23b8b03a5c92,united parcel service,garlitzer str,neuss,41401,,DE
af7f506c-1b1b-4868-83cb-9224f3bd8ea4,lapp gmbh und co kg,25 schulze delitzsch str,stuttgart,70565,,DE
f7a9a181-0d36-4b6b-aa63-d2feefc7decb,honeywell,415 lind ave sw,renton,98057-5959,602570855.0,US
5868e71c-5a87-4106-a231-95da2bd255e3,aspen electronics limited,kildare close,ruislip,ha4 9ur,,GB
20082566-e73c-49a1-a0da-53c97bda917f,delta computer,4 rntgen str,reinbek,21465,31634716.0,DE
0483c61c-a3bc-4d7e-890b-270569f56823,bruggemann gmbh co kg,2 am kalkheck,herdecke,58313,,DE
d6da86b4-3bee-4198-9b10-12449456518e,chartworld gmbhco,90 ruhrstr,hamburg,22761,331067814.0,DE
8f282398-a099-43cc-9bf9-9d5c7bf915f5,amtag,lise meitner str,meerbusch,40670,,DE
7d1269cf-0419-4885-b4a4-a573ccf050f6,wuerttembergische allplastik,12 johannes kepler str,herrenberg,71083,316084979.0,DE
ab9e5ecd-96fe-4bfe-bea4-2b88493a00c4,editorial planeta sa,662 664 avinguda diagonal,barcelona,8034,460024151.0,ES
06cbd331-16fc-4be7-a03b-3b4177311b28,casa compras,calle la mata,seville,41002,462422616.0,ES
e0a1ea00-0ad5-4e3c-89fd-ddc90a0ba668,honeywell consumables solutions sas,4 avenue saint granier,toulouse,31024,380951202.0,FR
79a01cd7-54d0-4e50-879e-d8054dbfc871,weinmann emt gmbh co kg,12 frohbase str,hamburg,22525,,DE
bd8d35b0-f669-48c4-a29c-11c824c0b376,thales communications,83 85 rue emile brault,laval,53000,,FR
9c87ac4e-e959-4e18-a321-a540f016035d,intercompany,internal ap intercompany account,newport,np108fz,,GB
3009cbca-f818-4e19-b4eb-cdaa5b0c693d,ge measurement control,fir tree lane,groby,le60fh,,GB
26eaed40-a394-4017-8ffb-f3afb0a53d63,sew eurodrive gmbh co,42 ernst blickle str,bruchsal,76646,316073634.0,DE
f704e1f0-b240-4461-a741-b41b5c30b476,bildungswerk der wirtschaft hamburg,10 kapstadtring,hamburg,22297,,DE
cba3b588-9afa-45bf-bf91-20b2d8cf2600,vega grieshaber kg,113 am hohenstein,schiltach,77761,315640268.0,DE
3b673006-18b9-463c-acad-213be292d8c2,heisslufttechnik flocke gmbh,2 4 mondstr,feldkirchen,85622,,DE
6afadc90-e920-404e-b676-2c10029acb20,international farbenwerk gmbh,lauenburger landstrae,bornsen,21039,327670568.0,DE
a65009a4-dbbf-460f-8e22-ad8d00ea2ab7,sna europe,willettstr,mettmann,40822,,DE
e20bbf3a-874b-4e01-ada5-e5913460a059,fhf gmbh,waterbergstrae 11,bremen,28237,328761531.0,DE
877c733f-6007-4b4b-8083-ff2ffd830ed2,ad aerospace ltd,abbots park,runcorn,wa73gh,778562785.0,GB
212fd244-f47c-4241-8555-b67ee2e7319a,buerklin ohg,245 hherweg,dusseldorf,40231,325678258.0,DE
6a6bf243-694f-441e-bdf3-04031da35689,jura zentralservice singen,16 otto hahn str,singen,78224,,DE
31ea5edd-2c80-40ca-85ca-b6768a941d1e,h media,329 heistraat,antwerp,2610,372377817.0,BE
705f3215-0325-4a67-814a-c2bab0f74433,honeywell,4150 lind ave sw,renton,98057-4973,,US
517bc079-d0a2-4c56-b06d-3c3ba996a5d3,acl digital ltd,unit 20 city business centre,lower road london,se16 2xb,345662639.0,GB
4c549e3e-93b6-4145-8e29-8d399f62b2bc,bail expansion,4 place de la coupole,charenton le pont,94220,281985668.0,FR
97a76c1e-6cec-47d5-a2db-880fed3bc922,genex srl,via torre sant eusebio,rome,131,,IT
27214aac-0448-49ef-91e0-31f8bce1d19b,stumpf,37b marienburger str,landshut,84028,340225397.0,DE
c9f2444f-8501-47b6-91a9-86bc9146e054,natixis factor,10 12 avenue winston churchill,charenton le pont,94220,281985668.0,FR
dd2d6cef-3d3d-4fd8-b8fb-8c1491d14182,snap on industrial germany snap on industrial germany division of sna germany gmbh snap on industrial germany,10 willettstr,mettmann,40822,,DE
0e02feec-dbf0-4693-b7bf-0b4d01629baa,heider druck gmbh,102 116 paffrather str,bergisch gladbach,51465,323117283.0,DE
441201cc-38d4-429b-b833-07f53aebbc0a,fhf gmbh,26 kap horn str,bremen,28237,328761531.0,DE
e8748ac9-6f13-4128-aaf8-7056edfd874f,sogeti high tech sogeti high tech sogeti high tech,3 chemin de laporte,toulouse,31300,,FR
489551b4-1e70-4006-b173-8f22177288ae,wurth elektronik france,1861 avenue henri schneider,jonage,69330,,FR
de01875a-12fc-4573-93c6-80bccf2bfc21,cpd lieferanten div inland,ottobrunn,ottobrunn,85521,,DE
aed69ed2-8438-41b5-a7f1-47046dae5981,pri performance review institute,1 york street,london,w1u 6pa,211485159.0,GB
430107b3-24c5-464e-937b-6605b684ef65,mewa textil mietservice,4 tiergartenstr,meisenheim,77974,,DE
20bfa4e2-b90f-40b2-9d1c-8453100c6001,industrie elektronik brilon gmbh,40 almerfeldweg,brilon,59929,341296051.0,DE
8e71eb0a-ca9f-4de1-917a-4108a8c56a6f,nespresso deutschland gmbh b 746m6,8 zollhof,dusseldorf,40221,333868649.0,DE
aa588573-fd33-4933-97b5-43fa6dfc9493,herco sa,km 7 700 carretera valencia,cuarte de huerva,50410,,ES
e31e7851-c85b-4c1d-84fc-5f5b92dfcdee,aeroflex test solutions,school close,chandler s ford,so534ra,,GB
39b835d7-df98-4ff1-b4e5-572951818a8c,relats sa,s n carrer priorat,caldes de montbui,08140,460034838.0,ES
cf3e271a-2bcf-48f2-b80c-3edd21e0deca,mti 1998 ltd,paramount industrial estate,watford,wd247xd,23023731.0,GB
6f983ec3-1b0d-4ea3-be37-749c28eb8b13,smiths aerospace electronic systems,cheltenham,cheltenham,gl528sf,288525181.0,GB
2d083328-cfe0-44ce-8b74-69d24033f65e,finder relais gmbh,30 eisenstr,russelsheim,65428,321645632.0,DE
26d9662d-9306-4b5c-b5d9-ed90fe8ba212,performance plastics,max planck str,karben,61184,537523854.0,DE
d204f151-e43b-44a4-bc07-b7150c51f347,analisis y simulacion sl,14 plaza t alava c leonardo da vinci,vitoria gasteiz,1510,565189297.0,ES
1cdf9fef-add7-4091-aefa-cfad4904f7a7,buerklin ohg,grunwalder weg,oberhaching,82041,,DE
b025e040-772c-463e-8d57-3100ddc27e61,forum luft und raumfahrt e v,10 flensburger str,berlin,10557,312583942.0,DE
62cb855d-9311-4482-a758-0918dd77edad,siemens ag,98 frauenauracher str,erlangen,91056,331535687.0,DE
338a8e03-08af-4296-9a55-2917f9b2ab14,syskomp gmbh emico,max plank s trasse,amberg,92224,38800273.0,DE
785fd028-a68e-4b1d-a57d-178b7ae7061d,tenovis direct gmbh,23 waldstr,dietzenbach,63128,330443438.0,DE
ded97524-8f88-49d4-982e-067b080760b8,grimm metallpulver gmbh,1 am wasserturm,roth,91154,316106467.0,DE
bb51afdf-65fc-4c64-9e53-9b2d50c02df8,gestion y valorizacion integral del,calle tecnologia,getafe,28906,,ES
9675372e-0100-4470-842a-4fe8552ce03d,sunaero,70 rue ampere,genay,69730,,FR
cb7e6e32-de41-44b4-88fa-c4e101f56b5d,wirtshaus in der au,lilienstrae,munich,81669,,DE
5482cb6f-489d-40d6-862c-e31ff365cd7f,isocel management conseil sarl,rue robert caumont,bordeaux,33049,,FR
0a6ce927-3fc5-4a4c-8a62-7fcbd0b5b9c7,abstract electronics inc,11526 53rd st n,clearwater,33760-4825,,US
f82ae003-4aac-4e6d-a7e5-40e1bcec7f94,stahlgruber,22 auchertwiesenweg,ulm,89081,333567183.0,DE
c42aecca-fb1f-4884-a131-62f40c5c1ade,sogeti high tech,2 av l escadrille normandie niemen,blagnac,31700,287711456.0,FR
5bc46d34-d674-4246-b74d-1626398e2a1a,umt,1 adolph kolping platz,ulm,89073,,DE
d4f89691-b6fc-4937-864a-eb56b5923178,clem sau,8 avenida fuente nueva,san sebastian de los reyes,28703,,ES
218daa95-d7f0-457e-a789-652ebeac0c28,busse design engineering gmbh,18 nersinger str,elchingen,89275,,DE
50c0a262-ccec-4753-9eb4-020c025812c1,supplier loaned equipment,the quadrant,newport,np108fz,,GB
a45fa6f8-4d55-47f8-8198-108d6919d06a,asup gmbh,10 beckedorfer bogen,seevetal,21218,314690277.0,DE
4e1873e2-99c4-41bd-b0f3-69f6907e0dc4,heisslufttechnik flocke gmbh,2 4 mondstr,feldkirchen,85622,,DE
b6d715b7-075d-44fb-b57d-4c31146b45b1,neurtek sa,3a pg azitain,eibar,20600,,ES
c26ff6ce-548b-4842-be12-d69164f8c2b0,zf gastronomie service gmbh,alfred colsmann platz,friedrichshafen,88045,341635338.0,DE
5b4d312a-fbaa-4fd1-9c7a-ada4d46d502b,fritz osk michallik gmbh co kg,kilingweg 60,muhlacker,75417,323802124.0,DE
1f9ecb03-0114-42f5-aeac-0b4f095424c9,sinus electronic gmbh,6 schleifweg,untereisesheim,74257,330960878.0,DE
399eaa83-3306-4cea-8c9c-0b0940fffa37,manuel riesgo sa,00 avenida real de pinto,madrid,28021,46865961.0,ES
782a5b93-8c1d-49f2-89a4-6252c0f4dd38,3p gmbh,27 max planck str,karben,61184,537523854.0,DE
252c7286-30f5-4803-a53e-94cb15b71f8e,grupo proyemer sca,s n carretera a lagos del serrano,el ronquillo,41880,633456546.0,ES
953bbfa7-ddc6-437f-8ba1-5170e2085e54,nm medical,200 avenue des gresillons,asnieres sur seine,92600,278082214.0,FR
b2b091c3-7724-4888-b1d5-aa7c992cb0a1,vtr ruether,cl steinheide 43,tonisvorst,47918,,DE
62417f75-db9b-40c3-b932-a8c14e83d0dc,r g gmbh,13 im meiel,waldenbuch,71111,,DE
1a7157e2-152a-4698-8ac2-be6b6ef2bf1c,hybeta gmbh,15 im breitspiel,heidelberg,69126,312527225.0,DE
1a8f3989-c2ea-4b27-96da-85bf451c603e,technolit gmbh,industriestrae,grossenluder,36137,31582798.0,DE
caa9b691-c625-41aa-ba33-b767b2045d81,cosset md,rue jean mermoz,le haillan,33185,277271321.0,FR
8528e518-6cd5-448a-a052-b20801b383e5,smarttools,52 luisenstr,bramsche,49565,326272437.0,DE
1e8a4a96-bd49-4416-abc4-adb408a1a1b5,thales communications,83 85 rue mile brault,laval,53000,64773277.0,FR
2cad6fb3-073a-4269-accb-85d8fa4ade23,buchhandlung gerd stiebert,kupferstr,ingolstadt,85049,,DE
7a17d0c9-5992-43db-9580-c1c6cf16cdbc,alter ego 31,chemin de gramont,colomiers,31770,779097252.0,FR
d38a1e31-5015-47f6-a5b1-1a6636696a6c,hahnkolb werkzeuge gmbh,postfach 06 60,ludwigsburg,71606,343074233.0,DE
adb29e37-e7da-418e-bc15-2414975f8408,selex es spa,via giulio vincenzo bona 85,rome,156,434387298.0,IT
c77b780e-9fd8-4e96-b81f-d969ca1c09b2,hodt korrosionsschutz,flurstrae 8,hamburg,21465,317577443.0,DE
39c6607f-e357-4d3f-82af-268b59a2b55e,hoefer gmbh,14a keferloher str,haar,85540,,DE
e86664b8-d4ef-40bc-8a34-7139b3b94b8b,klever gmbh und co kg,20 hauptstr,aham,84168,326107463.0,DE
1a2538df-33db-4f02-b0ff-c17198074bf1,mel aviation ltd,60 woolmer way,bordon,gu35,,GB
9e14e359-5263-4800-87df-d763e9c90993,dhci,83 baker street,london,w1u 6ag,719325297.0,GB
9763015e-fb63-43ca-a878-07065c356d00,rochester electronics,fenice court,saint neots,pe19,,GB
da103a5d-3a61-4c92-ac01-44f1732d7917,slind parts sa,km10 avenida de andalucia,madrid,28021,,ES
b7dff1be-1a2e-4558-8609-262abe35fdd7,mayre sc,5b calle lopez de legazpi,seville,41008,,ES
4a66bfa6-0a1e-425f-8efe-d8798c7aad7e,nespresso deutschland gmbh,speditionsstrasse,dusseldorf,40221,341618791.0,DE
3c32bf99-f136-41b0-b2a3-ec49c0144f82,kerb konus vertriebs gmbh,7 wernher von braun str,amberg,92224,327960993.0,DE
258f846f-4824-46dd-939a-4e7cdb5ba04f,omnilab laborzentrum gmbh co kg,8 robert hooke str,bremen,28359,,DE
7ebcc13b-7434-44cb-ae90-fd67a413ca8c,viking direct,po box 279,leicester,le31yu,,GB
b2bd34fb-71df-4ac9-9ec7-533fbcecf85e,sport in,17 jesuitenstr,ingolstadt,85049,340898242.0,DE
e3c0d785-a305-4fff-a93a-fe0d343750fc,gruschwitz gmbh tech twist,68 memminger str,leutkirch im allgau,88299,,DE
61f33364-06e5-40ed-a27d-74ca089ebd0e,thales uk limited,manor road,crawley,rh109ha,,GB
0d5ea3e3-d92a-4eec-b2b1-b6215cd77d8f,bilz,25 bblinger str,leonberg,71229,322944653.0,DE
cfcf9b8c-4e31-470d-835b-666b911d8f43,keithley instruments gmbh,65 landsberger str,germering,82110,31609217.0,DE
2b288390-f72b-4cdb-8a3b-ccac1cbce1fa,swansea university,singleton park,swanseasa28pp,sa2 8pp,232227629.0,GB
cb47ddd6-7070-4e9d-9da8-2a6a7770831d,infoscore forderungsmanagement gmbh,99 rheinstr,baden baden,76532,,DE
56828152-b395-4e1b-815e-c8b5ffeeeaa5,futronic gmbh,tolnauer str,tettnang,88069,31612328.0,DE
82bd2594-82c6-46b2-957e-1059fc73f199,sna europe deutschland,5 auf dem hls,mettmann,40822,344805481.0,DE
42b4a934-8b7a-489d-b905-150dc9595246,rdmadrid sl,79 1 calle de caleruega,madrid,28033,,ES
0bcf1f54-8923-4e65-9012-3de0592a4509,northrop grumman corporation,225 e john carpenter fwy,irving,75062-2282,624839184.0,US
c48d2aae-0d5c-4443-a906-04b4e74128a3,thales uk ltd,newton road,crawley,rh10 9ts,232257352.0,GB
e4931485-a1e9-46a3-9a59-f717ed491655,aermec,rue du developpement,guereins,01090,,FR
f0d73756-6fdf-45f6-89e7-574d28859fbd,insa sa,34 paseo del pintor rosales,madrid,28008,,ES
4c2bd98f-143d-4ec6-875e-2b6f4b3a2a18,aucosys,12 hofhalde,goppingen,73035,,DE
d1406ede-aa74-4639-a920-62cd2f27ff15,sna europe,willettstr,mettmann,40822,,DE
efc19188-95f7-401f-8fcc-4fc6d69e2c1b,tts tooltechnic systems ag co kg tts tooltechnic systems ag co kg tts tooltechnic systems ag co kg,20 wertstr,wendlingen,73240,,DE
6ee56e9a-027f-4554-8985-676e985a8411,reinartz kleinteileversand gmbh c,15 sachsstr,pulheim,50259,,DE
da473681-caa4-4c80-a477-4da909a82864,telkron informatica sl,13 avenida de donostiarra,madrid,28027,466848012.0,ES
73616d1e-6be2-45c3-a725-9792769e84ad,honeywell,4150 lind ave sw,renton,98057-4973,,US
953c0298-5583-45ac-9dff-1780884d1377,dajv,10 alte bahnhof strae,bonn,53173,342801286.0,DE
b8e81c89-45bf-477e-ac25-3c20ae97be3c,le manoir de gressy,2 rue saint denis,gressy,77410,,FR
b1048531-a546-4189-a79f-5806e6562ea8,barr vertriebs gmbh,5 robert bosch str,heddesheim,68542,,DE
fc00de12-97be-419a-9443-fa6097c73c72,b z werkzeuge gmbh,carl peters strae,korntal munchingen,70825,,DE
7d5c9986-013b-4b5b-b5ec-3c657558a680,lambda gmbhco kg,12 am bahnhof,bischofswiesen,83483,551265957.0,DE
98b81beb-1342-4efa-b3d0-fb245155fe5b,buerklin,40 schillerstr,munich,80336,316757657.0,DE
576c60fa-69db-403a-b78b-de2e7de629a8,richardson rfpd italy srl,viale fulvio testi,milan,20126,,IT
e4af5c6f-8031-43aa-9afb-9a1f8edf02f4,techspace aero sa,route de liers 121,herstal,4041,372380824.0,BE
6b20710b-e9c2-4250-a4e9-1776a161dc2d,triumph actuation systems uk iom,cheltenham,cheltenham,gl52 8sf,211207784.0,GB
7e12b971-9fb2-42bb-ab4d-00b46a5603e1,schlicker,5 gewerbestr,radevormwald,42477,312835861.0,DE
c906f2e3-bd4c-4785-9d60-95f19579a04c,botschaft afghanistan,3 taunusstr,berlin,14193,,DE
8c9bc065-afd8-4911-a59f-5667b1680f6c,verion gmbh,22e unter den buchen,schorfheide,16244,,DE
d96f5c2b-0ef2-4cf8-8692-8c86179593b8,casa compras casa compras casa compras,calle la mata,seville,41002,,ES
7b945201-a5fc-433f-9a26-088cfecb012b,deutsche messe ag,messegelande,hanover,30521,315766592.0,DE
6a27215d-275b-45a9-b03b-6b733cef9dcc,stahl schaltgeraete gmbh,30 am bahnhof,waldenburg,74638,,DE
a05b9a23-b7ed-4f4c-a7d9-f6c846e8d85b,maschinenhandel meyer,10b reinhard rube str,gottingen,37077,341887429.0,DE
d13e9fb6-854a-429f-9399-9397d5861a1d,belfor deutschland gmbh,24 keniastr,duisburg,47269,,DE
5fb580f9-5c31-4304-85e3-779c1dfc6dd6,tfc ltd,58 pfaffenhaule,singen,78224,,DE
ac4b18e7-9d49-49ff-9b95-ec28352a6835,timmer pneumatik gmbh,37 dieselstrae,neuenkirchen,17498,317314334.0,DE
c5ac2407-52b3-44c8-bf29-fa9d442d8099,r g faserverbundwerkstoffe gmbh,7 im meiel,waldenbuch,71111,319932075.0,DE
bfa7ec3e-2e65-4225-a447-ce97847888ac,gluetec,8a am biotop,geisenheim,65366,312578667.0,DE
98373637-5a2d-44ef-acec-28874868d1d7,insa sa,34 paseo del pintor rosales,madrid,28008,478818925.0,ES
a6361f15-162c-405d-9149-a34514f07687,cz handels gmbh,klaus groth weg,delmenhorst,27753,,DE
d8fa1b69-823b-4456-b13d-5235988514ae,fako,15 peutestrae,hamburg,20539,340213235.0,DE
a2f3cbce-115c-45e7-98dd-d1d8dba89efc,sennheiser vs gmbh co kg,karl wiechert allee,hanover,30625,499187367.0,DE
5d5ec1f6-f732-40c2-bdde-701a24a56626,schmersal gmbh und co,30 mddinghofe,wuppertal,42279,331310735.0,DE
009a86ad-346f-4e9a-bb43-57a1ed7bef26,sogeti high tech toulouse,3 chemin de laporte,toulouse,31300,261969181.0,FR
e22830a5-5037-49ac-96e5-9587afa5b463,technifast ltd,north folds road,corby,nn18 9at,,GB
8a1b9f76-0e6c-4973-87ae-8b7d870ecc7b,sz druck verlagsservice gmbh,2 6 martin luther str,sankt augustin,53757,,DE
2ed5bec0-9e12-44a9-9772-56b1124f7cac,east view geospatial inc,10601 wayzata blvd,minnetonka,55305-1515,,US
805ea6f8-b822-4379-88b4-099a43e54770,biko bildungskooperation regionen,schillerstrasse,ludwigsburg,71638,,DE
834f832d-7739-422e-b98e-b8fc3b709960,flm gmbhfoto licht und messtechn zubeh r,18 schtzen strae,emmendingen,79312,312664618.0,DE
e149186a-9530-434b-91f4-6bf61664d280,precintia internacional sa,22 avenida de manoteras,madrid,28050,,ES
81c95c87-4e5a-4129-84f7-690fee9c1504,speedpoint next generations gmbh,rheinstr,darmstadt,64295,,DE
6cf59033-ec05-4bd0-bd3a-4d15774bb386,architektenkammer der,geeren,bremen,28195,,DE
c0f0bdab-0d1a-4dc8-b596-ca90bd559638,seton gmbh,5 7 otto hahn str,langen,49838,322762329.0,DE
6898f92e-c6fc-4cab-b8e4-5d8a80f7a228,dwt gmbh,wilhelm tenhagen str,bottrop,46240,,DE
923a799d-f06b-4b95-bac7-131f07b890d3,gross karlheinz,37 ulmenweg,zweibrucken,66482,342096003.0,DE
9335eaa3-76c7-4000-a206-cb48f7260550,banderas y mastiles sosa dias sa,poligono ind sur,colmenar viejo,28770,,ES
79c98d45-2822-4535-9670-3452a80cc339,organisation pro software,11a innere wiener str,munich,80000,,DE
551a20a0-0def-48e1-bfea-cb5f30b639ce,essentra components gmbh,lauterbachstrae,geretsried,82538,,DE
22be1313-c731-4cc8-bc96-2c4cf9b99da6,fako heinrich a anton,sderstr,hamburg,20537,340213235.0,DE
fd1727b8-1e1a-43f0-acf0-b5cc3ef117be,essentra components gmbh,19 lauterbachstr,geretsried,82538,,DE
ed00abba-5773-4efc-b845-0c70128ce610,datalis,8 avenue gutenberg,portet sur garonne,31125,896814522.0,FR
f8c181dc-bac8-401d-9c7f-08d5caf5cfc8,trescal limited,park gate close,stockport,sk6 2sl,215592268.0,GB
b021806d-6ef7-4a86-bfae-75a20e5e4dcd,pratt whitney pratt whitney component solutions pratt whitney,4905 stariha dr,norton shores,49444,,US
e97356be-8159-4bad-bc40-391fe39dbb68,universal service mller,11 an der hansalinie,munster,48163,,DE
ea4fa8d4-1e9d-48dc-b670-53d67a126886,dr ing k busch gmbh,1 schauinslandstr,maulburg,79689,,DE
2c65057e-12be-4413-8e16-fad0a76b6e33,sauter gmbh und co kg,30 sonnenstr,munich,80000,,DE
a5c9f06f-0f0c-40ac-8694-4ce5496d5f2d,kathleen schulze,1 kolumbusstr,munich,80000,,DE
646c5c56-169f-402f-9a4c-df6fe6ca92f4,sogeti high tech,3 chemin de laporte,toulouse,31300,287711456.0,FR
604e23d5-9333-4713-96a6-339e99d7bcc8,wimo antennen und elektronik gmbh,14 am gxwald,herxheim bei landau pfalz,76863,341245025.0,DE
111f4fbf-e9c3-4556-9b47-a8aaf30f18a1,polytec pt gmbh,polytec platz,waldbronn,76337,,DE
807fa50c-a740-4e26-8f03-2c216e192003,sommer gmbh cokg,rotwandweg,taufkirchen,82024,,DE
a25238a4-006a-4299-91a7-bac8f868cca8,zarm technik gmbh,am fallturm,bremen,28359,537384638.0,DE
784559d0-4f35-42b2-9ece-e0d87a15847b,aphisa aplicaciones,calle 33,alcala de guadaira,41500,,ES
7ad9c282-ade5-4af1-8fa8-66765ff7c650,verbindungs techniken ruether,43 steinheide,tonisvorst,47918,342438298.0,DE
eda78704-b944-430e-b69a-58e420272c62,air sea containers ltd,cavendish street,birkenheadmerseyside,ch41 9dh,,GB
30e90e70-6f80-4a70-ba69-ff2c6a1d61d9,ametek mro florida inc,5900 nw 97th ave,doral,33178-1642,,US
b39d0af4-8c79-4221-9559-8435969b7a11,fischer plath gmbh,4 gansper helmer,berne,27804,317668911.0,DE
c8dbf7a8-d137-451f-89ad-8efa79ef8841,gl events exhibitions,24 rue saint victor,paris,75005,264017122.0,FR
0ecd1216-e81f-4f2e-b99c-142a6b938ecf,sandsackshopde,12 rohnaer str,thiendorf,1561,,DE
6e17a467-df8e-4894-87c0-d89446aa34ac,honeywell aerospace,4 avenue saint granier,toulouse,31024,380951202.0,FR
6a721494-6a05-4813-8604-ca34f25a78c8,domino deutschland gmbh,3 lorenz schott str,wiesbaden,55252,318455441.0,DE
c7f90e3b-83e6-437c-b640-2dffa51eedd7,intercomp europe ltd,manor farm road,reading,rg10 0py,,GB
0a966627-f7cb-4f4d-8d55-8b8dd0bf5ec4,proroll gmbh,9 heinrich schicht str,huckeswagen,42499,,DE
0129a092-bc4a-4960-b50f-5589d5d5bb8a,kroschke,kroschkestr,brunswick,38112,,DE
73a56e4d-7a29-4907-a29d-673293b4bb09,selex sensors and airborne systems,2 crewe road north,edinburgh,eh5 2xs,,GB
d22b2cb0-9587-4bd4-a29d-ab11927944e4,zentro elektrik gmbh kg,7 hahen strae,eisingen,75239,3165552.0,DE
a9246643-2d3e-4bfa-8d8d-42da289f2e00,muenchner knoedelei,51 lilienstr,munich,81669,342593012.0,DE
6643fcf3-85e9-42ea-93f9-95e37b83e06b,cleverbridge ag,brabanter str,cologne,50674,,DE
7e61a523-f300-4ea7-880c-03fa040d3492,courriers automobiles picards,la haute borne,rivery,80136,275345411.0,FR
0f77f9ee-7b47-4511-912a-ca48c8e293bd,r g faserverbundwerkstoffe gmbh,im meiel,waldenbuch,71111,,DE
c1cdd98b-9bd8-449e-9251-5322b07e562a,goodrich sensorsintegrated syst,14300 judicial rd,burnsville,55306-4890,,US
df8b52ad-391d-44de-b888-d224a617bb74,sunaero,70 rue ampere,genay,69730,502114143.0,FR
52f9921c-ef01-45b2-be73-667844550607,yoshida deutschland gmbh ykk,33 ostring,mainhausen,63533,,DE
f111ee4e-c1f1-465c-a2fb-ce2dca69c1cc,dga techniques aeronautique,47 rue saint jean,balma,31130,635165124.0,FR
253ce464-33bd-41cc-a078-81f262216c45,hamilton sundstrand,4747 harrison ave,rockford,61108-7929,51079937.0,US
4af3a76c-114a-46cf-bd41-3951c1300af1,hamilton sundstrand hamilton sundstrand hamilton sundstrand,4747 harrison ave,rockford,61108-7929,,US
9870c64b-f6bb-4995-9d08-0a5a474839f5,juergen maurer,39 zur eisengrube,bitz,72475,332690044.0,DE
439e24fd-f927-4c68-98ec-9b715c497083,kremer pigmente gmbh co kg,41 47 hauptstr,aichstetten,88317,318233954.0,DE
6dd6ba94-2dd4-4890-a801-5108305fdab8,ergodata gmbh,lessingstrae 27,dresden langebrrck,1465,330457995.0,DE
690ce70a-82f4-4498-82a3-aa36278b779e,steep gmbh,hagenauer forst,schrobenhausen,86529,507174261.0,DE
fd6ccca7-46a3-403f-b167-9f47108f9163,viking direct,lancer house,leicester,le31ub,,GB
b6d85802-52f2-461b-a29e-11bba1b6c5ce,lupenhandelde,8 siriusstr,unterschleissheim,85716,,DE
6602b62d-fe05-4b2c-855e-c32d38f0c237,nespresso deutschland gmbh,speditionsstrasse,dusseldorf,40221,341618791.0,DE
9a0597f8-5ecb-4f91-9959-f03399d5842d,brauner siegfried,fraunhoferstrae 5,planegg,82152,328639633.0,DE
8ce398a8-076d-456b-b568-91b46f0dcd74,macherey nagel gmbh co kg macherey nagel gmbh co kg macherey nagel gmbh co kg,6 8 neumann neander str,duren,52355,,DE
d0c95a90-0ccf-4295-9a3d-27ab9e28f201,hotel und gasthof bauer,mnchner str,feldkirchen,85622,,DE
6a65543a-92c4-4146-9b8b-b84a3cf3039c,schempp decker gmbh,6 8 am stichkanal,berlin,14167,320463268.0,DE
ee2e8aec-4563-4d81-9eb2-0b3a3fc7c992,pc box lugo,59 rua ourense,lugo,27004,,ES
fbb6c400-0b26-4325-b533-1109f9163157,hoffman engineering,8 riverbend dr,stamford,69070,,US
7beeb7c7-5029-415b-a3ff-d5b205a032be,ffw ernsgaden,19 geisenfelder str,ernsgaden,85119,,DE
77c66fd9-8215-4702-945b-92fd6958b535,rg gmbh,7 im meiel,waldenbuch,71111,319932075.0,DE
8183683d-b323-4739-ae25-bc8297b35cee,hotel und gasthof bauer,mnchner str,feldkirchen,85622,322170721.0,DE
819eebf4-8b00-4d79-b6c0-0ff93fdd1bde,sogeti high tech,13 rue andre villet,toulouse,31030,260806277.0,FR
538d479c-098e-4f78-9adc-b9f6c185ac27,schmidt hoffmann gmbh,163 hamburger chaussee,bergisch gladbach,51429,,DE
6e23c40a-df87-4313-bd0e-3ac60d4cc6e3,robuso stahlwarenfabrik,75 neuenhofer str,solingen,42657,322853813.0,DE
ab94c508-b72e-486b-b251-f2772fc82577,fpw prueftechnik gmbhco kg,8 frst maximilian str,kilegg,88353,322962465.0,DE
cb5ef7d5-c0a2-4315-9332-985c99bcebd8,gardner denver schopfheim gmbh,roggenbachstr,schopfheim,79650,551205594.0,DE
fb97c3ec-081b-4be0-bd24-53ce8ebe162e,supplier loaned equipment,the quadrant,newport,np108fz,,GB
ca12e2ba-9a2a-4a61-913c-f61ddd16952b,quality office supplier sl,7 avenida de los pirineos,san sebastian de los reyes,28703,,ES
ea464e59-6a49-4424-af64-5a3eb67e502d,adf technologies championdoor adf technologies championdoor groupement adf technologies championdoor,6 avenue jean monnet,colomiers,31770,,FR
8e0b3f0a-b2aa-4899-bcce-c2b51a2a6d41,btt gmbh,dieselstr,hamburg,22307,324932342.0,DE
38187adb-15ea-498b-bb6d-25682aad8c0b,elkubema,3 bilsener weg,hemdingen,25485,343391785.0,DE
fa6d9ad1-19fb-4612-b878-44ded0a3caee,sogeti high tech,3 chemin de laporte,toulouse,31300,,FR
2362fbac-af5f-4b3e-b925-44cf162e956e,rae france,rue de la fee aux eaux,vernaison,69390,275078975.0,FR
2b6db9ee-4860-46a8-ae59-9d8937fa1582,stuttgarter verlagskontor svk gmbh,77 rotebhl str,stuttgart,70178,320556574.0,DE
c77984b0-1fb7-417a-9628-99ec5df63e4b,dataprof espaa sa,63 calle santa leonor,madrid,28037,,ES
d48eca66-921f-404f-ae98-ff3c2059941e,selex es spa,60 close via piemonte,rome,187,,IT
1d891d0d-d4a9-4541-9808-298b65fc12fa,framos electronic vertriebs gmbh,zugspitzstr,pullach,82049,316089887.0,DE
e6d450a4-a25a-43e1-9089-0951fb40a6ea,neurtek sa,3a pg azitain,eibar,20600,461196396.0,ES
eb81bc94-4fdc-44e3-a0e9-2147c762c6b2,evosource ag,80 berliner str,potsdam,14467,,DE
02f8a26c-b153-4064-bd87-9436108500d4,manfrotto distribution,44 rue de la couture,rungis,94390,263172699.0,FR
78cbcaf9-6aff-45fa-8303-0e9faef18688,ernst diekgraefe gmbh,13 altenaer str,altena,58762,,DE
cbe60e87-73ed-468d-8098-438c69b8fc05,rittal lieferzentrum,32 dieselstr,garching,85748,551050883.0,DE
48d37150-db7f-4e96-975f-96c104751d5f,ea elektro automatik,31 33 helmholtzstr,viersen,41747,330862074.0,DE
90ae2627-4fc7-4ab1-8336-d28abbf69d24,re in retail international gmbh,98a nordring,nuremberg,90409,,DE
ab17a815-f653-41a9-9838-e2b39d17f7ff,noveltis,2 pl canal,ramonville saint agne,31520,502521953.0,FR
8232ccbe-5221-433d-984f-d24b0a555f09,eidex gmbh,1a schorner str,baierbrunn,82065,33093506.0,DE
18d3383f-6dfa-4824-bbff-b24c316e7f93,aeroflex test solutionsunits 14 15,monks brook ind pk,chandler s ford,so534ra,,GB
87ab85b1-a42f-4449-bf90-c16ed48b3f24,hanna instruments sl,3b azitain bidea,eibar,20600,460733194.0,ES
759e162c-23e7-4915-8952-8776e8cb1dfc,druck limited druck limited ge sensing druck limited,fir tree lane,groby,le6 0fh,,GB
878ef369-c0c4-4ef7-aebf-5cdc3ae745e9,acmos chemie gmbh und co,industriestr,bremen,28199,,DE
4b48608b-a969-4813-9451-c1f97cb4800c,franz scheuerle ulm kg,2 ernst abbe str,ulm,89079,,DE
15ddb77a-d95a-4c89-b847-c247117a143a,ge aviation systems ltd,bishops cleeve,cheltenham,gl52 8yb,211207784.0,GB
4f0686dd-6e45-4978-b1ce-dbc0b74286ac,ime mobile solutions,7 borsigstr,barbing,93092,,DE
ac909ab7-5290-48b9-9891-7d15608181c1,electrofluid,665 rue de la maison blanche,orgeval,78630,,FR
29d1f197-c4c1-40cb-903b-94b35751b845,ui lapp gmbh,25 schulze delitzsch str,stuttgart,70565,,DE
f88f8bf5-4dff-4c47-bab7-f2d47fda65db,nea electronics inc,14370 white sage rd,moorpark,93021,9488545.0,US
d4468f99-877a-4772-8826-bb1d24f88ec7,le manoir de gressy,chemin des carrosses,gressy,77410,,FR
b02bd885-ae0d-4da3-a063-d3cb7e135ffa,honeywell aerospace,4 avenue saint granier,toulouse,31024,,FR
38816555-65e2-49eb-9cbb-30fe691a16d0,wirtshaus in der au,lilienstrae 51,munich,81669,342593012.0,DE
7ce3ca3c-e0a4-4867-8055-2e54facf61fe,medicare biomedizintechnik gmbh,lohkamp,langenhagen,30855,315702733.0,DE
2959e1db-4443-4fa7-b8d4-38ce57cc35ac,buerk mobatime gmbh,46 steinkirchring,villingen schwenningen,78056,313291792.0,DE
97d46a1f-d3c0-4084-bf7e-8acb5519ce53,vtr,43 steinheide,tonisvorst,47918,,DE
319f4a76-7b39-4697-ae5d-379e53e67718,ag sexton gmbh,16 rathausstr,jagsthausen,74249,,DE
367960ef-ad8b-46f9-8410-e6ab334cd6e9,auswrtiges amt,1 werderscher markt,berlin,10117,344891643.0,DE
253f31ae-80a2-496e-8af8-8b53dfa889ea,genex srl,via torre sant eusebio,rome,131,,IT
73d2b3e7-4b0d-4780-a025-8cb4fd6ccd6d,copelbe,16 rue grange dame rose,velizy villacoublay,78140,27646928.0,FR
cc34f045-72ce-4adb-a345-b80d1fb2bb4d,absatzplus gmbh,37 hofer str,schauenstein,95197,312504658.0,DE
78ff41ff-5ae9-419f-bd56-388e22ba2dc2,parkett wanke,charlottenstr,spaichingen,78549,312812453.0,DE
c0b48772-ae9c-483d-aff9-9874e3c00c5d,sogeti high tech sas,2 av l escadrille normandie niemen,blagnac,31700,287711456.0,FR
2605d0f6-9739-47f3-856d-b2cf4a20f6f0,friedrich heck gmbh,27 an der iserkuhle,hemer,58675,325771681.0,DE
f4f35c3f-bcc4-401f-b56f-5a1cebba96f9,weinmann emergency medical,12 frohbsestr,hamburg,22525,317198315.0,DE
5d2e9e3d-c688-4165-ab80-8f75b27f9c05,selex es spa sener azur,piazza monte grappa,rome,195,339051809.0,IT
e42f6b6c-d151-45d3-bcf6-20a84d3ecca2,temai ingenieros sl temai ingenieros sl temai ingenieros sl,10 calle de rivas,coslada,28821,,ES
39584f83-2646-4e1d-b77c-3c4def0f4935,rost graphisches systemhaus gmbh,holderacker strae,stuttgart,70499,,DE
6ea6ed15-338f-4b5d-ae0d-a3f3682dc303,netmakers,rue du 1er mai,nanterre,92000,,FR
81ff1e9f-0c0d-417f-b4ed-9323d24d4971,elettronica gmbh,10 am ham bruch,meckenheim,53340,,DE
d03b0fcc-117b-468e-9385-de80f2dcc2f7,tintoreria macias sl,5 calle tomas cologan osborne,el puerto de santa maria,11500,,ES
aaa5650b-da51-497a-89e3-5e097a1bca00,gregor chemie gmbh,8 homburgstr,eschershausen,37632,,DE
1bd2d98a-3f8b-4256-9b66-ad93a10a34e6,tauchsportservice,5 hofwies,stuhlingen,79780,,DE
3b4a9463-6af7-4ff6-8570-a3d1c6ff0209,pratt whitney canada,4 dr ernst zimmermann str,ludwigsfelde,14974,,DE
a06752f3-83a0-4125-84b5-1a81255892c3,acmos chemie gmbh und co,industriestr,bremen,28199,,DE
fb3921f1-43bb-40b4-a18b-19163f92d90e,barth blumen,60 raiffeisenstr,unterschleissheim,85716,328208322.0,DE
b5167696-a05d-455f-a889-da8499eef0b2,testo se co kgaa,1 testostr,lenzkirch,79853,,DE
f0ec3f43-5828-4789-acaf-f28b270270da,r g gmbh,7 im meiel,waldenbuch,71111,,DE
98a23369-ccf6-485c-bbf3-ad59ed830583,rae france,rue de la fee aux eaux,vernaison,69390,,FR
7eb83931-551d-4a82-b199-39bf3436a4fc,vieweg gmbh,13 gewerbepark,kranzberg,85402,325718823.0,DE
8a4ebdbd-fc08-4884-bad4-26ac0a302400,stahlgruber gmbh co,margot kalinke str,munich,80000,,DE
0c07244b-a742-4612-9280-7cada7877700,fako heinrich a anton,159a suderstr,hamburg,20537,,DE
c81cca30-bd86-4cbb-8769-bca046392adc,tetraguard systems gmbh,24 kasinostrae,troisdorf,53840,3332694.0,DE
e8b86147-6de4-4c17-a288-6a0488fe4d87,buero wenger,119 manchinger str,ingolstadt,85053,312568929.0,DE
6097f4c6-8515-41fb-b5e5-549c81140848,bildungswerk der wirtschaft hamburg,10 kapstadtring,hamburg,22297,,DE
9511612e-2d51-42a9-b1a1-26a4f813f079,adf technologies adf technologies adf technologies,6 avenue jean monnet,colomiers,31770,,FR
32009d04-4cfb-4819-8998-29d4466cc52a,raasch luftfilter,11 13 scharrenberger str,solingen,42699,316424134.0,DE
22fa259d-6407-471f-b917-070f5972a450,aeronix produkte peter magin,5 albert einstein str,walldorf,69190,,DE
3b7341ce-0a70-45fd-bb74-c09dcbdd076b,marconi selenia communications spa,1a via ambrogio negrone,genoa,16153,,IT
dc1fbe70-c637-4540-8211-648446d29374,drahtwerk elisental w erdmann,40 werdohler str,neuenrade,58809,,DE
41cd604b-4da1-491a-94c9-1f061d849a1e,manuel riesgo sa,00 avenida real de pinto,madrid,28021,,ES
546c2c52-71cd-4880-ad20-e0e9a0ff2cc6,licatec gmbh,7 erzstr,brand erbisdorf,9618,330944281.0,DE
e6a61f64-9276-436f-b550-061b45dac2b9,industrie elektronik brilon gmbh,40 almerfeldweg,brilon,59929,,DE
642a1d31-ea3f-45fe-b051-d0b761c3f2f6,nord schrott gmbh,30 lilienthalstr,flensburg,24941,320637101.0,DE
28874a33-cb76-4a3d-8d25-4542c38f44cd,zarm technik ag,am fallturm,bremen,28359,,DE
65d52735-e8b1-460e-b331-570ec7970b4e,performance plastics products 3p performance plastics products 3p gmbh performance plastics products 3p,27 max planck str,karben,61184,,DE
ba8b6218-4139-40f4-8209-98d0ad3ca710,plastiques poppelmann,3 rue r schuman,rixheim,68172,57636483.0,FR
eef729a2-3311-46d5-85b2-403e417981cf,dichtelemente arcus gmbh,16 beckedorfer bogen,seevetal,21218,313821894.0,DE
06045ef8-7c49-4a97-86f3-71ba99ba4b91,temai ingenieros,10 rivas,coslada,28821,46234408.0,ES
8af3a891-684c-46c9-9efc-77a0f3473f11,lapp systems gmbh,5 oskar lapp strae,stuttgart,70565,31792249.0,DE
b7be227e-5aa5-4ac3-860f-1fad3f29bd37,abc tools spa,via stefano canzio,milan,20131,,IT
e6119ac4-fc94-4b36-9988-61b152b079ea,euroshine valeting,69 ravensden road,bedford,mk41 0jy,,GB
e8e5ef88-d4b5-4868-96d3-821b1cde5dd5,gloria gmbh,diestedder str,wadersloh,59329,,DE
8f518e93-6c50-4fa8-90ef-b2f176e72cd4,gbc deutschland gmbh,40 42 uferweg,gelnhausen,63571,333234206.0,DE
f6d4c1fe-3a07-47e4-b62e-2face8f7fffa,honeywell international inc,4150 lind ave sw,renton,98057-4973,602570855.0,US
af561fb1-8784-422a-8d18-9225b0faab14,hc pacific,19844 quiroz ct,walnut,51577,57356776.0,US
791834ad-aa5b-436a-8979-da54abd3b31f,aha zweckverband abfallwirtschaft r,karl wiechert allee,hanover,30625,,DE
1244efc0-c35e-4c32-a0ed-ad80e0356feb,le manoir de gressy,chemin des carrosses,gressy,77410,383204575.0,FR
accfff68-d516-438a-ac8b-6a625e3ac191,grupo proyemer sca,s n carretera a lagos del serrano,el ronquillo,41880,,ES
0cdda6c2-c74c-401d-bb28-17cf71d70833,lambrecht wilhelm gmbh,65 67 friedlnder weg,gottingen,37085,315859603.0,DE
f9c1cd63-7577-4b35-98e5-2bcb9555508e,mdai mobile solutions gmbh,24 hans urmiller ring,wolfratshausen,82515,342595262.0,DE
e86bc269-b648-4d44-8899-f13cce1cf5d7,pulch lorenz gmbh,am untergra3n,march,79232,,DE
17673c8f-60ba-4c85-8368-89540511fffd,laystil sa,avinguda generalitat,abrera,08630,,ES
63e87fe1-3a54-4ce8-95dc-e8248ad69c55,erich grau gmbh,3 7 uhlandstr,sersheim,74372,31613993.0,DE
9100ac66-10a4-49dc-9a22-0c63ccb024e6,knab gmbh,4 himmelkronstr,bayreuth,95445,,DE
bdcb5ed2-0f20-4463-91de-dfbd923525d5,systempartner computervertriebs,wrzburger s trasse,aschaffenburg,63743,32898285.0,DE
ca468513-05ac-41ed-be6b-8eb2f032d551,reiter gmbh,weddigenstr,augsburg,86179,31888058.0,DE
ed6c58f8-c91d-48b4-9dc7-094dce45bdc4,fedota ing giuseppe,via padre f lancellotti,oppido lucano,85015,,IT
d4ff295b-3a15-4f7e-9111-c9b87f19ea71,honeywell aerospace,190th st,torrance,25250,,US
48a1e774-05cc-41e5-806a-7eef92e9cdf7,lm therm elektrotechnik ag,15 sulzbachstr,aldersbach,94501,,DE
41b06fb4-e253-4c9f-89dc-6aabc2f76008,aero electronic malter sikora gmbh,1 am birkenbhl,herzogenaurach,91074,507370836.0,DE
ce8a3993-e248-48e8-a594-7718e3e530b3,abb automation gmbh,6 grner weg,friedberg,61169,344889824.0,DE
12dd8563-1cab-409f-b272-7e7304b32abc,alpha taxis,56 rue albert,paris,75013,391949286.0,FR
0dd38705-9e3c-4ce6-bedf-0a7dcae7e9d8,hydro cleansing ltd,hcl house beddington farm road,croydon,cr0 4xb,239268969.0,GB
a8ec99a6-2f48-4442-95f6-02c9c6fb246a,vtr,43 steinheide,tonisvorst,47918,,DE
13688540-436c-46ea-996a-2061091e8e9a,ost und mitteleuropa verein,36 ferdinandstr,hamburg,20095,326404191.0,DE
ddc40482-8105-4b17-a153-64b67db32caa,snap on industrial germany,10 willettstr,mettmann,40822,,DE
c3470a67-8ae3-475d-af93-0323556908e5,latim sa,44 rue roger salengro,fontenay sous bois,94120,,FR
e41a7166-03f0-4cc4-9017-31338084ab04,brklin ohg,haherweg,dusseldorf,40231,325678258.0,DE
28c9bf9a-2abd-4adc-959c-a346d8fa9d62,performance plastics products 3p gmbh,27 max planck str,karben,61184,,DE
fca9ce98-be01-4fe7-af0c-8db12f62d6be,kfv kasse,13 helm str,asselfingen,89176,,DE
b04a972a-514d-4746-b026-c1c4184ae6b7,pz planen und zelte gmbh,5 aindlinger str,augsburg,86167,319871752.0,DE
7461a27b-ccae-410c-ad8d-26e06a491013,sam screws and more gmbh,43 virchowstr,leverkusen,51373,340886743.0,DE
83aed1a5-7a93-47df-ad3c-e02930acf68f,gorlo,12 am bhl,gerbershausen,37318,342972085.0,DE
b37479a6-1be0-435f-8d93-08e98199e844,faure herman,route de bonntable la monge,la ferte bernard,72400,278699061.0,FR
28f0feb9-9b22-4f25-b9ae-592526ad3fa4,blumenhof frey,wa3rmbachstraerasse,unterschleissheim,85716,,DE
ba79bdef-c184-4c9b-bd8e-6dad4340b35f,kerb konus vertriebs gmbh,7 wernher von braun str,amberg,92224,,DE
3c047412-bc14-4671-a8fb-92d4c9cef1e3,sg world limited,duchy road,crewe,cw1 6nd,536465164.0,GB
4cfb01da-f0a0-49d4-8587-5f48590aba15,kavlico corp,14401 princeton ave,moorpark,93021,8267262.0,US
32f433b3-de05-46f7-b096-e4bc6323da86,sogeti high tech,bp n 90076,blagnac,31700,,FR
1811fb7c-9f83-45c9-89f7-aee2e1839df3,tui limited,esplanade,sthelierjersey,je11ft,,GB
a939e3e1-5e18-4f7b-bd49-79fc8c279b69,honeywell aerospace,23500 w 105th st,olathe,66061-8425,614705783.0,US
5d82d20c-4069-479a-b4ed-4bcd281960f3,essentra components gmbh,19 lauterbachstr,geretsried,82538,313090787.0,DE
32571bf3-d3d2-4b51-913b-6f84a9aded27,lapp gmbh und co kg,25 schulze delitzsch str,stuttgart,70565,316086383.0,DE
86c8695e-fbf0-433d-8a2f-659b461d9008,halco iberia sa,pq empresarial sant cugat,sant cugat del valls,8174,464727759.0,ES
77db3165-1b76-4bb7-bce6-abf534a1a3b2,slv schweisstechnische lehr,37 schachenmeierstr,munich,80636,329291983.0,DE
eb7bae3c-2555-416d-890d-6edcac1bd6f0,elektro automatik,33 35 helmholtzstr,viersen,41747,342379806.0,DE
dc8d1a61-a9f9-4b37-a68c-de2301684f98,wmh herion antriebstechnik gmbh,stanglmuehle 9 11 1,wolnzach,85283,331893797.0,DE
cbe3c7e4-bdda-44c9-8609-b19decedba9f,ge aviation,cheltenham,cheltenham,gl52 8sf,67221824.0,GB
91c8e214-b690-4ec7-ad90-39290e05e30e,boote pfister gmbh,6 wahlweg,schwebheim,97525,,DE
3b69a348-8369-4ecd-b8bf-c131a55af4c4,notariat viii ulm,14 zeughausgasse,ulm,89073,,DE
58e9d4fc-e942-4218-95e0-2bcf0e09e732,wtd 81,bergstr,greding,91171,,DE
8d94d762-1eef-42a7-8e1c-e48f84d7a708,electrofluid systems,665 rue de la maison blanche,orgeval,78630,276361763.0,FR
9d6bc785-437e-4464-9d94-0483d691825a,honeywell consumables solutions sas,30 rue raymond grimaud,blagnac,31700,380951202.0,FR
7d8787c1-9f8c-42f0-b689-533d1d444a3f,rahmen shop de,7 industriestr,rothenburg ob der tauber,91541,341655724.0,DE
505938ae-8bfc-4cfa-a793-89ecb375dfae,hanhart gmbh co kg i i,33 hauptstr,gutenbach,78148,,DE
92537496-c401-43b3-a6f7-417f79fc0e90,pts automation gmbh,166 donatusstr,pulheim,50259,,DE
63643da0-9f75-463c-8e11-633f8c37b3e3,marconi selenia communications spa,1 a via negrone,genoa,16153,339927547.0,IT
ab3ef870-019b-4e31-9a3b-2d844468d51c,association deltas sqy,1 boulevard jean moulin,elancourt,78996,,FR
4c22ea5b-6bbe-44e1-9a6c-011bc2085e92,peddinghaus,halinghauser str,gevelsberg,58285,,DE
b2940ab5-5c44-471d-bc0e-a142524b4a58,stumpf,37b marienburger str,landshut,84028,,DE
b507374f-c1e9-4d99-bf80-39c889e17092,ge aviation systems ltd,arle court,cheltenham,gl51 0tp,211207784.0,GB
692fcdf3-281b-4a28-b18f-376c47fc39ff,netmakers,rue du 1er mai,nanterre,92000,260176907.0,FR
c6436756-606f-46a2-98b0-d4f800c5a653,gvf des dlr,kaniqswinterer str,bonn,53227,,DE
78ff3962-6e0f-40f3-8af8-3b3d5f38351c,hamilton sundstrand aerospace,4747 harrison ave,rockford,61108-7929,149872194.0,US
49dff353-3d85-4a2f-9a27-98d32dfc32ec,martin wei,4 birkenweg,ilmmunster,85304,312828019.0,DE
80c27449-6586-4dab-bbcd-f37a9dff2543,sport in,17 jesuitenstr,ingolstadt,85049,,DE
abd16599-4f54-44a3-a78a-4bfeb225f83c,shp,5 zeiss str,ratekau,23626,,DE
e72763f6-5365-4b33-ac9b-b025099abb19,macherey nagel gmbh und co kg,valencienner str,duren,52355,341183377.0,DE
486e3937-9701-41f5-bd31-cfe1730453fa,powerledsde,26 28 neustadter str,oldenburg,23758,,DE
c8efedca-4ae8-4378-b629-2a1cc067924b,marconi selenia communications spa,1 a via negrone,genoa,16153,,IT
c0890928-8faa-498a-8f45-f959e109277a,licatec gmbh,2 14 alfred nobel str,frechen,50226,316012194.0,DE
98d0d332-7a52-434a-bb5c-1be467236f05,binz ambulance und,21 am vogelherd,ilmenau,98693,342642038.0,DE
d85c45d2-cece-47f8-895a-e9d66606f29f,e a elektro automatik gmbh,31 37 helmholtzstr,viersen,41747,,DE
ccae9a88-829f-471f-9944-571bcb84e04c,lockheed martin,1801 state route 17c,owego,13827,,US
4d24a12c-a819-421c-8523-36f50f2f85c9,isocontrol sl,av ofelia nieto 0067,madrid,28039,,ES
3b15f832-546d-4acc-a8f2-ec74cbad0d0c,arrow iberia,75 calle albasanz,madrid,28037,,ES
faacdb94-9897-4999-9561-2c1ac2c7d0f2,hames gmbh,hererostrae,munich,80000,,DE
a78af68e-9553-4fdf-9223-27deba6d587d,dr ing paul christiani gmbh co,hermann hesse weg,konstanz,78464,,DE
ba852050-7b90-43c0-96f8-c1cf743a23e3,ge aviation ge aviation ge aviation,cheltenham,cheltenham,gl52 8sf,,GB
ec6e3c43-5de0-4adc-9f3f-5ff079668f22,plastiques poppelmann,3 rue r schuman,rixheim,68172,,FR
bc18e8e2-de1d-486b-adcc-751e0c5b275b,taxi candel jean,route de castelmaurou,saint loup cammas,31180,5440086.0,FR
f9d94010-51d7-4bd4-898b-4f93c3d85435,conrad electronic,14 16 binger str,mainz,55122,312613229.0,DE
f9a47b93-7a97-450d-af16-254bc462490a,hahnkolb werkzeuge gmbh,postfach 06 60,ludwigsburg,71606,,DE
b9287ffa-f8b6-42d9-95ea-a302a0d95b9a,muslim shopcom,31 an der brunnenstube,mainz,55120,,DE
b326c887-1536-4353-8351-03ea442bd6ab,seilflechter tauwerk,7 9 auf dem anger,brunswick,38110,,DE
f6c4cea8-4c43-448a-ad6b-50412968e16f,selex es spa,via laurentina 760,rome,143,339927556.0,IT
58da522b-992d-4bf1-92e6-24ba2c9049fa,aeroflex international ltd,school close,eastleigh,so53 4ra,,GB
c204c7b7-66fd-4e55-99a4-abf647dd6b3c,l amphitryon restaurant,chemin de gramont,colomiers,31770,779097252.0,FR
0675a2a8-73df-434f-9dcd-e15b278e7654,medicom service e k,wankelstr,korschenbroich,41352,537440336.0,DE
720277b6-0db4-440b-8f57-3755d0a66688,cif,11 rue charles michels,bagneux,92220,,FR
4bd3cfa4-9be3-4452-9b17-950bb95e4038,august schmelzer sohn gmbh,1 auf der acht,idar oberstein,55743,317535607.0,DE
e52f0da8-0e92-4ab8-b5ac-6a1a58c245cc,dirak,1 knigsfelder str,ennepetal,58256,312547397.0,DE
8ba3c958-38e0-47fc-8458-f98f52212ea0,aeroflex test solutions,monks brook ind pk,chandler s ford,so53 4ra,216834002.0,GB
e4e87c6a-8446-47b8-8b77-71738f48c518,assmann electronic gmbh,auf dem schffel,ludenscheid,58513,,DE
e974ef74-3bf5-45c2-9273-c44f73945a4d,tulli elettronica di tulli marcello,via francesco gai,rome,196,,IT
5a33b026-1e12-42ae-9d3d-334e7fa82f0d,gluetec,8a am biotop,geisenheim,65366,,DE
1b7312a0-4bbb-459b-b4e6-17087f36e5cd,sunaero,70 rue ampere,genay,69730,,FR
331e0689-dfff-4367-acda-689aad8986fb,hydraulik center dietz,18 heideland ost,handewitt,24983,,DE
a240b509-a6c8-433e-9712-4f802e7163bc,selex es spa,piazza monte grappa nr 4,rome,195,339051809.0,IT
b24a5771-a49a-4cf3-9b71-5aea388b538b,zarm technik gmbh,am fallturm,bremen,28359,,DE
278ba4c8-1221-40fa-87d1-3bdfcdb88a74,centro comercial chino antonio,6 ra da agricultura,lugo,27003,462425518.0,ES
6fe5c5bd-88d7-4993-9623-2dc65bb7f90b,curtiss wright,lambourne cres,llanishencardiff,cf14,211242694.0,GB
6d738788-aefc-4ddb-8622-99d2bbc44c0c,bedifol gmbh,august borsig str,konstanz,78467,312606563.0,DE
941ec1ab-0b44-4a66-abd6-69eead48b1ca,airtanker services ltd,airtanker hub raf brize norton,carterton,ox18,,GB
a34c487c-57c2-427a-932a-305ad48d15bc,thales uk limited,manor royal,crawley,,217452627.0,GB
3ac81de6-ebce-44f0-969a-50ecdd116eae,snap on tools,5 auf dem hls,mettmann,40822,32934672.0,DE
5aae09d4-7097-4d5b-8042-b931b3889aa7,kvt koenig gmbh,14 max eyth str,illerrieden,89186,,DE
95862890-3d47-4ed4-aff2-b677bd4be296,airflow lufttechnik gmbh,postfach 12 08,rheinbach,53359,318818127.0,DE
4ce5b1e1-5ef2-4506-ab31-9e2c7bf534db,wirtshaus in der au gmbh,pettenkoferstr,munich,80000,,DE
82dcb316-fbcb-46f9-9fef-3cffa9ac6643,duangta barz,landshuter allee,munich,80000,,DE
823ef152-e1b0-4f11-9884-b34a4a9076e5,leco instrumente gmbh,31 marie bernays ring,monchengladbach,41199,316721976.0,DE
d345e1a8-94f1-46b3-9d68-1b591762d31b,bit biether,da12tzhofer str 7,swisttal,53913,,DE
7ef31ca1-48f5-45e5-8d4a-30f269ce20ef,ingenieurkammer der freien,41 43 geeren,bremen,28195,326694234.0,DE
134e55ca-a655-4d9d-b997-77bffdca9bd9,manoir de gressy,chemin des carrosses,gressy,77410,,FR
0893b797-739f-4727-98c6-fa226c0581ce,harmony software ag,tischlerstr,isernhagen,30916,537603925.0,DE
54c89a0c-0e39-460b-aba1-729707dc941c,elettronica gmbh,10 am ham bruch,meckenheim,53340,,DE
c539d14c-f473-42d2-b4cf-dfd9fa13318a,data device corporation,11716 wilbur place bohemis ny,bohemia,11716,,US
dbf54700-b5e1-462e-842e-89aed301651d,krueger raumausstatter,693 konigswinterer str,bonn,53227,,DE
38012b2d-c47a-4d33-bd68-ffff9d14d48b,westland helicopters ltd,lysander road,yeovil,ba20 2yb,217538273.0,GB
4e1dc91f-9b8c-49e8-942e-f4b30dff0c3d,cleverbridge ag,2 4 brabanter str,cologne,50674,537461787.0,DE
08890639-7e99-4860-bd5f-e72b003fd376,spl patin,rue charles cros,surville,27400,525474904.0,FR
9c423197-fcb0-4585-95a4-c0c3d872a698,dr feierabend chemisches und,19 gllerstr,berlingen,54570,328067137.0,DE
7c11b51d-a53d-4441-8206-2d5be6d89120,acl digital ltd,lower road,london,se16 2xb,,GB
43e03f0e-ae8d-4c36-b200-485eb7b7133d,thales communications thales communications thales communications,83 85 rue emile brault,laval,53000,,FR
e6aee316-8b3e-4ede-8cbc-718c1ccb600a,edmund optics ltd,1 opus avenue,york,yo26 6bl,,GB
8a10ccca-eaae-4d31-9c4c-5e3a5dbdbeaa,floordirekt inh walter wesemeyer,markircher str,mannheim,68229,342768755.0,DE
ab957489-d1b6-4a1b-b664-c531c0fde388,copper and brass sales inc,5 sterling dr,wallingford,06492,,US
0358d8de-9bc1-4c4d-8748-fae2a29d2fc5,thales uk limited,manor royal,crawley,rh10 9ha,,GB
0c5ded04-c1ce-4fad-bac2-0f9c02464cd0,peter greiffer,58 albrecht drer ring,holzkirchen,83607,313394124.0,DE
b9f0d39e-a4be-42ba-aac0-96368cbfe282,pratt whitney canada,2 dr ernst zimmermann str,ludwigsfelde,14974,331130179.0,DE
cc928005-cf36-4611-8c3d-96e7727c6d20,quadrant connections ltd,unit 1 a1 m business centre,welham green,al9 7je,,GB
626debb6-bfff-4896-bb5e-1f7bde37064f,signal constructgmbh,4 brckenckerweg,niefern oschelbronn,75223,327823159.0,DE
1b932c6a-3719-4f78-ba6e-c4ffdf0cc344,hatfield and dawson consulting,greenwood ave n,seattle,98103,,US
661a0913-d82f-4186-b191-58a93c06ba0c,phoenix contact hmi ipc,29 kurze str,filderstadt,70794,,DE
cadb6587-02f9-4122-a7a8-3b7fa93038c8,ge aviation,bishops cleeve po box 162,cheltenham,gl528yb,211207784.0,GB
6067485f-d1c5-4174-aff8-0687983ae941,gesellschaft fr fertigungstechnik,28 rosenbergstr,stuttgart,70174,31829101.0,DE
88c9374e-3996-458c-bf90-985924808fe3,temai ingenieros,10 calle de rivas,coslada,28821,46234408.0,ES
cfb8ec8d-deb6-4d21-9aff-738a4431a652,business visum gmbh,dusseldorfer str,frankfurt,60329,,DE
c6498e19-1f43-4534-a9b3-6f90c596fab0,gps tchnologies gmbh,23a heinrich hertz str,langen,49838,,DE
3d206e69-5515-4374-acd9-87154a2626e1,airshop vetter luftfahrtbedarf,flug platz,pritzwalk,16928,,DE
0025e9ae-cd78-4208-9c8f-c7d7cf69ccd9,maschinenbau kitz gmbh,84 glockenstr,troisdorf,53844,315996355.0,DE
2568f61a-c706-43bf-aaec-c51bc214659a,poppelmann,3 rue robert schuman,rixheim,68170,57636483.0,FR
536899d7-c58c-451e-9f95-e991bbfc9cdc,rochester electronics ltd,phoenix park,saint neots,pe19,,GB
bc7b7e0d-2e09-4353-8f43-0dbef4e3def9,clickconcepts gmbh,12 hoher weg,ellwangen,73479,344129031.0,DE
322eb731-4698-4670-a1b8-70ce4ce6c2bb,thaysen telecom,23a am oxer,harrislee,24955,320641319.0,DE
6b1b704a-154c-4d01-aef4-e36eb3871112,copelbe,16 rue grange dame rose,velizy villacoublay,78140,263896649.0,FR
9e0a9062-681c-4e67-9dc2-c8c5fe20db5d,dynamic systems gmbh,11 inninge str,worthsee,82237,,DE
6ee09ef6-a4f7-4bf0-807b-53355ba73130,akka aeroconsiel ltd,bristol,bristol,bs347pz,216553403.0,GB
5e081f0e-e5e6-4e14-9c81-2e90337b75b6,werkzeugkoffer shopde,rosenstr,ziegendorf,19372,312585066.0,DE
5579240e-0518-4b54-9f1a-d04a89569355,hubert waltermann eisenwaren,4 rt loh,balve,58802,341143894.0,DE
04552123-6b3f-4e4d-a74d-efb2dfd8cdf0,georg mattheus gmbh,24 falderbaumstr,kassel,34123,332678267.0,DE
5f10218d-9fb7-4340-b39f-6f0b7759ebab,clinter traducciones e,57 calle gran va,madrid,28013,468285916.0,ES
e0857916-6264-4ba0-9a5b-acfd4d88938a,tesa germany,32 netzestr,ludwigsburg,71638,,DE
878b2071-ff9d-4dbc-bcdc-44a71973d443,slv schweisstechnische lehr,37 schachenmeierstr,munich,80000,,DE
8bd0463e-afc7-40bd-a7b7-89611d86d7a5,kleintierzuchtverein manching,20 am burgfeld,manching,85077,,DE
4785cf9e-719c-4eb3-8d89-f93f1a6109d7,fischers,10 am hirschbach,gundremmingen,89355,342880072.0,DE
cbe8ff6d-706d-4ad8-8ee2-0b6f13706ce3,bals elektrotechnik,22 burgweg,kirchhundem,57399,317074672.0,DE
fc5a80a9-e73c-4612-977c-7c1091a416d4,alpha taxis,56 rue albert,paris,75013,,FR
1de5bcc9-212b-447f-a3f6-24bab1900e6e,schubert kunststoffbehaelter,319 truderinger str,munich,80000,,DE
0900a4d6-6ba4-452f-8b34-cf2bad17891a,plug dayhe sl,1 calle poligono,aldaia,46960,,ES
68923734-42eb-4c7a-8933-599b0dbd6fd6,modellbau deutsch,33 hindenburgstr,donauworth,86609,,DE
054aa318-2eaa-44a0-8d6f-168ec9c5d3f8,lloyds bank commercial finance sky,po box 10484,harlow,cm17,215591977.0,GB
110d2436-4ae6-4fd4-a855-04958479561e,l com inc,45 beechwood dr,north andover,01845,40199572.0,US
cce26ebb-988f-4b00-9ef5-c3dc46eb34de,ge aviation,evesham road,cheltenham,gl52 8sf,288525181.0,GB
6d6d1d3f-2467-4efb-8f73-cf4c8508e3a6,isocel management conseil,du lac ii,bordeaux,33300,762822153.0,FR
664d02a2-890c-4b1d-bbb7-69e51defdf47,alexander krasner gravierbedarf,27 wuppertaler str,schwerin,19063,,DE
5daf4ea3-5936-418f-abad-50d1fa407058,inforson sl,18 calle julio palacios,leganes,28914,,ES
8a9e4ab1-b635-4926-be7d-38bcb80ba489,mk medizintechnik,120 primelstr,puchheim,82178,,DE
530192aa-9d21-4a13-8eac-9bfed3839966,uk space agency,north star avenue,swindon,sn2 1sz,217621868.0,GB
25bd969a-6495-4d09-b990-480c4c0c7ebd,micro optic nosch ohg,2 berthold str,freiburg,79098,333121221.0,DE
1f772c01-3684-40c3-9b98-edd4439de116,delta computer products gmbh,rontgenstr,reinbek,21465,31634716.0,DE
141d83c1-415b-4962-8293-8c2ee55d2ee3,albert berner gmbh,4 bernerstr,kunzelsau,74653,,DE
427fff0e-c5be-4b45-8e79-3baf8e291f54,blyenburgh co,86 rue michel ange,paris,75016,,FR
c8047775-3948-4091-a220-9b0c5997612f,sigg strahltechnik gmbh,21 randenweg,jestetten,79798,320161771.0,DE
ab83db1d-cc15-4ce2-8ed1-b0d4d1a4089c,ge measurement control,fir tree lane,groby,le60fh,,GB
f807543d-f8a6-4fb6-a3ce-67d22505bff9,paul winter schule,bahnhofstr,neuburg an der donau,86633,,DE
5a53817a-ce5d-4ef7-a166-021ff3dc1750,trobak vertrieb,14 schillerstr,eckental,90542,,DE
ceee4324-77c5-416e-9dba-c7671a739b92,klettshop24de,blossiner str,heidesee,15754,,DE
6d75a9de-e4de-4545-9cbd-a710b2e67607,plug in electronic gmbh,am sonnenlicht,alling,82239,,DE
edadd42d-64ce-48dc-9efb-e5eae5d6facb,nea electronics inc,14370 white sage rd,moorpark,93021,9488545.0,US
7d0324f9-9154-48c7-8878-a47833da57a5,hodt korrosionsschutz gmbh,flurstr,wentorf bei hamburg,21465,317577443.0,DE
685d1a81-1c05-4b1c-89cd-01178cdcfe37,tesa germany,32 netzestr,ludwigsburg,71638,,DE
b5f16ae7-28aa-462c-8037-27713cbc53f8,frey blumenhof,mittenheimer str,oberschleissheim,85764,,DE
5678d159-5a83-479a-9d35-73e95f667371,hds ventilatoren vertriebs gmbh,1 glaswiesenstr,dorzbach,74677,,DE
8636d1a6-8ad6-4d4a-bbff-9c92c2bf3125,rts elektronik systeme gmbh,66 preysingstr,wolnzach,85283,341400579.0,DE
4b61a6e1-3242-44cc-9dd4-255103a89515,c stiefelmayer gmbh co kg,4 htten weg,wertheim am main,97877,313042822.0,DE
589eb4bd-9064-421d-a052-3a1ce45a83c5,sensortechnics gmbh,boschstr,puchheim,82178,315794797.0,DE
26f1006c-7e28-43fd-989f-03ec95177cc4,easy elox,86 ganghoferstr,munich,80000,,DE
a75b5bc0-f6b3-4a46-9d64-052eb2f742b8,georg pforr gefo gmbh co kg,16 holterkamp,ratingen,40880,317099893.0,DE
2b75cf9c-d51e-487c-aed3-3f995509b645,stulz gmbh,holsteiner chaussee,hamburg,22457,,DE
bb3e4157-f4ea-4df4-950f-dc0f720e0592,temai ingenieros,10 calle de rivas,coslada,28821,461592987.0,ES
2a07c334-af06-4de5-a069-2b649c4da7fe,shp primaflex gmbh shp primaflex gmbh shp primaflex gmbh,3 zeiss str,ratekau,23626,,DE
37603d42-9c7c-40a4-8719-522c9ba23ee0,amergint technologies inc,briargate parkway,colorado springs,80916,829274674.0,US
529cd6fd-4645-431f-b2cd-cdac45197c87,united parcel service,grlitzer str,neuss,41460,315081096.0,DE
c018f6b1-ab64-4be9-8f7e-ab00d9d52afd,adlon datenverarbeitung,99 kemptener str,lindau,88131,,DE
251a3154-3135-4795-9a1a-14bc31a1edc4,aalco metall,12 aindlinger str,augsburg,86167,333354707.0,DE
6fc8402e-fc24-4cc8-a9fb-1040badc8850,lumitronix led technik gmbh,42 haigerlocher str,hechingen,72379,,DE
2da79fc5-b8ca-46fd-9545-cb58fc5b2291,digital river gmbh,78 vogelsanger str,cologne,50823,551512882.0,DE
c3200b89-b646-4b61-affb-76023e5915ef,acm,9 rue de la gare,villiers saint frederic,78640,,FR
2f83a976-1f9e-4508-abed-cc3456d630b3,fti,1 rue de la grange laidet,beauvoir sur niort,79360,38197902.0,FR
c35be655-b5d8-48c7-9ff5-24c6a7a0fe36,chauvin arnoux,190 rue championnet,paris,75876,,FR
d694d372-431c-42a7-916d-c05859f79dcc,rich ad brandt ek,12 rantgen strae,schwarzenbek,21493,,DE
b45183ad-b56a-4140-a36f-6885919d3e6e,abh nord gmbh,121 barkauer str,bergisch gladbach,51429,312923398.0,DE
71b9a10c-8f50-42da-afe3-bf9812df1c09,racing kart jade,14 rue des forgerons,saint michel chef chef,44730,2645923.0,FR
fa55c17b-9cad-428b-8fd7-3abd3e020f5f,anton paar germany gmbh,6 hellmuth hirth str,ostfildern,73760,328269782.0,DE
c00511a4-743c-4325-9045-ff1bdf411eab,selex es ltd,crewe road north,edinburgh,eh5 2xs,,GB
5ee8ee92-250f-4b65-8d83-7a44c6021d07,abc tools spa,via stefano canzio,milan,20131,,IT
2c85458b-fd12-4fad-83dc-ef3975456e30,dr mach gmbh co kg,28 flomannstr,ebersberg,85560,31557138.0,DE
56a3da87-e5a4-4897-8c5b-e3619e0c8139,sogeti high tech,1 av l escadrille normandie niemen,blagnac,31700,278490599.0,FR
b967c930-fc95-4530-ae87-96fbd7f937fd,hirschmann gmbh,9 kirchentannenstr,fluorn winzeln,78737,317651644.0,DE
f294a08a-7256-48a2-9a86-5a266de379c2,khn beratung,5 markgraf albrecht str,berlin,10711,342347578.0,DE
eb94c368-4022-45e2-96ae-848fc65e9d39,ag sexton gmbh,rathausstr,jagsthausen,74249,,DE
a4047b6a-d20c-411d-bdfb-7a907ba475d7,banderas navas sl,122 calle de castello,madrid,28006,,ES
af5f04c9-987a-4007-9180-d37fb5311231,aeroflex test solutions,monks brook ind pk,chandler s ford,so534ra,,GB
0472d735-b408-4d20-9209-858c5ac35232,mayre sc,5 b calle lpez de legazpi,seville,41008,474119414.0,ES
8b0d71b8-c2a0-45f4-a1fa-4a07d13f4d1e,telecomputer sistemas sl,0029 calle de julin camarillo,madrid,28037,460667038.0,ES
64920ce2-dd83-4d14-b7f3-2e78f0f058a1,selex es spa,via tiburtina km 12 400,rome,131,339051809.0,IT
0b369747-9511-42c5-92c0-cf305b8f6a69,ups deutschland inc co ohg,gorlitzer str,neuss,41460,,DE
04c2bc34-e67a-4952-ba54-0ab6d52e6f75,kalzbw reglab 4 cottbus,66 sielower landstr,cottbus,3044,,DE
89182ab0-ccd9-4eea-89f0-bc902e9974a3,gvf des dlr,k niqswinterer strae,bonn,53227,,DE
cca12802-b0b2-4bc9-aaab-9195b25205d8,tkl gmbh,7 grebbener str,heinsberg,52525,,DE
6e48f0b5-6825-4b31-bf51-a5c9b6f45dc6,gross karlheinz,37 ulmenweg,zweibrucken,66482,,DE
8c476df0-d945-4516-819b-b2671d81653e,adf technologies,6 avenue jean monnet,colomiers,31770,286032433.0,FR
1d00d08f-c7b4-4c8d-892e-3d86238dfc56,erich grau gmbh,3 7 uhlandstr,sersheim,74372,,DE
ba8ad6d2-e0c0-48f7-8eea-65122edc8dcd,eisenwarenteam vertriebsges mbh,58 edisonstrae,bergisch gladbach,51429,31356644.0,DE
60b92a14-50ac-43ea-8626-c0274f76b6be,edmund optics ltd,1 opus avenue,york,yo26 6bl,,GB
3a62f0be-9aec-490d-9c4f-243986b1b6db,eichamt landshut,1 rontgenstr,landshut,84030,,DE
27ac189d-a6ea-41a7-893c-284428421188,vega grieshaber gmbh und co,113 am hohenstein,schiltach,77761,,DE
69805a0b-b8c1-4ed1-9937-feaa2ecafc42,cepe forniture industriali srl,via lopi di sotto,castiglione del lago,06061,,IT
86fc7e07-7f98-45d0-bfdc-6148f264c309,ma co maritimes competenz,kahlbrandd eich,hamburg,20457,342194137.0,DE
7783a664-6d0f-412f-afdc-20b16b6d0570,techspace aero sa,121 route de liers,herstal,4041,372380824.0,BE
08798f70-87df-48a5-9dee-6f0460e60429,hamilton sundstrand,7002 po box,rockford,61124,51079937.0,US
42962be0-2ec8-4c1b-b5b1-80bfa6f3b5cc,afl europe gmbh,2 benzstr,frickenhausen,72636,329800387.0,DE
bb49d430-5e9f-4568-9f8c-b39a33b6f2e5,hamilton sundstrand,7002 po box,rockford,61124,149872194.0,US
f9e55289-0086-47a0-a9f2-9f4c6ef87422,umt,15 lise meitner str,ulm,89081,333374796.0,DE
ee32e7b9-3000-4ba4-912d-7dbf70d6c7a8,freundeskreis der bundesakademie,44 ossietzkystr,berlin,13187,,DE
12891d26-eb5e-4680-9b42-9fd10755f793,dga techniques aeronautiques,47 rue saint jean,balma,31130,,FR
ec2fc6a1-752e-40ce-9f56-9506c542ada3,febrotec gmbh,76 frankfurter str,halver,58553,,DE
86d7c7bf-e955-45b4-877d-a4ef8481c21b,arex gmbh,4 dieselstr,neu ulm,89231,,DE
ebc2fccf-8f14-4f5d-aed4-b2b9d6742360,anodizados especiales,calle mallutz,ordizia,20240,,ES
501ad89f-f5ce-487d-b5c6-ea6640f79e47,ge aviation systems ltd,cheltenham,cheltenham,gl528sf,,GB
5b73dbc1-e030-4d16-a8ce-3935c6094aa7,goodrich sensorsintegrated syst,14300 judicial rd,burnsville,55306-4890,80481707.0,US
25fa875a-3929-4300-87ac-10852f99ed18,suedruf kommunikations,14 dieselstr,dornstadt,89160,322815655.0,DE
6ea076cf-1949-4d77-8228-42d4d3adce02,sunaero,70 rue ampere,genay,69730,,FR
10a76f60-cd3a-42f9-9fa9-3399471028cd,glacier garlock bearings,9 ochsenbrunnenstr,heilbronn,74078,,DE
9bb9a739-0a7d-4d52-9875-db366744d579,hivitec,rue aim cotton,boisset saint priest,42560,,FR
4585aaf2-6207-40eb-a292-41aa4f6d12fc,ng 911 imc,815 s highland st,williamsburg,52361-9333,828884101.0,US
79bdd228-d37c-4f4e-8374-56cadeb4231c,blankenhorn gmbh,51 ruiter str,esslingen am neckar,73728,319015764.0,DE
429c5ea3-fc45-43fe-a49b-331c0704e093,palmar compass,105 via pavia,rivoli,10098,,IT
97c71f2f-fae7-4538-aee3-94b966016163,astro med gmbh,1 senefelder str,rodgau,63110,,DE
f144056d-1952-43ad-80c6-d0f00329d25e,quadrant connections ltd,green,hertfordshire,al97je,,GB
5e66b346-9401-4c34-b39c-a8c05e569126,realfm e v,schiffbauerdamm,berlin,10117,,DE
e2af45bd-b8a2-4a3e-94ea-c401f1b6023f,notariat viii ulm,14 zeughausgasse,ulm,89073,,DE
b77c7074-c950-4c95-930f-64119f393323,biccnet,3 boltzmannstr,garching,85748,,DE
4dd48241-80a1-4253-9198-c0cc9108bcd9,siegle server workstations,250 kaiser friedrich str,duisburg,47167,,DE
424803ef-a428-46eb-999b-d68429aedf5d,tulli elettronica di tulli marcello,via francesco gai,rome,196,,IT
c88f82c3-5867-4535-8f43-c216cc53a247,hirschmann gmbh,9 kirchentannenstr,fluorn winzeln,78737,,DE
b6fbcd7a-c31a-4379-85ac-7b57fe90ae8b,specialty fasteners components,unit d seymour wharf,totnes,tq9,,GB
34c833c9-8f85-422c-a250-e66124a30942,industrie elektronik brilon gmbh,40 almerfeldweg,brilon,59929,,DE
642fe3e6-ece2-4a09-aba2-4f45cd06acb9,pressup gmbh,wandsbeker allee,hamburg,22041,313340213.0,DE
30725868-50b4-48e0-b8c2-b5e769813781,super micro computer spain sl,32 avenida jose luis goyoaga,erandio,48950,,ES
e8e7ecef-b571-4ef7-9a73-f386cf9c143e,bardusch sa,poligono ind la estacion,meco,28880,,ES
2918dcb8-e0ff-4108-b5f9-9c867268d20f,schuetz messtechnik gmbh,7a rheinstr,teltow,14513,324213826.0,DE
531ae142-9d7d-41a2-9e24-db0e4decd6b3,cavotec fladung gmbh,26 heimbach,mombris,63776,332870737.0,DE
16a2f4f0-6b15-44d0-b146-58925fbbf6c5,pro idee,205 auf der hls,aachen,52068,333463339.0,DE
a4a69975-a04e-4328-9e8b-6a93004f43e8,prechter renner,2 siemensstr,wimsheim,71299,318241445.0,DE
199b0f77-a01c-4553-8a76-d52d638136e7,stadtjugendring ingolstadt,25 jahnstr,ingolstadt,85049,,DE
8086977a-6db5-48a8-a898-68a9c062e1a0,one time vendor gbp pspc,stevenage,ingelheim am rhein,55218,,DE
1da7f6bc-fe99-44be-945c-a58968d8c808,polytec pt gmbh,1 7 polytec platz,waldbronn,76337,,DE
e8ae025e-b4ff-42af-8c3d-b8d20e0e8e91,selex es ltd,2 crewe road north,edinburgh,eh5 2xs,23226769.0,GB
94564c01-ce0e-4bf3-9b23-67f81dffe43d,re in retail international gmbh,nordring,nuremberg,90409,312665815.0,DE
dd584a78-fe10-45e2-9286-1daf7963435f,sata io administration,3855 sw 153rd dr,beaverton,48612,2690149.0,US
31977c06-ae68-4fa8-a5ad-470ffafca635,siemens ag,16 hartmannstr,erlangen,91052,,DE
42a5e929-3270-4700-b3c1-08ea755cb894,ge aviation,cheltenham,cheltenham,gl52 7,,GB
5b8c8711-ef5c-4d7e-b9e5-a9f9e415affd,selex es ltd,crewe road north,edinburgh,eh52xs,,GB
7d49ff77-2e6b-4e09-b985-0d34786eb8a9,bundesanstalt f arbeitsschutz,1 25 friedrich henkel weg,dortmund,44149,344398474.0,DE
eb712390-e925-4f3d-b6bc-d17af6235d06,amergint technologies inc,briargate parkway,colorado springs,80916,,US
aa79a9e3-eb41-44ae-a4d4-1e5c88c7e64f,kaffee management,22 josef feuser str,elsdorf,50189,,DE
dbbd7851-a2be-4784-8ed5-ce2ad80218b3,galileo avionica spa,2 via dei castelli romani,pomezia,00040,,IT
8670bf90-c1a4-47ab-b60f-2c0cc34080b6,diagnosticum manching,6a ingolstadter str,manching,85077,,DE
4c9d0555-39b9-4fb7-b181-25c84904ef67,natixis factor,10 12 avenue winston churchill,charenton le pont,94220,390877715.0,FR
3e0ef0e6-0ccf-496e-b573-3ff5f235bd8e,simancas ediciones sa,pg municipal de dueas,duenas,34210,46215304.0,ES
b52c7c8e-d05c-4469-82da-20143521a05c,selex es spa,12 via tiburtina,rome,185,434003576.0,IT
2ec03647-da64-4d07-8492-b8ad43d12974,arex gmbh,4 dieselstr,neu ulm,89231,318217924.0,DE
913ad10b-001c-4f27-87df-91e7f0dba00b,elektro automatik,33 35 helmholtzstr,viersen,41747,,DE
43423aef-fc11-49fe-8af2-053507a1edbb,scharnhorst reincke gmbh,19 betsbruchdamm,martfeld,27327,329663025.0,DE
348def32-b5ac-4c2d-afff-c64d1b1a6ec6,polyplas gmbh,kiebitzweg,emmerthal,31860,,DE
a37728be-edf7-42ee-8314-e677477d778d,blyenburgh co,86 rue michel ange,paris,75016,,FR
e670ecd1-1da1-435c-8d2f-fd92913aca98,copelbe graphic,30 32 boulevard de sbastopol,paris,75010,27646928.0,FR
c42d1668-f891-462c-83b9-bef6a7e5943c,selex es spa,piazza monte grappa,rome,195,,IT
977aeded-d5ea-4c02-ae53-5801bba0eb8c,barox kommunikation gmbh,8 marie curie str,lorrach,79539,332499545.0,DE
e69e5c0d-090f-4bb1-8180-d5e0db44ec76,kleintierzuchtverein manching,20 am burgfeld,manching,85077,,DE
bd2cf1f0-3366-4c0a-8975-629750cd3dcb,ing hubert maldaner gmbh,3 max planck ring,langenfeld rheinland,40764,316026582.0,DE
1b262287-bbbe-418c-8004-ac3aed4da913,dekra automobil gmbh,21 nartenstr,hamburg,21079,,DE
06d2cd8e-7908-4a1a-9010-56e07aa4efb2,signal construct gmbh,brueckenaeckerweg,niefern oschelbronn,75223,327823159.0,DE
b9e9bc02-75f5-47fb-a18d-5cf4f9f2bf46,amergint,briargate pkwy,colorado springs,80916,,US
57ae6923-b801-48f2-bec8-6fa74af7d46b,landeshauptstadt mnchen,implerstr 9,munich,80466,317193084.0,DE
e4662b68-d99b-4338-b5b1-f9e49feaf57f,voltus gmbh,14 16 seelandstr,lubeck,23569,,DE
8aa5141d-3d17-42c3-b09b-f268b43bcd02,seefelder gmbh,finninger str,neu ulm,89231,312608228.0,DE
4f8f68cd-e13d-4032-917d-eca95a023178,renewa ingeniero sl,11 avenida ribera de axpe,erandio,48950,,ES
484866fb-d9ef-4c51-b6b6-e5b4c5586f17,ea elektro automatik,31 37 helmholtzstr,viersen,41747,330862074.0,DE
9d55cdbd-e61d-4e24-92b3-ed5f91ec6396,adlon datenverarbeitung gmbh,15 lise meitner str,ulm,89081,342582336.0,DE
e121ab94-95a9-443c-b40e-3d8f60edd40d,pz planen und zelte gmbh,5 aindlinger str,augsburg,86167,,DE
1289d400-982e-4644-95d2-f820b7e969a5,febrotec gmbh,76 frankfurter str,halver,58553,319710398.0,DE
c52d24d2-1bf2-4073-bdd7-66b3c23e5226,r g faserverbundwerkstoffe gmbh,13 im meiel,waldenbuch,71111,,DE
1b19857e-5a77-4a7c-b25c-4da5725e4775,united parcel service deutschland,1 grlitzer str,neuss,41460,318066107.0,DE
6065ae26-2396-4779-a249-2fe6cd207361,eriks gmbh,bronninghauser str,bielefeld,33729,,DE
49072979-9efd-4a6b-a5e1-6b91d47850e5,ricoh deutschland gmbh,am kaiserkai,hamburg,20457,314306114.0,DE
32db62cd-a758-4e5a-99f3-360b952ca31a,alternate gmbh,9 philipp reis str,gerhardshofen,91466,341125433.0,DE
a23aabae-9d27-4cfb-9258-44cb6442a612,bacus deltron gmbh,hauptstr,holzmaden,73271,551292704.0,DE
48f8eaa4-7db2-46dc-b8c3-d8f9b985b6c8,spraydosen shopde,ha12nders trasse,heilbronn,74080,,DE
b43406aa-7629-46c2-948a-f8ef1516b65e,jako o gmbh,23 werner von siemens str,bad rodach,96476,,DE
a7a163a4-eb5e-45a2-acde-597d99227959,ge aviation systems ltd,evesham road,cheltenham,gl528sf,,GB
08fbd646-ed9b-45ef-9f3b-f8beb35333b6,data device corporation,105 wilbur pl,bohemia,11716,54978952.0,US
e199c5d8-405e-44f7-ac95-b905d288ec79,loeschmann gmbh,ufhofer stzrae,balingen,72336,342513546.0,DE
7102f3a6-29e4-48e9-9352-10d9cddc1f6a,maschinenfabrik,32 dibbetweg,aerzen,31855,341159764.0,DE
da989736-2c8f-49aa-a31f-850dc8a80576,performance plastics products 3p,27 max planck str,karben,61184,537523854.0,DE
fe540410-81ff-4e57-bd32-f7f4d5965c39,siga electronics ltd,3 darlington close,sandy,sg19,217244185.0,GB
525f24e8-3439-4e7b-87dc-467d2999efac,fondation telecom,46 rue barrault,paris,75634,,FR
7994f026-bbc0-40cc-8927-79ef34f1759b,keck energieservice gmbh co kg,rieseler feld,brakel,33034,341842416.0,DE
0a545341-2baa-4d26-ac63-a718e3265875,hugo brennenstuhl gmbhco kg,seestr,tubingen,72074,316115989.0,DE
b5d720be-5de6-4ec3-8ac3-ec7fa5116ec3,macherey nagel gmbh,neumann neander str,duren,52355,,DE
58a42eee-c7ed-40c9-8f7c-7392679388d0,heider druck gmbh,pfaffrather str,bergisch gladbach,51465,,DE
31913897-76c1-4211-98aa-ebb110f26b25,moss express gmbh,19 lauterbachstr,geretsried,82538,,DE
68c0e896-470c-4718-9d1c-0359c711ddea,acopian technical company,po box 638,easton,18044-0638,2388098.0,US
06ec6021-67be-463b-b167-40b6f03a53a7,buerk mobatime gmbh,46 steinkirchring,villingen schwenningen,78056,312979099.0,DE
cabfce54-3422-4259-9f28-0a5d9c97d4f9,herwe chemisch technische,16 20 kleines feldlein,sinsheim,74889,,DE
ab212abd-6e83-4a81-93fe-363716a02e2b,kasper richter gmbh co kg,14 erlanger str,uttenreuth,91080,,DE
6ffbeae6-bb63-4743-9815-b4261254f1db,schraubenbudede,beesenlaublingen,konnern,6420,,DE
b85fa781-620a-4143-90ff-62b82b2f52a8,smiths industries,cheltenham,cheltenham,gl524sf,288525181.0,GB
0c1c75cf-5379-42d8-b388-8e07b4be4e85,buerklin ohg,grunwalder weg,oberhaching,82041,,DE
aac0214f-393b-48b9-a498-5d1c2135e892,lapp kabelsysteme gmbh,30 gewerbestr,stuttgart,70565,31792249.0,DE
324badae-1be0-408c-a5b8-6b84363a96fe,atecsi sarl,14 zi espace,le haillan,33185,276635872.0,FR
145addb9-40d0-4d49-8f49-b3a10cba4a9a,dicronite ute pohl gmbh,14 gra12ner weg,iserlohn,58644,,DE
a87aea9e-5f0a-410c-a48e-402f43974e30,gustav klauke gmbh co,auf dem knapp,remscheid,42855,317886018.0,DE
08a90fec-0b5f-438f-82c2-2d3eeee56c91,robuso stahlwarenfabrik,75 neuenhofer str,solingen,42657,322853813.0,DE
3fa1da32-310a-4930-b6cd-8f558772212e,siga electronics limited,darlington close,sandy,sg19,217244185.0,GB
06a44c5e-956a-4c68-9c60-8383096a1b3b,isocel management conseils,rue robert caumont,bordeaux,33049,762822153.0,FR
f8c1836e-3fb7-4328-a8a6-2b006a0ad4c6,snap on industrial germany,10 willettstr,mettmann,40822,,DE
c7f39e26-adac-4fc5-b798-f59120c38b1f,gottschalk michaelis gmbh,11 23 lahnstr,berlin,12055,,DE
be4b777b-e5e9-4fbb-8dcc-0a4e82171fd0,kaufbeuren marketing,3a kaiser max str,kaufbeuren,87600,,DE
1f788a77-a30e-44a6-bbe0-35d675d7b05b,techspace aero sa,route de liers 121,herstal,4041,,BE
872b264f-58c0-459a-a87e-b058fb9e9729,latim sa,44 rue roger salengro,fontenay sous bois,94120,275372563.0,FR
5da397ca-8267-4069-b2f8-273003bf628c,siemens ag,16 hartmannstr,erlangen,91052,32222111.0,DE
64210b3b-0e11-4765-aef1-52e4807adfff,hecker werke gmbh und co kg,1 arthur hecker str,weil im schonbuch,71093,341183628.0,DE
e303f71e-e3a8-493b-ac94-e6e2567c3c47,dawson france dawson france dawson france,3 rue galvani,massy,71250,,FR
a7f73d0b-be78-4727-b8b8-9a8ad252093e,ruko gmbh,robert bosch str,holzgerlingen,71088,316116789.0,DE
4157810a-dbc5-4fee-9b5d-5d3af4d5a6fa,noris medienverpackungen,14 lenkersheimer str,nuremberg,90431,,DE
8520ec85-b7a5-48af-8888-eae17d85156f,intersport,6 am westpark,ingolstadt,85057,,DE
5a2c044c-8759-4bbc-9ce7-6eaff954aa61,dixi polytool gmbh,carl benz str,birkenfeld,55765,,DE
6c6a77d1-5c3b-479f-a887-50edb9723698,pertegaz sl,163 carrer de josep pla,barcelona,8020,,ES
5ff72d9e-3943-449f-938a-bd9e11b5f7ae,cepe forniture industriali srl,via lopi di sotto,castiglione del lago,06061,,IT
00076444-d084-4ae7-9ce0-021305e976d8,pri european office,york street,london,wiu6pa,211485159.0,GB
56e54d50-49b3-41f3-a502-7e7084041e95,berges rohrverbinder,92a im emscherbruch,gelsenkirchen,45892,,DE
2ac809be-fe24-4e3b-8954-c8137e04f583,sommer automatik gmbh,32 36 humboldtstr,straubenhardt,75334,314273603.0,DE
e4917d10-34f0-4ac0-8dcc-3d0da422a92d,specialty fasteners components lt,seymour wharf steamer quay road,totnes,tq9,,GB
d5f42d64-d6f3-4258-b418-9ab68aacd1e4,jakob lach gmbh,17 donaustr,hanau,63452,315256404.0,DE
d9edc3e2-fe95-4f6c-919a-60eb44739f43,tts tooltechnic systems ag co kg,20 wertstr,wendlingen,73240,342794047.0,DE
d34a7c55-4e28-44ef-8cc4-38d707b756bc,rdmadrid sl rdmadrid sl rdmadrid sl,79 calle de caleruega,madrid,28033,,ES
75f17ff0-2b2c-4e65-9704-cdd928a2d7ab,eltek valere sas,de bastillac nord,tarbes,65000,276686938.0,FR
e6f50811-8c52-4d06-b5ec-92e16014ca1d,performance plastics products 3p performance plastics products 3p performance plastics products 3p gmbh,27 max planck str,karben,61184,,DE
d1940797-61cd-40ad-8559-fbaa74fab29e,bueromarkt boettcher ag,3 brsseler str,jena,07745,344634485.0,DE
6e2df51b-e161-4f57-a473-8c7ee57b81fa,cci dialog gmbh,3 borsigstr,karlsruhe,76185,316307305.0,DE
e464e7da-9975-4467-b3af-a5819ff7f8e5,paul spencer signs ltd,sheffield street,stockport,sk4 1ru,,GB
d974d9fa-8085-4c4d-9598-f9b518fc9673,la flora,10 kapellengasse,ulm,89077,,DE
c8012c1b-b420-4c39-bba4-9a70e5963eb4,mel aviation ltd,60 woolmer way,bordon,gu35,,GB
2f5cd78f-0f7f-41f2-904e-4d9dea045287,lambrecht meteo gmbh,65 67 friedlander weg,gottingen,37085,,DE
f6ea706c-b4e4-4a67-9023-e84e0abc6756,dga techniques aeronautique,47 rue saint jean,balma,31130,,FR
f7c598aa-abc8-4e48-84c1-023517fbf3a2,ao technologies,avenue du chateau,l etang la ville,78160,,FR
002c559b-f2ec-49ac-8c89-d4559598cfd6,weinmann,40 kronsaalsweg,hamburg,22525,317198315.0,DE
4871bf92-52c4-44d6-9284-4388769e28df,eriks gmbh,brnninghauser str,bielefeld,33729,31257136.0,DE
5636a032-5e37-4465-b911-b907663057f0,tts tooltechnic systems deutschland,20 wertstr,wendlingen,73240,344102058.0,DE
035d337d-a921-4998-b8fd-5d5e7bce99cf,verbindungs techniken rther vtr,43 steinheide,tonisvorst,47918,342438298.0,DE
fca6d368-a3ac-4b24-a0ec-9e34b0080cef,reinartz kleinteileversand gmbh c,15 sachsstr,pulheim,50259,,DE
3b79b4b8-04f1-4198-8dab-9abd5c3b1e2b,performance review institute,28 32 wellington road,london,nw8 9sp,216704465.0,GB
298e91d9-bef0-4654-b570-fcd60c0eded3,selex es ltd,2 crewe road north,edinburgh,eh5 2xs,,GB
3115d8aa-8b34-4597-990f-a6d7a574b1db,cablematic dos mil s l,85 carrer de santander,barcelona,8020,,ES
806737b8-61da-42c6-9867-282de5957386,mediq france,200 avenue des gresillons,asnieres sur seine,92600,278082214.0,FR
080e9920-5acc-4fb5-95d0-8ec629ccfe5d,field fisher waterhouse,gmunder str,munich,81379,342645537.0,DE
9ac3c6f9-b426-4d00-a3f9-4fb95fdf02ff,druck limited,fir tree lane,groby,le6ofh,,GB
d53672e4-dd61-4511-90ed-ed18e1da3103,gema gesellschaft fuer musi,schierenberg,hamburg,22145,498648021.0,DE
bd33ae4f-a7ca-42ff-8fb7-41cbc5520a9c,d labs gmbh,185 189 rudolf breitscheid str,potsdam,14482,,DE
8440876d-8b82-4649-8399-d77d045ede60,landratsamt bodenseekreis,1 3 glarnisch str,friedrichshafen,88045,330386074.0,DE
86a52f85-4430-4eb3-a0a3-5b7d33d0801e,snap on industrial germany,10 willettstr,mettmann,40822,344805481.0,DE
93fc7732-8d11-40df-b0c5-e014b0ca4864,akka aeroconsiel ltd,bristol,bristol,bs347pz,,GB
277ab6c9-f526-4f49-bff2-b6731b0c181e,nederman gmbh,nurtinger str 50,munich,81547,551142649.0,DE
cb10efc3-eccb-4c13-9c7c-f4df505dc173,der neue eisenhenkel,59 hamburger chaussee,bergisch gladbach,51429,340614168.0,DE
290f2993-e2f5-4da0-b5ba-9ed464b7603d,elettronica gmbh,10 am hambuch,meckenheim,53340,315996603.0,DE
031704b5-f9a6-4048-9078-4092a13f6956,licatec gmbh,7 erzstr,brand erbisdorf,9618,,DE
d926869c-3a67-4314-8c8f-58a2ab0858d9,technikexpert,1 3 werdauer str,dresden,1069,,DE
4b5d7308-58b5-4e26-a8be-939c429ec0d7,clem sau,8 avenida fuente nueva,san sebastian de los reyes,28703,,ES
546fb9c6-f9d6-4817-b96b-8b1fe2d77fd2,hohmann elektronik,36 eisenbahnstr,germering,82110,314628199.0,DE
0167f9b6-b5bf-4858-8341-0e3b009f3cb8,cz handels gmbhcomputer zubehoer,7 klaus groth weg,delmenhorst,27753,326449048.0,DE
fe71135d-42ce-4c95-a440-5f179fb39ba1,viking direkt gmbh,50 babenhauser str,grossostheim,63762,,DE
4ca998f2-dfbe-42f6-8177-5ab0dcd3893d,weinmann geraete fuer medizin,40 kronsaalsweg,hamburg,22525,317198315.0,DE
e99ed83c-d091-4494-a2be-02f79a580df8,gl events exhibitions,38 40 avenue de new york,paris,75116,262174638.0,FR
1ea968b3-3de2-4980-ae7d-d0b3541fd4ae,dga techniques aeronautiques,47 rue saint jean,balma,31130,263974591.0,FR
036c39fe-c1d8-43fc-80a4-59f5b3538ef9,fako,15 peutestr,hamburg,20539,,DE
8ec882ce-0b9f-4f18-870d-014c8d635c7a,bindesysteme,17 rbenkamp,seevetal,21220,323054676.0,DE
d0a1e2fb-3a00-44a9-9344-a6a436b73b43,binz ambulance und,21 am vogelherd,ilmenau,98693,,DE
c339bc9b-156b-4f4d-9616-d205cc554b97,flm gmbh,18 schtzen strae,emmendingen,79312,,DE
2362762d-757b-4641-8705-76e70fc7b9f0,metrax gmbh,22 rheinwaldstr,rottweil,78628,,DE
3a841674-ee0a-4caa-925d-7596b3928922,snap on industrial germany,10 willettstr,mettmann,40822,,DE
98906cd1-9698-4490-98fc-e46197f2d745,dube aero technik,langer weg,monchengladbach,41065,,DE
4066e199-e7fd-4345-8fc2-b7f3679a86ff,hr kommunikation,max von mller s trasse,rottenburg,84056,320038763.0,DE
e7a30d9e-c91e-4b73-9ed1-2d0e96c125ea,kfp five star conference service gm,4 solmsstr,frankfurt,60486,341544388.0,DE
ae2558fc-26f0-4880-8eb4-1050a0a5938b,tesa technology deutschland gmbh,32 netzestrae,ludwigsburg,71638,551366458.0,DE
710cebde-c1ae-4a48-9a84-357fef232621,eisenschmidt gmbh,flug platz,egelsbach,63324,320510886.0,DE
716a90f4-0066-4e26-a727-9575802f9ffd,horizon platforms limited horizon platforms limited horizon platforms limited,rosie road,normanton,wf6 1zb,,GB
f8af5445-a908-4c9e-b3df-3160cf97be53,pfannenberg,1 werner witt str,hamburg,21035,31554856.0,DE
ec8b00e5-f577-46b8-8fe5-e365b0d09f55,hamilton sundstrand,cl4747 harrison ave,rockford,61125,611017299.0,US
174349f3-e5b6-42f2-9b70-c9866bf61af1,hartmetallwerkzeugfabrik a mai,2 stegwiesen,schwendi,88477,343071213.0,DE
b42f8e2d-8e29-49fc-b1e5-044e9fcdd710,lokoma lorenz kollmann gmbh,7 lokomastr,hochstadt,91315,318881042.0,DE
b5c699a1-1580-428f-bff3-ee6729e5a4cf,dr med ch schnepper,dr wilhelm klz strae 43,stralsund,18435,388720468.0,DE
b1d66180-ea52-499f-8910-c0b38141225d,sg world,duchy road,crewe,cw16nb,536465164.0,GB
5295bc6e-e211-4c8a-82f8-81c8d69dfcb0,inforson sl,18 calle julio palacios,leganes,28914,469125553.0,ES
44d357fa-5b3a-4be4-9e49-bc18a6920e85,united parcel service,1 grlitzer s trasse,neuss,41401,318066107.0,DE
bc73ff8f-f629-4165-815f-9fd041b788e5,kroschke gmbh,20 daimlerstr,brunswick,38112,,DE
762901d0-f68a-4958-907d-79fb3894f71b,thales uk limitedthales group,manor road,crawley,rh109ha,217452627.0,GB
610a4b05-a4af-46de-80d2-29c53cf8ff58,lockheed martin,1801 state route 17c,owego,13827,2232973.0,US
87e64b24-85c3-4a58-a828-6d6b43924f74,mdai,24 hans urmiller ring,wolfratshausen,82515,,DE
e746f428-9af3-4e5c-928c-067010806ad7,edmund optics ltd,1 opus avenue,york,yo26 6bl,236713199.0,GB
8478b7cb-3616-460e-9041-1dfefab1c584,safran aero boosters,121 route de liers,herstal,4041,372380824.0,BE
b106c9c3-2d68-419d-8248-3c388bb53010,quarzwerke gmbh,40 kaskadenweg,frechen,50226,315730754.0,DE
7dcb00a9-77ed-461d-8e91-fffe57cec433,deutscher sparkassen verlag gmbh,115 am wallgraben,stuttgart,70565,,DE
82d7b471-35dc-4628-9f67-83497206d3d3,lextenso editions,33 rue du gouv general felix eboue,issy les moulineaux,92131,,FR
5d40d103-c76e-40e4-84f4-3bf5d79e821a,hydrobar,16 umberto nobile str,sindelfingen,71063,,DE
f67ba778-b25c-4c3d-bf5c-c21ae5a3af19,wtl wickel technik lauterbach gmb,11 immendorfer str,bruhl,50321,,DE
837188f3-3395-424a-98eb-b0595fff130f,crc industries iberia slu,96 calle del gremio cuero,segovia,40195,,ES
b29e36c4-0aa4-43c8-82da-8fef35e53dd4,dr ing paul christiani gmbh co,hermann hesse weg,konstanz,78464,,DE
a4dc11a0-a5c1-4839-af43-917adea38f58,poppelmann poppelmann poppelmann,3 rue robert schuman,rixheim,68170,,FR
1267bfd5-142a-448f-91fe-1cb20f526139,hc pacific,19844 quiroz ct,walnut,51577,,US
b1befeba-f4f9-470e-b035-c03a377875ad,elettrolazio spa,via carlo buttarelli,rome,155,,IT
59ffce72-3fbd-4bdf-a087-ef84f52783dc,gardner denver schopfheim gmbh,58 roggenbachstr,schopfheim,79650,315458729.0,DE
10086d8f-5f43-4246-a385-f079cc810819,boerner gmbh,6 borsigstr,ingolstadt,85053,341142073.0,DE
39b576eb-0a9c-42de-9c03-b67bbd9fb473,miodex miodex miodex,13 rue vincent van gogh,magny les hameaux,78114,,FR
1a8feb4f-55a0-4f03-a577-fd07317917c7,tts tooltechnic systems deutschland,20 wertstr,wendlingen,73240,34447547.0,DE
be905644-da4e-404c-8961-fa4d3cee0e77,tierra tech sl,pq empresarial de morero,,39611,,ES
4f81bfcc-0c61-46cf-9312-a57ab10ad578,field fisher waterhouse,gmunder strae,munich,81379,,DE
5be8345b-c202-4ef6-b4d7-057e4e31e860,easy elox,86 ganghoferstr,munich,80000,,DE
d90bd6f1-e01d-40e1-9982-4da5c86e23b1,meersburg tourismus,kirchstr,meersburg,88709,,DE
aeba4b32-076d-4a65-bbdc-5a94c7bd5e17,druck limited,fir tree lane,groby,le6 ofh,226525053.0,GB
12245de1-2a2a-421a-8f09-77a3cbea6562,mollerus lftungs klimatechnik gm,1 torenstr,meersburg,88709,,DE
554a68e2-bbd8-42ab-ab6e-1d64cdf23ea9,max vinzenz,70 auere mnchener strae,rosenheim,83026,325249253.0,DE
6e01f520-d285-49c8-b785-49e99caa9fb7,carney gmbh,96 westerwaldstr,wutha farnroda,99848,,DE
f3e853e9-2a11-4243-aeb7-0d4e578807fd,bird bird llp dsseldorf,carl theodor str,dusseldorf,40213,,DE
a736ab5e-eaea-4ac9-aeb9-002e7267ae0d,mnzinger,12 danziger str,senden,89250,,DE
d1bba4b8-e73a-468f-bdad-5720c51ded04,freundeskreis der bundesakademie,44 ossietzkystr,berlin,13187,,DE
cb90cde0-af35-4b0c-b559-e88b806ec09d,framos imaging solutions gmbh,zugspitzstr,pullach,82049,,DE
440fc4e6-53e3-4d00-ab04-f8ccc117506b,rainer pfanz,22 sandackerweg,aichtal,72631,,DE
ac51d95c-f5ad-49ac-af9b-ef7479bb9ccf,wimo antennen und elektronik gmbh,14 am gaxwald,herxheim bei landau pfalz,76863,,DE
4de8d106-40f7-45cc-a0ac-27fbfe94d7fb,ucon ag,122 sechsheldener str,haiger,35708,341829459.0,DE
0ae07252-5be7-4d06-9a81-b7b1678b8e0b,hoga edv services gmbh,4 jenaer str,idstein,65510,,DE
57b30aa4-a338-4a43-81c4-d0dc6e9d08a9,fssen tourismus und marketing,kaiser maximilian platz,fussen,87629,507533169.0,DE
ff41fd50-cc82-4173-93ad-f2a0bd6a3a34,koki deutschland,haderunstrae,munich,80000,,DE
8f20d3df-98e6-4d5c-bda8-63c7603bf061,etikettenstar gmbh,vogelbeerweg,bad zwischenahn,26160,312587183.0,DE
b8437e74-a603-4e6a-9828-905f89e60c2d,dga,47 rue saitn jean,balma,31131,26075634.0,FR
20e3c794-c70b-4363-9823-4557eaa9aa34,korntex gmbh,9 theodor heuss str,stuttgart,70174,341704754.0,DE
b61c62e9-78cf-41da-b200-f3347f51e06c,specialty fasteners and components,unit d seymour wharf,steamerquayroadtotnes,tq9,,GB
61276b80-73d3-4ff3-a9bf-da1c91f6f490,kerb konus vertriebs gmbh,wernher von braun str,amberg,92224,,DE
2253b32d-6b2c-4179-9732-c42cd9c3f1f1,wtd 81,bergstr,greding,91171,,DE
d8447317-3f65-4293-9f33-350a0d6c8544,tristar plastics corp,cl906 boston tpke,shrewsbury,01536,5128293.0,US
2ce998f9-edc5-45ab-afd1-6c49c1d56e0f,ge aviation,bishops cleeve po box 162,cheltenham,gl528yb,,GB
f5f9718e-3195-4ec1-9cbe-41d2c089ee2d,sinn ihn birgit sinn,ba12chner weg,pfungstadt,64319,,DE
e4e4c115-1666-42e9-a06f-4c0872d23112,hotel wrttemberger hof,karlsvorstadt,uhingen,74613,,DE
9727627d-6918-4e9d-ac44-b0726458def0,ahc oberflaechentechnik gmbh,2 2 zillenhardtstr,goppingen,73037,341053885.0,DE
81e6ecce-33ef-47c6-b8dd-f3c9e189f899,gfie,rue amiral,paris,75783,,FR
e1bada9c-76ed-4536-a8dc-4833ee97757a,telecomputer sistemas sl,0029 calle de julian camarillo,madrid,28037,,ES
cea9c426-a055-4c33-9027-bc52303cb455,ruhstrat gmbh,12 heinestr,bovenden,37120,34139143.0,DE
edb95e6a-f2d0-42c6-bdda-96f336826d15,alternate gmbh,2 3 philipp reis str,gerhardshofen,91466,,DE
7c7ed72b-6006-4c04-85f4-ed47466e9deb,le manoir de gressy,2 rue saint denis,gressy,77410,,FR
3373571a-e971-4797-9b3b-edac7bc7cc96,specialty fasteners and components,unit d seymour wharf,steamerquayroadtotnes,tq9,,GB
3b5e774a-1c2a-4e74-b785-6cb26b82fd85,crc industries iberia slu,96 calle del gremio cuero,segovia,40195,462138132.0,ES
a83fa5a8-ab24-4674-8bcd-d97d13cc1c5f,peres gmbh,kahlstr 14,cologne,50827,,DE
5f27519f-f272-45b4-a88b-d35a50c2d47e,arnz flott gmbh,131 vieringhausen,remscheid,42857,,DE
524f7477-b53a-4fc3-9adf-c70a8714d58b,ao technologies,avenue du chateau,l etang la ville,78160,270707313.0,FR
fbba638f-f4cd-4c27-93a4-a99d8e4ed841,aeroflex ltd,monks brook industrial park,chandler s ford,so534ra,216834002.0,GB
38966efe-783b-42e3-8ec9-89f995dacf45,rutronik elektronische bauelemente,industriestrae5,ispringen,75228,312776222.0,DE
d26840d2-005b-40f2-9ef6-acc532f57e2c,meyer industrie electronic gmbh,19 knigsberger str,lengerich,49525,327245171.0,DE
51f411d4-194c-48de-993b-a1c31c8a2fc1,knuerr gmbh sales office,1a emil hoffmann str,cologne,50996,,DE
70145d3e-a66f-4885-9df7-1d1cfc65673b,muetron mueller gmbh co kg,theodor barth str,achim,28832,,DE
6ce56c1e-0b53-4d74-bff9-68ef62fb7a85,kaffee management,22 josef feuser str,elsdorf,50189,,DE
2fb5a40d-d134-44df-8b53-880b1eb31086,sahin electronic,1 salzburger str,munich,81241,327867664.0,DE
54a6b32d-31de-452a-aed0-0f00931d91d5,spectra sa,8 rue manurhin,richwiller,68120,,FR
a7b5cba3-983e-4aa9-9c4c-00bdf711a1ae,keithley instruments gmbh,65 landsberger str,germering,82110,3166444.0,DE
d72ceb49-1118-459d-86ce-cc87716f1e5e,kathleen schulze,1 kolumbusstr,munich,80000,,DE
4fc025f1-c138-4c38-a9b8-5b3f93f099d4,druck ltd,2 fir tree lane,leicester,le6 0fh,226525053.0,GB
6bb99b89-4515-41d9-8def-30f4fa893fd7,snap on industrial germany,10 willettstr,mettmann,40822,332477905.0,DE
bc7276ac-578a-45dd-84ab-256e95637d18,elettrolazio spa,via carlo buttarelli,rome,155,,IT
e4415069-b41e-40d3-988d-7bf3ccc5675d,mewa textil mietservice,4 tiergartenstr,meisenheim,77974,314496969.0,DE
ee49e4f3-f104-4ca9-bc4b-67898a3a6822,lockheed martin corporation,1801 state rd 17c 17 c,owego,13827,147329606.0,US
5591e5ea-ea8b-4f40-86c2-c49aa7f96c8f,business visum gmbh,52 niddastr,frankfurt,60329,341705856.0,DE
5bc679cc-a88a-4083-8f11-740a1ca9b64a,icom communication,15 rue du general lionel de marmier,toulouse,31300,,FR
65b2d221-c8bb-4b81-a709-91014d3c8d37,tci deutschland gmbh,79 81 mergenthalerallee,eschborn,65760,,DE
b911b552-6227-49df-afe3-e83c31242bdf,fhf gmbh,26 kap horn str,bremen,28237,,DE
d0101eab-4677-4e86-8b18-333dc451ca5c,eisele case systems gmbh,14 siemensstr,massing,84323,,DE
a495ea44-4512-40d9-92e7-5d846b2bb646,cullmann gmbh,waldstr,langenzenn,90579,315679662.0,DE
b2035396-fc24-4e29-b4b4-9ad275da53c1,istituto vigilanza dellurbe spa,via rina monti,rome,155,,IT
d16c17e6-ca3f-41c2-8bf7-e99a71dc0b78,hilti espaola sa,35 calle de la isla de java,madrid,28034,,ES
92aaa669-cbec-4083-8c66-f50325c371c4,gregor chemie gmbh,8 homburgstr,eschershausen,37632,333716202.0,DE
30857054-fd74-4242-ae03-44661d504ca4,vtr,43 steinheide,tonisvorst,47918,,DE
a32da5d0-d4f9-4c50-8cea-d67ee879b66a,druck ltd,fir tree lane,groby,le60fh,,GB
e4bfc7ea-5323-4a32-8cfb-1e90fbace8b3,gl events exhibitions,38 40 avenue de new york,paris,75116,,FR
d92923e8-8be0-437f-8bfd-16f02d55ba8e,wirtshaus in der au gmbh,24 pettenkoferstr,munich,80336,343691945.0,DE
1bf66a20-ba9c-4676-a565-b42301dd78d7,aeroflex ltd,monks brook industrial park,chandler s ford,so534ra,,GB
e92c4ec1-ae57-491b-9f2e-d52ab1dc30fb,u i lapp kg,schulze delitzsch str,stuttgart,70565,,DE
7c809a35-67ba-4c5f-951b-e9c9fee1da38,gleichmann co electronics gmbh,44 schraderstr,frankenthal,67227,316261924.0,DE
0f105f6e-ace8-4d35-8cd7-3f623e42a7c0,herdt verlag fuer bildungs,21 25 am kmmerling,bodenheim,55294,343058111.0,DE
3ff6395a-04b9-41d3-8c5a-14aa9b455ce0,licefa kunststoffverarbeitung,11 lemgoer str,bad salzuflen,32108,316471598.0,DE
875615ec-9b8a-4a46-a4b9-a7b1d0bc08bc,me systeme,2 august bebel str,kolleda,99625,,DE
e46be1d9-68cf-4020-b04a-8346d5cadc7d,robuso stahlwarenfabrik buntenbach soh,postfach 17 02 20,solingen,42624,322853813.0,DE
dc52465a-89b1-4432-8ae1-5f39ea5c3aa0,snap on industrial germany,10 willettstr,mettmann,40822,,DE
9bc7bcee-7398-4f75-ba07-f890072a5d44,sna europe deutschland a range of sna germany gmbh,10 willettstr,mettmann,40822,,DE
386ab623-a42b-4565-b123-3069de2b9d21,comtec cable accessories,cardinal way,huntingdon,pe29 2xn,219291069.0,GB
aa32d2be-6fce-4797-afe2-fd9889bb1d20,fondation telecom,rue barrault,paris,75013,,FR
9b027bb6-4fe8-4ca5-ab9b-39e56b0879c4,esmeyer gmbh co kg,3 5 bessemerstr,erkrath,40699,320767494.0,DE
d69c5c27-48fe-4191-86ed-7c8326c44e95,fedota ing giuseppe,via padre f lancellotti,oppido lucano,85015,,IT
6daee762-0b75-408c-9911-64e4db7d5fba,gim geographic information manag,5 interleuvenlaan,leuven,3001,,BE
97d256b8-70fb-4ce7-8b95-80605ad33466,seilflechter tauwerk gmbh,7 9 auf dem anger,brunswick,38110,321547515.0,DE
0a871c45-7caf-4c88-b89a-3c5b30d48c27,karcher sa,15 carretera de alcobendas barajas,alcobendas,28108,462087413.0,ES
1e180a85-7fd2-48da-a375-ceae5c1ab2da,kugellager shop,64 bismarckstr,berlin,13585,,DE
d6accf13-455b-432f-b9ae-97178d13f38e,aspen produkte handels gmbh,160 beihinger str,benningen,71726,,DE
766fe422-3290-43ad-9060-976f06ec833e,vermessungsamt gnzburg,1 augsburger str,gunzburg,89312,34266514.0,DE
d5d68f3f-529b-407e-9ecb-2c45d5161427,simancas ediciones sa,pg municipal de dueas,duenas,34210,,ES
ff83f00d-11a4-4a56-9dd2-10243cec4004,flair hotel am kamin,62 fssener str,kaufbeuren,87600,34294747.0,DE
daf81d44-c6c9-49bb-a361-e5fb13649f30,ads analyse detection securite,31 route de paris,jouars pontchartrain,78760,265604157.0,FR
6c9f5c5c-23e5-4938-8f51-90832b88341c,licefa kunststoffverarbeitung,lemgoer str,bad salzuflen,32108,316471598.0,DE
4dbf8766-4367-4e8d-ae55-30de952e5614,regensburg tourismus gmbh,roter herzfleck,regensburg,93047,,DE
7b3c2e8e-9bbc-4f9a-a7d4-da3fb355fe52,richardson rfpd italy srl,viale fulvio testi,milan,20126,,IT
416bc525-125c-4b64-8c05-4303674c6c0a,audio ton medizinisch technische,24 rntgenstr,hamburg,22335,341235919.0,DE
3b56172e-e296-4b6a-bc54-5127bf943d87,tx design gmbh,8 loosesweg,bremen,28219,,DE
4df177f7-3470-4c8d-ac7b-7eb707868912,hivitec,rue aim cotton,boisset saint priest,42560,349029256.0,FR
3bf645de-3869-440f-a614-5b21452b25af,eisele case systems gmbh,14 siemensstr,massing,84323,507584295.0,DE
db58556b-0b27-4984-a1d5-03cf223513ce,translogic inc,engineer dr,huntington beach,92648,,US
7cfb5e17-b320-46d7-9195-a6644b0fdf83,akka aeroconseil uk,golf course lane,bristol,bs34 7pz,216553403.0,GB
de750d22-dff6-40c6-84fd-cf4cc57af6cf,east view geospatial inc,10601 wayzata blvd,minnetonka,55305-1515,622514941.0,US
dac7a53d-760f-4d6a-8171-bdb47b3aebe5,expeditors intl str,6 kraichgaustr,neuhausen,73765,,DE
877c0076-0065-4439-a784-f61fb41712dd,heisslufttechnik flocke gmbh,mondstraaye 2 4,feldkirchen,85622,,DE
a13d7a2f-dcd0-435f-a0e6-d5d0b002d42d,sinus `messtechnik gmbh,fappelstrae 13,leipzig,4347,330473349.0,DE
43b5ff3f-b5ff-4ca3-9a4e-2266e9701a39,jura zentralservice singen,16 otto hahn str,singen,78224,342653791.0,DE
5d075ac7-8ee9-455f-932d-1e5a06275a46,fssen tourismus und marketing,kaiser maximilian platz,fussen,87629,,DE
e268e671-a972-4436-a92d-6c0e94ef0f8a,dga techniques aeronautiques,rue saint jean,balma,31131,263974591.0,FR
5777e1a9-6036-4bfb-8da7-8be88e78f47b,adriana flores y cosas,11 calle ramn y cajal,getafe,28902,460916933.0,ES
2e5d4b89-0366-403e-9904-41373d66102a,sunaero,70 rue ampere bp 58,genay,69730,,FR
f33b147c-72b9-4110-bd51-4736784ab403,aeroflex gmbh,2 4 gutenbergstr,ismaning,85737,316191626.0,DE
96f4e3d0-ea15-4141-b9a6-e0283617e803,intercomp europe ltd,the old barn manor farm manor rd,reading,rg100py,,GB
4c86d887-9270-404e-9af1-e7911caae231,sortimo international gmbh,13 landshuter str,unterschleissheim,85716,,DE
fbd3b951-7ca4-4ee7-a3d7-fc2d7659aefb,knuerr gmbh sales office,1a emil hoffmann str,cologne,50996,,DE
e93cda20-68df-4360-b8b8-d0c4d137f7f2,malteser hilfsdienst ev,3a axdorfer str,traunstein,83278,,DE
7d8405d5-9092-4427-b509-6c7be5afde63,geosand,calle dona carmen,alhaurin de la torre,29130,,ES
34c850f5-b407-4432-a137-587e94d68ba9,kraus naimer gmbh,wikingerstr,karlsruhe,76189,316073089.0,DE
68f9281d-866d-4ae6-93b3-b16ddb746d11,schempp decker gmbh,6 8 am stichkanal,berlin,14167,32872645.0,DE
7e7693b9-4c30-4277-bec8-5d4938424f14,score services,30 cours de l le seguin,boulogne billancourt,92100,293431677.0,FR
2324faf7-cfb0-47a5-839e-7df844ea6852,interflex datensystem gmbh,maybachstr,hildesheim,31135,344563601.0,DE
5c1a028d-6eab-4a49-8e09-16daa1d9dab5,tetraguard systems gmbh,24 kasinostr,troisdorf,53840,341491436.0,DE
b64d389c-6ce3-4efc-ba0a-243720a33140,albert berner gmbh,4 bernerstr,kunzelsau,74653,315731075.0,DE
f79a6dc7-4861-4892-8a01-21eaa1a97e84,deutscher fachjournalisten verband,84 karmeliterweg,berlin,13465,,DE
588c0c4a-60c0-42f1-9888-a822ea75b9bf,fischer pierce,8 frst maximilian str,kilegg,88349,322962465.0,DE
ed5f397e-6b9f-4839-9c55-ac5183030a4b,bocom kommunikationstechnik,1 poststr,langgons,35428,,DE
a7b73637-aef8-43a2-b886-251ba118c754,bundesverband dt,oberwallstr,berlin,10117,,DE
8c7975b3-1816-4a55-8e2d-802b4816a98c,quarzwerke gmbh,40 kaskadenweg,frechen,50226,,DE
705b8c5b-8b95-4fc3-8b93-8efc5cf0814a,sew eurodrive gmbh co sew eurodrive gmbh co sew eurodrive gmbh co hpt verwaltg,42 ernst blickle str,bruchsal,76646,,DE
ddd07b3e-d081-4a6b-9e92-c8e765b75d20,vtr,43 steinheide,tonisvorst,47918,342438298.0,DE
e5b8c3bc-5ebb-494d-8263-9913b96f3a0e,sennheiser vertrieb,76a karl wiechert allee,hanover,30625,499187367.0,DE
5b920641-daac-4607-b749-c90b17e21914,sortimo international gmbh,13 landshuter str,unterschleissheim,85716,,DE
032a495d-1a19-4b11-abee-d8a83de5c76b,lach diamant,17 donaustr,hanau,63452,315256404.0,DE
3973a412-28cb-4003-8ec2-517f86d8def0,inficon gmbh,498 bonner str,cologne,50968,314521394.0,DE
823da760-6260-4d19-ba74-b6e60cd37dfc,blumenhaus ertl,17 hauptstr,unterhaching,82008,,DE
3978124b-9753-4d31-9505-5eb0512a294b,rg faserverbundwerkstoff gmbh,7 13 im meiel,waldenbuch,71111,319932075.0,DE
b8c05ae3-ba18-4253-9cc3-a71dd97198a8,hydraulik center dietz,18 heideland ost,handewitt,24983,341754747.0,DE
d75f9298-0827-4481-91cc-5491802b8aad,alltec gmbh,22 jahnstr,hungen,35410,328486832.0,DE
fe246cde-bd09-4b12-a8b5-30c45b6df307,dawson france,rue galvani,massy,71250,,FR
914aa8bb-3e02-4e28-9087-332023fb172f,lloyds bank commercial finance sky,po box 10484,harlow,cm17,,GB
a9de00fc-22d6-4a48-a163-f3e7403f33e4,autohaus feldmann kg,2 burgstr,borken,46325,,DE
4968995e-23bb-480e-85d7-3963e8874374,kabelscheune ek,6 schulstr,burgbernheim,91593,,DE
ab6b811a-a27b-4bb9-b0be-a819046dd4e4,aalco metall ltd,12 aindlinger str,augsburg,86167,324899095.0,DE
51979b62-4283-4fe7-93c9-ecc543ca769d,hbg marina krger,13 walpertshofer str,laupheim,88471,,DE
248d3f46-6ea5-446e-b44c-ac1b6cc9fba8,kroll ontrack ltd,weston road,surry,kt171jg,770541647.0,GB
665725e1-7288-4dfd-ac4f-42b984a0cdcb,radladen gmeiner gmbh,29 werastr,friedrichshafen,88045,,DE
4ffcba99-df43-479f-92d9-a000c59d0233,linux trading distribution,unter den buchen,bockelwitz,04703,,DE
2320f218-d6aa-4666-9260-f79dba6cd5b3,stahlgruber otto gruber gmbh,130 einsteinstr,munich,81675,312679625.0,DE
744859fd-35e3-410e-9fc2-d4325f5829d5,geo center,1 calle poligono,aldaia,46960,,ES
303825e9-768c-4634-b4ce-a6b78db5161b,unitronic ag,9 mndelheimer weg,dusseldorf,40472,341331228.0,DE
22901dc9-9a0b-4c10-b130-3d998aeea315,hillenbrand gmbh co,5 zainerstr,ingolstadt,85053,318155264.0,DE
90eea53b-0d62-4783-b5ce-144fbecb8ae8,conectrol sa,57 58 calle de jorge juan,madrid,28001,,ES
65099899-4cdb-4ab4-b910-f35a7577f1e9,u i lapp gmbh,25 schulze delitzsch str,stuttgart,70565,322009895.0,DE
bcaea76c-b946-4251-9ce7-c8998edd0b7a,fiz karlsruhe,1 hermann von helmholtz platz,eggenstein leopoldshafen,76344,317426773.0,DE
256bfed8-de82-4e37-a7ac-5049b3fe7afa,unitronic ag,9 mndelheimer weg,dusseldorf,40472,316027101.0,DE
1e38f6fd-8f38-488c-b250-d63f66532acc,hq patronen gmbh,21 23 am bauhof,seevetal,21218,341567119.0,DE
996c7f2a-056c-4c55-bb29-527012ed7342,notariat ulm b2,30 griesbadgasse,ulm,89073,,DE
fc8bf3d0-0a95-48e4-9f8e-8e2850913563,ge sensing,fir tree lane,groby,le60fh,219144201.0,GB
db8217ed-256b-4754-b58c-b385f61df287,wurth elektronik france,1861 avenue henri schneider,jonage,69330,,FR
0f808894-b4f1-4b34-97f7-9d7b87285a87,tropack packmittel gmbh,8 vor dem postck,lahnau,35633,329711691.0,DE
97cd92c7-b76b-4a96-877c-5becf48d3b9f,tauchsportservice,5 hofwies,stuhlingen,79780,,DE
045c4309-b3d5-4d1a-bf45-cf08bea12529,analisis y simulacion sl,14 calle leonardo da vinci,vitoria gasteiz,1510,,ES
bdda4e98-461c-4595-a326-d88d95c3508e,arrow central europe gmbh,frankfurter str,neu isenburg,63263,,DE
50a1e322-0ca2-4f4a-b8e3-c0b45668c599,eisenschmidt gmbh,1 am flugplatz,egelsbach,63329,320510886.0,DE
38153802-987b-45af-a011-9bb31167e41f,stahlgruber otto gruber gmbh,130 einsteinstr,munich,80000,,DE
1c1a8908-78d1-4099-93d5-6ead25c4de73,juliane rode,33 leonrodstr,munich,80000,,DE
47adc8d0-9e60-41ae-ae61-3587774c3a43,java user group stuttgart ev,schanaicher str,stuttgart,70597,344706747.0,DE
575c56a1-1602-4871-8055-3d1a02d15e6c,asup gmbh,10 beckedorfer bogen,seevetal,21218,,DE
5a8f05e2-58f5-4812-9ecd-2561dd549543,horst zaun,46 eduard rhein str,konigswinter,53639,,DE
568f366b-974b-442d-b1c6-386fe5ceb5ea,institut francais munich,kaulbachstrae,munich,80539,,DE
c971e1b6-8f16-48eb-9ea2-41609cefd5ac,otto versand gmbh und co,wandsbeker chaussee,hamburg,22179,315016931.0,DE
91e8f44e-fe3c-4f08-8371-d5781f460144,hilti espaola s a,2 avenida de fuente de la mora,madrid,28050,462022385.0,ES
2a07374b-7465-4ec5-a8ec-85c29af5758f,chauvin arnoux chauvin arnoux chauvin arnoux,190 rue championnet,paris,75876,,FR
0c030810-4cad-40cf-a042-f60ae1ea4988,ramon martin sa,0001 calle rafael beca mateos,seville,41007,,ES
fe3fee3d-4cb0-4f22-ba54-c256ec8f12cd,curtiss wright,lambourne cres,llanishencardiff,cf14,,GB
00dd00ff-607b-4851-b1e1-8dbd6fe33613,nexus gb ltd,horsebridge road,stockbridge,so20,,GB
96f1787f-6be0-4805-b116-2f1752038fea,gardner denver schopfheim gmbh,9 grienmatt,schopfheim,79650,315458729.0,DE
a1b69176-ec71-4d75-ab66-ebeae9199591,technischer handel kahlhorn,5 waaler str,buchloe,86807,342274366.0,DE
9b611972-c939-4ddb-84b6-54090d1ba0d6,geramond verlag gmbh,11a infanteriestr,munich,80797,329231971.0,DE
9b01ca05-1967-4ad2-89db-41b4ebe2ba2f,fiz karlsruhe,1 hermann von helmholtz platz,eggenstein leopoldshafen,76344,,DE
48ba03c8-72d1-428d-8aa8-6a62c4f4808f,brk datentechnik zeitdienst,46 burkstr,villingen schwenningen,78054,,DE
f13b694b-9835-4ee8-bb84-727891375e59,copelbe graphic,30 32 boulevard de sebastopol,paris,75004,,FR
9e022562-3f2e-4407-aa13-e77321ad65ef,richter frenzel gmbh cokg,5 9 stauffenbergstr,augsburg,86161,340853604.0,DE
de535b21-f677-4795-89d7-53cbe69c77b4,kalthoff gmbh,1 grabenstr,schalksmuhle,58579,315983015.0,DE
77d04dd9-6a5f-444a-9fa5-295217c4b787,comtec cable accessories,cardinal way,huntingdon,pe29 2xn,,GB
93342459-1334-4f2c-8184-ad653ce38dc8,oest modellbau,davenstedter str,hanover,30455,,DE
62a112ba-3784-47e3-87c4-6432e66fa43f,officept gmbh co kg,amerikastrasse,zweibrucken,66482,331359526.0,DE
8d99cc9a-f7ee-4dcc-8f57-09c92ce6c6b5,ulmer volkshoch,5 kornhausplatz,ulm,89073,,DE
63ed7f38-29c0-4e4a-a8da-e5624fd13e22,gustav klauke gmbh,auf dem knapp,remscheid,42855,325287258.0,DE
bb3817d8-69f5-4dea-93be-e5ab395ecfe5,opitec handel gmbh,sulzdorf hohl weg,giebelstadt,97232,,DE
330ace6e-ecb5-4f59-8a10-9d2d4352c1d7,gruschwitz gmbh tech twist,68 memminger str,leutkirch im allgau,88299,315396515.0,DE
a19f342d-bb5e-4056-ae2f-b1a86c079433,vg wort,49 goethestr,munich,80336,319649125.0,DE
afd66828-aa75-41de-a89e-39f41eb3938e,milaboratorio web sl,calle puente alto,colmenar viejo,28770,,ES
34e073ae-4bcb-4839-b202-3fd69d796b45,aaf sa,avenue de paris,vincennes,94300,264511045.0,FR
d373c382-62dc-4785-a800-dbbebeaa205b,lapp systems gmbh,oskar lapp str,stuttgart,70565,,DE
402f02cd-87fe-498d-8ebe-8c89c6ed285b,inficon gmbh,498 bonner str,cologne,50968,,DE
876f70d2-2793-4e9e-ae8c-dcf398067029,score services,rue de sevres,boulogne billancourt,92100,,FR
a355554d-7736-46ca-beb6-c06a5376cbc2,acopian technical company,po box 638,easton,18044-0638,,US
3094921b-6eb4-40fc-9ffc-694ff218fd03,filzring ohg,3 4 werrastr,bad sooden allendorf,37242,32929178.0,DE
e8695ac0-8ef8-4bd1-bbfb-36009497d10a,cadilac laser gmbh,herderstr,albstadt,72459,,DE
e036ab79-3205-4c1f-8739-53e6c6f8b2bb,otto roth gmbh co kg,rutesheimer str,stuttgart,70499,315483297.0,DE
273ccd4e-e4c4-4157-b914-883a952340de,luftwaffen offizierheim gesellschaf,19 wilhelm frankl kaserne,neuburg an der donau,86633,,DE
60a24034-97cd-45d1-a4b5-fe82e0136c2b,gruse gmbh,32 dibbetweg,aerzen,31855,341159764.0,DE
27ea5da4-b281-4ab5-9c2d-575f02d65dd1,stuttgarter verlagskontor,77 rotebhls trasse,stuttgart,70178,320556574.0,DE
17caa304-d0bf-4b79-b358-86b2fd617c36,lupenhandelde,8 siriusstr,unterschleissheim,85716,,DE
5d463a2e-fde9-4e9c-820a-f35b5cba0b07,meyer industrie electronic gmbh,19 kanigsberger str,lengerich,49525,,DE
904ed31a-2c91-44f5-be4f-dd61838d04d5,brillux gmbh co kg,10 josephine hirner str,lindau,88131,33074268.0,DE
97fb6c78-0e43-4620-a4e3-037aad0b1033,hamburg travel gmbh,steinstr,hamburg,20095,537713203.0,DE
8610d264-6d30-4fd9-80ae-f2dac128827e,suedruf kommunikations,14 dieselstr,dornstadt,89160,,DE
cf054ad7-6554-47fa-b3f0-cdb3c62d5bf8,fahrrad brenner,5 unterlettenweg,ingolstadt,85051,,DE
68f7421e-ef8f-4aa0-8f07-c4bee8a1ce39,db vertrieb gmbh,stephensonstr,frankfurt,60326,,DE
2c354a23-c3c8-47bc-955e-1acc2c2dea51,stuttgarter verlagskontor,77 rotebahls trasse,stuttgart,70178,,DE
9899ac4c-a561-4e2a-a055-95873b68e1e4,landratsamt bodenseekreis,1 3 glrnischstr,friedrichshafen,88045,330386074.0,DE
77e3fd62-3666-4cbc-9d8a-e94729f638fa,andreas maier gmbh,stegwiesen,schwendi,88477,343071213.0,DE
aeec2ddb-be94-4d0c-896c-967a8fe34ece,siemens ag,henkestr,erlangen,91052,313366613.0,DE
b54f1933-d136-45b9-8bf9-da9d7f69c096,selex es spa,via piemonte,rome,187,,IT
95e97275-01a2-4119-b81e-62f8d762547d,gim,researchpark haasrode interleuvenl,leuven,3001,374189587.0,BE
86cc1913-3ea5-4e72-b5dc-e5e672ebb67e,landeshauptstadt mnchen referat f,sendlinger strae,munich,80331,340221955.0,DE
17ce75d1-cc4b-4ab3-925c-356692bbcd0a,k busch gmbh,1 schauinslandstr,maulburg,79689,317541456.0,DE
6a0fa6cd-c814-4d39-926e-4445f25ac405,temai ingenieros,10 calle de rivas,coslada,28821,,ES
96621a2e-ec41-437f-8e41-4fce0dbcef7a,febrotec gmbh,frankfurter str,halver,58553,,DE
df577810-9fc1-493b-980e-9b74d25c36dc,air sea containers ltd,cavendish street,birkenheadmerseyside,ch41 9dh,294322169.0,GB
2a5783fb-8784-45b1-b57a-f1fc1aa4c1d8,intercompany,internal ap intercompany account,newport,np108fz,,GB
ad765a75-b484-4437-b075-30e95da09c9b,edmund optics ltd,lysander close,york,yo30 4xb,,GB
db59efd5-b285-4aa4-b50e-5bd65cedada2,bit biether,d3tzhofer str 7,swisttal,53913,38805715.0,DE
df82aecc-5d1d-4b9c-bfc8-505351824c72,endrich bauelemente vertriebs gmbh,hauptstr,nagold,72202,,DE
bcc60d05-3dca-4f42-9837-735c2cf2b2fe,otto roth gmbh co kg,22 rutesheimer str,stuttgart,70499,,DE
15e562a8-c3ca-46c5-a004-389cf95d0fcf,factorem international visio,avenue winston churchill,charenton le pont,94220,281985668.0,FR
6a347f9e-c098-455a-a3ed-fb50edfda273,jp aero com engineering co ltd,cherry tree rise,buckhursthillessexig96ey,ig9 6ey,216202267.0,GB
3cb21cae-126d-4a59-b9a1-bd47b2837c64,siegfried hintz,paul friedlander str,wiesbaden,65203,,DE
625f95de-ca53-4f8e-9d37-00ffe9ea38bf,gfie,rue amiral,paris,75783,500757836.0,FR
181d12eb-3340-4c4e-8755-ac8da7745f79,dia nielsen gmbh co kg,1 industriestr,duren,52355,318979739.0,DE
54939dc0-69ab-4130-acc1-a9ee369282bf,polizeidirektion ravensburg,97 gartenstr,ravensburg,88212,,DE
a6cfdb78-c9d9-484b-b093-6a16383c21d2,vg wort,untere weidenstrasse,munich,81543,326517216.0,DE
4e8e253b-0731-4ade-8eab-e61ac2e517cf,witas gmbh,35 stiftstr,minden,32427,323514612.0,DE
ba5c212c-75c3-4a52-b01c-051afd7dfac0,ralf michael mohr,2 rosenstr,ziegendorf,19372,,DE
4d1232f4-a66e-47b2-92e3-ddd862fffc0d,m isabel nieto ramirez,1 calle gabriel garcia marquez,bollullos de la mitacion,41110,,ES
3c19d4df-9424-4753-815d-a11a57a6c12b,flughafen leipzig halle gmbh,terminalring,schkeuditz,04435,,DE
8e9f45d7-e981-4a0b-bdd3-c35982c1fd0e,buchhandlung gerd stiebert,kupferstr,ingolstadt,85049,,DE
df9c740e-1f61-44a4-93d2-58ce6907fd9b,bit graphik marketing,carl benz str,owingen,88696,,DE
a3d63f5d-a404-47cb-912d-df09b9c99bae,suse online shop,4 an der hasenjagd,remscheid,42897,320813942.0,DE
3024ec6d-03a6-4174-9389-8108eeb9fd57,vvg befestigungstechnik gmbh co,friedrich wohler str,neumunster,24536,,DE
3a18bde8-5a05-4f02-9d42-1c4fc74bc3ff,koki deutschland,haderunstrae,munich,80000,312517723.0,DE
42c3820a-91c4-4c0d-b0ec-f1c69ed33e1e,java user group stuttgart ev,schanaicher str,stuttgart,70597,,DE
50a496d2-6cf5-4dbc-af7c-f998aa6126a2,dawson france,3 rue galvani,massy,71250,277316121.0,FR
4fbf5626-06b0-4393-ac72-51e2e3256ac0,hq patronen gmbh,glsinger str,seevetal,21217,341131705.0,DE
d2400b13-0316-4d80-8a1f-e5547173e3c5,dgfp deutsche gesellschaft,16 niederkasseler lohweg,dusseldorf,40547,316827112.0,DE
7dc68a9d-2c98-4797-b936-bae1fee23395,los caracoles,60 calle rosario,gijon,33201,,ES
e3cc5842-c0a0-40ce-87c3-1b888a555ed3,medtronic gmbh,20 emanuel leutze str,dusseldorf,40547,31810795.0,DE
00d11a3d-e838-46cb-bee3-c0358d243bf5,morgui clima sl,11 13 carrer monturiol,badalona,8918,565061678.0,ES
077fdf56-c5a5-48f1-becc-109898779b07,ratioplast gmbh,9 spitalwaldstr,schwabach,91126,,DE
92c50f3e-7a54-433f-88a5-22f930b1d9ae,medicom service e k,13a wankelstr,korschenbroich,41352,,DE
ea0d41e6-decb-45c6-9787-c5f654aec914,airflow lufttechnik gmbh,21 kleine heeg,rheinbach,53359,318818127.0,DE
01906e48-32d7-45be-b3bb-600a3150f5f1,mohawk rubber,industrial trce,alpharetta,30004,,US
279251a5-df77-469b-8b54-ff5311e44652,chartworld gmbhco,90 ruhrstr,hamburg,22761,,DE
c3fc6545-923e-4c6f-b461-a0d80dc8ec44,macherey nagel gmbh co kg,6 8 neumann neander str,duren,52355,315128884.0,DE
722f2d1e-21b1-4d0e-b9f4-d4c671893ad7,mira consulting gmbh,strombergstr,balingen,72336,,DE
f0379ca8-f9af-4453-9785-174affe3ed72,kar lynn art frame,611 n center st,arlington,76011-7146,78888902.0,US
bc923a6d-96bc-438e-ad67-7b579b096432,tourismusamt,1 sendlinger str,munich,80331,342504707.0,DE
8e9f5f23-afe0-4455-80bf-d4541b0abe92,neon centro,via adriatico,potenza,85100,,IT
f8667412-7b3a-4b4b-b265-c5cdc338e808,avc,7 boulevard du marechal juin,verrieres le buisson,91370,,FR
99ec7fe5-6345-4d89-ae5f-5f07b1cbe769,pfannenberg gmbh,1 werner witt str,hamburg,21035,,DE
389de625-874c-4af9-9c1b-63ceb3c15008,aphisa aplicaciones,3 calle barrio nuevo,alcala de guadaira,41500,463080697.0,ES
86d19b2c-a01a-4000-927f-ee55c3b44322,bilz vibration technology ag,25 bblinger str,leonberg,71229,319009478.0,DE
85af0461-1b22-4957-a351-7fc0479134f8,regierung von niederbayern,540 regierungsplatz,landshut,84028,,DE
14294e01-ff81-4960-bfe8-96c9a2ff4ac3,hornung gmbh co kg,55 rathenaustr,neu isenburg,63263,316806165.0,DE
7cb00d98-2f80-478a-961e-2c2a869a16f7,forum luft und raumfahrt e v,41 luisenstr,berlin,10117,,DE
033f628b-628b-4611-9bb2-14835e227df9,grimm metallpulver gmbh,1 am wasserturm,roth,91154,,DE
2279f732-4f03-4741-9ae0-9c00e3c4086c,luces sl,46 calle del general daz porlier,madrid,28001,46645728.0,ES
272b6437-6054-4106-b372-1e2bfd4a7162,picmg,401 edgewater pl,wakefield,01880,960394963.0,US
c7ce28e0-5795-45d6-b21f-98644bd135c8,quadrant connections ltd,green,hertfordshire,al97je,221474815.0,GB
92186950-195e-4633-a6e9-a55831838dff,diamond point international europe,sir thomas longley road,rochester,me2 4fa,,GB
baf6afc1-16ca-43aa-842c-70ec235c1110,oneaccess belgium nv,335 geldenaaksebaan,leuven,3001,376064072.0,BE
90fc1d3e-fc38-402a-a9eb-b24eb58b35a4,eltek valere sas,de bastillac nord,tarbes,65000,,FR
26d063d0-e465-4340-8208-8569af5cee35,palmar compass,105 via pavia,rivoli,10098,,IT
ce2ab968-63bd-4baa-908b-4ffd2d3f6906,united parcel service deutschland,1 grlitzer str,neuss,41401,318066107.0,DE
99d4e66e-b9b2-4459-a1f5-f397fcad32df,audio ton,24 rntgen str,hamburg,22335,341235919.0,DE
c002c4fd-8b03-499d-91e1-b303a914d251,signal constructgmbh,brueckenaeckerweg,niefern oschelbronn,75223,,DE
dd4ccf8c-f3dd-4196-83dc-823c88ae3c85,sauter gmbh und co kg,30 sonnenstr,munich,80000,,DE
ab21a14b-5704-47b7-8d44-fe25e045e79a,ernst haefele,hafenbad,ulm,89073,316113257.0,DE
c1c91995-58aa-4313-8245-44df922a4621,dominikus krger,18 planiestr,giengen,89537,,DE
79394802-cb03-4a3a-a059-48b8294550ad,khn beratung,56 59 schillerstr,berlin,10627,,DE
68b6b49f-d3ec-4382-9e9d-e2ab69b582a2,bundesnetzagentur,27 zur allmannshahe,konstanz,78464,,DE
2a43899e-97cb-4b08-9b9f-78cc01f77cbc,hoffman engineering,8 riverbend dr,stamford,69070,,US
4b728af1-1470-44bc-a00f-89beb527ec8e,m u w schlecker,3 1 scheffeltgasse,ulm,89077,322962614.0,DE
39c25b75-6a01-45e3-adc9-8995db944648,sna europesna germany gmbh,10 willettstr,mettmann,40822,344805481.0,DE
2e7b3b12-22d1-4f90-b7ec-b7b74991fe35,multi circuit boards ltd,2 brunnthaler str,brunnthal,85649,342177911.0,DE
3a310ba4-77e3-49ff-81ca-1b7eb6e9461b,thales uk ltd,manor royal,crawley,rh10 9pz,217452627.0,GB
eb617207-c3d0-4774-9fee-c71cbd63dc92,taxi candel jean,route de castelmaurou,saint loup cammas,31180,,FR
fca26e51-70ef-49f0-ab97-87f5b818e1d8,wtl wickel technik lauterbach gmb,11 immendorfer str,bruhl,50321,331249768.0,DE
bc958624-d6e5-4c57-ab55-6483076298a9,selex es spa,60 close via piemonte,rome,187,434003576.0,IT
1866ad0e-4ccc-406f-b833-b3b9300741e3,uwe sieber,36 morgenstr,magdeburg,39114,,DE
e786d189-e149-47a8-859b-2b64a6eeeb97,zitec vb muenchen,13 henschelring,kirchheim unter teck,85551,,DE
eb1090d6-51d8-4c0c-ba72-fff46068681a,zimmermann gmbh,6 am knick,oststeinbek,22113,340203652.0,DE
764e1696-2e75-465f-a7d7-2d373b6161c2,france photons,rue du dauphine,boisset saint priest,42560,,FR
622ba449-5b44-47f9-bd64-583afd9e49b4,phenobond,eisenhnmmer str,sulzbach rosenberg,92237,537398203.0,DE
b5b6c64a-3a74-4b22-8278-c21cceec6a93,fleurop ag,lindenstr,berlin,12207,317835841.0,DE
041f9944-c33c-448a-9b88-846bca91137f,micro optik nosch ohg,bertholdstrae 2,freiburg,,333121221.0,DE
3767a743-44ed-412b-906d-7e175b8bddec,proroll gmbh,9 heinrich schicht str,huckeswagen,42499,,DE
f49460e3-ae17-4e43-8d6f-42ad86063d68,le verdier,allee du progres,vanves,92130,,FR
aca8087e-76e3-4304-a521-514d85436970,pratt whitney component solutions,4905 stariha dr,norton shores,49444,38243176.0,US
35b3854c-b066-406a-a54e-ab284d4c2e75,rost graphisches systemhaus gmbh,holderacker strae,stuttgart,70499,,DE
8eaf246e-273b-4237-bca0-a30659c7908f,chauvin arnoux,190 rue championnet,paris,75876,275472264.0,FR
b4f277e0-823f-416a-81e9-6fc17491f0dd,sna europe,willettstr,mettmann,40822,,DE
7878c231-ec2f-4460-af25-57163160444b,vri,wilhelm maybach str,ellwangen,73479,,DE
dfaddbc3-f34d-4fa7-8dbb-955b0ea2a674,hydro cleansing ltd,hcl house beddington farm road,croydon,cr04xb,,GB
4f3b00d1-3933-465a-a166-835c02761275,snap on industrial germany,10 willettstr,mettmann,40822,318538097.0,DE
1bc1ab2a-d00d-40ca-b64a-c4424b0517dd,nespresso deutschland gmbh,speditionss trasse,dusseldorf,40221,341618791.0,DE
ab98728a-9d28-4f33-aef6-0aae5e2d44ae,pertegaz sl,163 carrer de josep pla,barcelona,8020,460061773.0,ES
9913e18c-a766-4c23-ba5e-c2080fbe22c2,srtechnics,calle de mario roso de luna,madrid,28022,,ES
51aefd2a-3deb-4712-a161-449fc1e4e088,fleurafleur,4 rue bernard chedeville,le vaudreuil,27100,,FR
8b19dede-3796-46f1-88db-79c29f12f141,primeros qualification gmbh,am wollhaus,heilbronn,74072,341217467.0,DE
940b1e4a-7c9c-4254-9179-54a770e8177d,ws weinmann und schanz gmbh,beethovenstr,balingen,72336,,DE
6096b0c3-c251-4e10-8718-54dad7a9831c,michallik gmbh und co,60 kilingweg,muhlacker,75417,323802124.0,DE
d08fc808-baf0-4e7f-a589-fe4da23d08e8,jaco aerospace,2010 lincoln ave,pasadena,91103-1323,27716757.0,US
b25a948b-bdc0-4891-b5f9-4ba5374191c5,ge aviation systems,cheltenham,cheltenham,gl528sf,,GB
f2ef106d-d9f7-43a6-87b3-263b0892efb4,zeppelin power systems,3 zeppelinstr,wiedemar,4509,312825878.0,DE
d9996bd2-a83b-4b21-84ce-926b6b471d9d,techspace aero sa safran aero boosters techspace aero sa,121 route de liers,herstal,4041,,BE
3206f8ea-2ec8-49f7-b598-8ba35a408dc0,aeroflex international ltd,school close,eastleigh,so53 4ra,216834002.0,GB
9b1f0231-6032-4606-b575-64874a10f178,hoffman engineering,8 riverbend dr,stamford,69070,,US
4ccfda23-5cfd-426f-8755-98d7f2c1fd1b,bundesanstalt f arbeitsschutz,1 25 friedrich henkel weg,dortmund,44149,344398474.0,DE
9dcbbe15-116e-4b07-b2d9-e5e45700e588,graphic controls dia nielsen,8 industriestr,duren,52355,318979739.0,DE
48d4cadf-adab-4feb-b9fc-928f0e605e10,nexus gb ltd,horsebridge road,stockbridge,so20,,GB
748923e9-2851-4d79-bf25-26f1f657b2c8,adriana flores y cosas,11 calle ramon y cajal,getafe,28902,,ES
741c6dc2-f923-4fe0-a5c5-cc4b531d73d5,natixis factor,avenue winston churchill,charenton le pont,94220,,FR
0b2448c7-5d3a-485d-a8c4-3f2e5d6ae317,latim sa,44 rue roger salengro,fontenay sous bois,94120,,FR
216daa64-bf03-4a80-8841-53e9016a0304,editorial planeta sa,662 664 avinguda diagonal,barcelona,8034,,ES
a4156a84-32e0-4aed-88cb-da1ee0e25b64,hoffman engineering,8 riverbend dr,stamford,06902,145258.0,US
0ca56dd2-4e0c-4d06-ac7b-d464c754402f,diamond point international,suite 13 ashford house thomas long,rochester,me1 2up,397197088.0,GB
97692657-d9f0-4e32-aeb7-31883b7c08fb,still gmbh,15a zum panrepel,bremen,28307,,DE
55b5d16b-1d45-46ba-b3c2-4d8692a0c3b2,vink kunststoffe gmbh,35 hahnenbalz,nuremberg,90411,342642397.0,DE
eabdefc6-d052-4408-b2a3-ebc7201b768b,ge aviation,cheltenham,cheltenham,gl52 8sf,,GB
eb3dc9cb-0f3d-4989-8732-fab5ff78d5d4,tristar plastics corp,cl906 boston tpke,shrewsbury,01536,,US
b3ea4269-46cb-413e-91fe-b29c6c3c1f8f,comptoir du sud ouest,58 boulevard pierre lefaucheux,le mans,72029,,FR
18749ad5-916b-4e1e-9e84-685263165691,data device corporation,wilbur pl,bohemia,11716,54978952.0,US
e28368e7-5d8e-45aa-825e-46f82e4f7ab3,l com global connectivity,45 beechwood dr,north andover,01845,,US
f8dcb0cc-f30f-46ad-9aff-909f3b3bb4a5,m isabel nieto ramirez,1 calle gabriel garcia marquez,bollullos de la mitacion,41110,,ES
cf08af7f-4711-483c-b710-51f6dbb0ed90,atlantic inertial systems inc,250 knotter dr,cheshire,06410-1137,41668195.0,US
34193e8b-d9d8-4fc0-8d28-73e3b53b62f8,reservistenkameradschaft ingolstadt,7 lanzstr,ingolstadt,85051,,DE
4eb0ae85-5b8d-4acd-b4fa-4fe4d35e21ae,cif,11 rue charles michels,bagneux,92220,266764158.0,FR
c4d1ed16-b245-4be3-8e2b-35e0527caf0f,hopf elektronik gmbh,nottebohmstr,ludenscheid,58511,318562717.0,DE
666666f3-ed63-41b3-977e-1aa5ca87f126,le joint francais,centre services partages,thure,86540,766251516.0,FR
d1d8f03c-cd41-40f8-a39e-c384c6922744,ge aviation,hatherley lane,cheltenham,gl51 0tp,211207784.0,GB
81d2cf90-056a-4390-a5bb-581c0a154fbe,dirak gmbh,1 knigsfelder str,ennepetal,58256,325539633.0,DE
e9a8e8f8-2982-45e2-b682-74258e817b9f,icom,zone d activites de la plaine,toulouse,31500,262394125.0,FR
c79d2420-1270-434d-8ce6-bf89af231c45,hotel neuses,6 schmetterlingsweg,cuxhaven,27478,,DE
e6287028-3931-441b-9463-043835e68e82,copac,calle baha de pollensa,madrid,28042,463998793.0,ES
89f97a50-886f-481b-b8ff-bbbee338316c,ing hubert maldaner gmbh,3 max planck ring,langenfeld rheinland,40764,,DE
57fb4d86-8210-4d0f-b864-b017b2d1dcf0,schuetz messtechnik gmbh schuetz messtechnik gmbh schuetz messtechnik gmbh,7a rheinstr,teltow,14513,,DE
095ad03b-831e-41e3-82d0-2aae5295f252,juergen maurer,39 zur eisengrube,bitz,72475,,DE
db6dc9a5-7a65-4464-be42-3514b90d7159,prosol lacke farben gmbh,dachauer str,munich,80000,,DE
b9af4d29-2696-4cee-9dff-5915b459fea2,hd electronic gmbh,adolf kolping str,simbach am inn,84359,328607648.0,DE
7bb5c03f-e201-4e62-887c-2cc786ea1083,ernst diekgraefe gmbh,altenaer str,altena,58762,317868339.0,DE
a44d8243-a324-4916-8ef2-088996376c2b,jugs ev java user group,31 fruwirthstr,stuttgart,70599,344706747.0,DE
94e01f06-f60d-4b12-9318-514af56df8f6,hydrobar,16 umberto nobile str,sindelfingen,71063,,DE
e9001fee-7a61-44f3-8cf9-9bf91c614cbc,sistemas de regulacin y,11 avenida del cantabrico,vitoria gasteiz,1013,,ES
c463b0d1-8355-4fcd-9e9e-bffb96400af8,stealth components inc,11430 n community house rd,charlotte,28277-1591,788490212.0,US
347393c1-5534-48dd-aa9c-194d2fbd45bb,franz scheuerle ulm kg,2 ernst abbe str,ulm,89079,312675997.0,DE
ac79d308-e372-4774-9095-c7d9d2f6297d,meersburg tourismus,kirchstr,meersburg,88709,,DE
1e6586fc-d686-4bde-862c-328732851ab8,dr walter gruber,33 pestalozzistr,munich,80469,31256899.0,DE
083608e9-c790-4abb-980c-f0cd4815c797,morgui clima sl,11 13 carrer monturiol,badalona,8918,,ES
8ae5cbfc-0a66-4777-81b3-e6d1d8ffa4dd,kvt koenig gmbh,14 max eyth str,illerrieden,89186,342720122.0,DE
62060056-7aa5-43e7-baa8-7a7716e87c9e,domino deutschland gmbh domino deutschland gmbh domino deutschland gmbh,3 lorenz schott str,wiesbaden,55252,,DE
e4f2d173-ec65-433f-a800-ee95cbcb49bd,flair hotel am kamin,62 fssener s trasse,kaufbeuren,87600,,DE
235a0ce6-1b0b-4db4-b002-8681e774725c,prototyp werke gmbh,10 franz disch str,zell,56856,,DE
d9f41bb7-1071-4d0e-9dcc-ac33b7983c82,los caracoles,60 calle rosario,gijon,33201,,ES
9f34a6ef-4333-48e3-adb2-287112141fc9,gainpath agencies,11 13 dukes ride,crowthorne,rg45 6lz,,GB
c682e74b-b369-424c-b262-5e6a142a1f6d,keck energieservice gmbh co kg,4 rieseler feld,brakel,33034,343732744.0,DE
c9f6d5af-5fa4-4f79-91ce-d4712784c29f,aix marseille universite,bd charles livon,marseille,13285,,FR
a7bcfb1c-da1d-4446-81a7-9e24b8f8cc0b,phytec messtechnik gmbh,39 robert koch str,mainz,55129,340413079.0,DE
b10e90c2-b192-4113-bb47-7294a5918320,gainpath agencies,11 13 dukes ride,crowthorne,rg45 6lz,221623411.0,GB
97cb8ebd-3681-428d-a8d6-c4045e2ac5c2,taktifol gmbh,im derra3ck10,neuburg an der donau,76776,,DE
7f70ca89-5058-4d68-adf1-d6da15f0c839,mft mikrofiltertechnik gmbh,marzahner str,geesthacht,21502,341327058.0,DE
862a30ca-eb06-4429-a9d7-7c87fc18c1f3,sew eurodrive gmbh co sew eurodrive gmbh co hpt verwaltg sew eurodrive gmbh co,42 ernst blickle str,bruchsal,76646,,DE
8de39d71-cc43-4b5d-8b4f-14f2b9059671,isr stephan walter,56 nahestr,rodgau,63110,,DE
4b084216-4ca2-4b3a-b5c9-4b5cd53f5a5b,omnilab laborzentrum gmbh co kg,8 robert hooke str,bremen,28359,315101543.0,DE
f1a498a3-43ea-42cf-ae52-878f026a6f9e,tt datentechnik gmbh,4 jagerstr,ludwigsfelde,14974,,DE
59012354-61c8-4dcb-bfeb-c542d49676d0,dierck,preetzer chaus see,schwentinental,24147,,DE
8e425b37-11f6-4eb6-bb54-9832d3270578,rae systems,305 rue des 4 chemins,millery,69390,275078975.0,FR
fd3bac22-f849-4312-90e6-fc2f5cf6d2bc,buerklin ohg,grnwalder weg,oberhaching,82041,316757657.0,DE
ee2457f9-a666-4fad-ae0f-6f46c11dab78,ge sensing,fir tree lane,groby,le60fh,,GB
d2701be4-b84e-40b1-a800-00249fc3f1ea,tourist information konstanz gmbh,bahnhofplatz,konstanz,78462,,DE
5a63ce93-87df-4a33-854f-5690741fc8da,stadtverwgeislingen,7 schlogasse,geislingen,73312,366349637.0,DE
ea0e4b6d-9b87-456b-993b-25c7062dcf59,spectra sa spectra sa spectra sa,8 rue manurhin,richwiller,68120,,FR
86956866-b1c8-4c69-a762-3c649ba8c549,b z werkzeuge gmbh,carl peters strae,korntal munchingen,70825,,DE
05548a30-4133-4589-9c22-5300fc9b784f,karcher sa,15 carretera de alcobendas barajas,alcobendas,28108,,ES
35beaf8a-e86f-4e5d-99ff-069ec782bedd,miodex,13 rue vincent van gogh,magny les hameaux,78114,263762376.0,FR
02fd0b2e-42fd-4dfc-a713-65331e9e0c8d,pulch lorenz gmbh,23 am untergrn,march,79232,320166879.0,DE
83a3c2c3-0c05-40fd-8960-d970aee447f4,mohawk rubber,industrial trce,alpharetta,30004,,US
49e9c0b5-a2b4-4a01-b20e-8632b02e83d0,arrow iberia electronica slu,75 calle albasanz,madrid,28037,,ES
ecac4340-8f10-48be-a7f3-1409184ea15f,kfp,4 solmsstr,frankfurt,60486,327438461.0,DE
4b7cf7cd-9a47-47c6-9e39-b939915df831,sistemas de regulacin y,11 avenida del cantabrico,vitoria gasteiz,1013,,ES
7554a1bb-46c5-4af8-9839-8f1a01f54c20,vwr international gmbh,42 whlerstr,hanover,30163,341869043.0,DE
315b9cfd-161d-4e5b-a458-ca61ce44e26e,jedermann verlag,6 kaiserstr,heidelberg,69115,340662459.0,DE
511e0c78-4187-4d79-9a08-d9820e3fa11a,werit kunststoffwerke,59a kolner str,altenkirchen,57610,,DE
63bee0fd-32f5-416f-bc06-cb1ee034bb23,flughafen leipzig halle gmbh,11 terminalring,schkeuditz,04435,330611666.0,DE
3967f071-8400-48b8-ba8d-01b7c5c63a85,diagnostikzentrum am klinikum,2 rantgen str,friedrichshafen,88048,,DE
c4a15437-7751-4c9b-ba8a-3f9b458d0b06,framos imaging solutions,5 zugspitzstr,pullach,82049,316089887.0,DE
6cf58aaf-cce9-4bd2-bf7b-d1520cea998e,posalux gmbh,15 hesselbachstr,neuhausen,75242,,DE
f935896c-cec1-45ae-8188-20053d909353,neurtek sa neurtek sa neurtek sa,3a pg azitain,eibar,20600,,ES
86b78350-c9aa-4db3-8ab1-5c2dc8616dd4,stealth components inc,n community house rd,charlotte,28277,,US
5985579c-33a4-4739-8752-b6fd650727bf,linux trading distribution,unter den buchen,bockelwitz,04703,,DE
df34d4aa-6360-46aa-81fd-6cf4a2a5d214,tsin,11 adolf kolping str,ingolstadt,85049,,DE
b5b53f7a-e473-4967-ab0b-d6b64f32b111,stilgut gmbh,5 geneststr,berlin,10829,,DE
70ee6c6c-fdbc-4f4a-928e-b22248299dc7,ontrack data recovery europe ltd,weston road,epsom,kt17 1jg,770541647.0,GB
80f0088a-e31c-4f25-9666-c95042646c97,gps technologies gmbh,23a heinrich hertz str,langen,49838,344352971.0,DE
7bd39e82-e5e3-47e4-bb86-a033f2a3eb57,simancas ediciones sa,m 6 pol municipal de dueaas,duenas,34210,,ES
538abe39-8c25-48fc-9b01-3bd125e3aadc,bodo kirbach,25 hauffstr,friedrichshafen,88046,,DE
77a53c30-01a2-4a07-a92c-300344c5b8b3,clgb edition,16 rue neuve des boulets,paris,75011,273817549.0,FR
5762a908-d443-4a52-9eea-9e71387ffa7e,luftwaffen offizierheim gesellschaf,wilhelm frankl kaserne,neuburg an der donau,86633,,DE
07bea237-dba1-4794-ab64-f74c7ed0c5d0,e m o swopperwelt,54 pestalozzistr,diedorf,86420,,DE
c3b61af7-80cb-4d78-86d5-e815d9cea76c,mti 1998 ltd,sandown road,watford,wd24 7xa,23023731.0,GB
0651a667-8dae-4809-a748-033c2c4f9222,otto renner gmbh,16 frant wachter strae,stuttgart,70188,,DE
a1b0d6fd-2d2e-47d9-9368-21ba6a2c51e7,istituto vigilanza dellurbe spa,via rina monti,rome,155,,IT
32d10f1c-f5ea-4649-bb06-fd3839c88fa1,ma componentes sl,pg el pino calle,seville,41016,479193724.0,ES
e48fc3be-d74d-44ce-89b4-70df8e29a010,aermec,rue du developpement,guereins,1090,501990647.0,FR
097913ca-6c28-41c3-b98c-c35f409a2d73,regierung von niederbayern,540 regierungsplatz,landshut,84028,332093678.0,DE
a0fb7e0b-b7ba-42b8-b84c-e79c2937305d,dicronite ute pohl gmbh,grner weg,iserlohn,58644,333900124.0,DE
a3a8b55c-efc6-43b5-9c3e-e4dcb9fa9f1d,hazet werk hermann zerver gmbh,25 gueldenwerther bahnhfst,remscheid,42857,315937482.0,DE
b7f630c7-8989-415c-926b-ec8e8c25120f,copper brass sales,5 sterling dr,wallingford,06492,6515207.0,US
1d1ac70b-2a4c-4cef-adc6-579a3809873f,bosch siemens hausgeraete gmbh,34 carl wery str,munich,80000,,DE
88aaa3a3-6a90-4c3a-901c-160ce64310e6,united parcel service deutschland,1 gorlitzer str,neuss,41460,,DE
a1f85200-aaea-4854-b996-5fdf6cca4765,primeros qualification gmbh,am wollhaus,heilbronn,74072,,DE
bbdc577d-40b9-4f7a-a4e3-1c829e8cb929,score sas,42 44 rue de bellevue,boulogne billancourt,92513,262314388.0,FR
e9f0acd2-9579-4c26-980e-168d16d2e889,sealed air gmbh,2 ernst diegel str,alsfeld,36304,,DE
0defc034-6e62-444d-bb89-8b708ca87351,cz handels gmbh,klaus groth weg,delmenhorst,27753,,DE
da2f9ef0-9279-4cbb-953d-fee394c4288f,beamer more gmbh,vogelsangstr,stuttgart,70197,331088075.0,DE
20e222c2-f09f-4e7d-8c57-8eeed8ccc859,api movilidad sa,26 avenida de manoteras,madrid,28050,462203662.0,ES
fb342a87-910c-4973-87a7-a2d261dd061d,centa antriebe,7 bergische str,haan,42781,327844791.0,DE
b4291e9f-e43e-4926-b5c2-812b3a25ddec,los caracoles,60 calle rosario,gijon,33201,474582678.0,ES
3dc2bf89-059c-491a-b14b-f41cbd966479,gim nv geographic information,researchpark haasrode,leuven,3001,,BE
15534b20-c3c9-49c4-b5f7-150c3c53533f,fondation telecom,46 rue barrault,paris,75013,264249963.0,FR
4a59c0ef-1128-4c00-aa34-207f9c72eb2d,aeroflex gmbh,2 gutenbergstr,ismaning,85737,,DE
cc36b708-fa29-4bf7-8b6f-49d7b9ff565a,airtanker services,airtanker hub,carterton,ox18,,GB
ed6089e2-5df2-403c-82d9-97830a60cb23,tropack packmittel gmbh,6 gewerbestr,lahnau,35633,329711691.0,DE
fed89dac-ea9a-403f-aea9-ab1fdad0fcea,idtronic gmbh,1 donnersbergweg,ludwigshafen,67059,,DE
beaaeb9b-2739-4d15-a7b8-c3579ce2e2af,rotary club biberach,9 11 karl str,biberach,88382,,DE
2b11c004-6504-4af3-b642-481b43ab8f92,regierung von niederbayern,540 regierungsplatz,landshut,84028,,DE
24c183ca-19a6-48c4-9c53-c72c985f1423,esp entertainment sports partners,8972 royal birkdale ln,orlando,40460,16194792.0,US
dcecaed1-df61-4e48-84e3-f990e5b78974,hubert waltermann eisenwaren,4 rat loh,balve,58802,,DE
e3937797-886f-4983-a2e7-27dd39a41754,bundesanstalt f arbeitsschutz,1 25 friedrich henkel weg,dortmund,44149,,DE
23629446-31fd-4e76-9755-6c4279f0446f,boehnke,57a wall er heerstrae,bremen,28217,34430146.0,DE
b0b107f2-0c26-491b-8bbe-4ed511af1058,emg esolia emg esolia emg esolia zi de la chaussee,zone de bernay,sainte gemmes sur loire,49130,,FR
c2cfc79e-3449-401c-81ce-bfb450dfc97a,alexander krasner gravierbedarf,27 wuppertaler str,schwerin,19063,,DE
0e19515a-17b7-414e-8326-57ae02458622,amergint,briargate pkwy,colorado springs,80916,,US
f5d35a7f-d29d-4541-b458-e6d950b8a2dc,voelmle rickert gmbh co kg,14 zeppelinstr,ostfildern,73760,323956276.0,DE
97c4d824-ab8f-4888-b76a-c89fdd7a6d86,sterne kessler goldstein fox sterne kessler goldstein fox sterne kessler goldstein fox,110 new york ave,washington,20005,,US
e4d2c6d0-c872-4d03-882f-827d2f75fd73,luftwaffen offizierheim gesellschaf,wilhelm frankl kaserne,neuburg an der donau,86633,,DE
ece875ee-79b0-4c3e-8272-6020a3caa6a7,neon centro,via adriatico,potenza,85100,,IT
c52c2a41-8c5a-44da-b059-041e2ae3f5f7,rochester electronics,fenice court,saint neots,pe19,,GB
ec3c8752-6da6-4ef5-b61f-f0321007b416,selex es ltd,crewe road north,edinburgh,eh5 2xs,23226769.0,GB
a7906fc8-1432-4953-8a14-4afab53e1f4a,edmund optics,nether poppleton,york,yo260 6bl,236713199.0,GB
4f044724-419e-4308-947b-47d93e7383e6,gesellschaft fr umweltsimulation e,7 joseph von fraunhofer str,pfinztal,76327,343915737.0,DE
50329a02-a62b-49c1-8f5d-ebc141bcb6b8,taunuslicht,taunusstr,neu anspach,61267,,DE
353fc184-9b08-4317-8572-12dbb8a9c19d,shp primaflex gmbh,zeiss str,ratekau,23626,317337517.0,DE
8bd50f9c-0a29-4ec3-88f0-f7ca11244b49,kemper gmbh,20 von siemens str,vreden,48691,317319242.0,DE
6900fd67-a061-4308-b259-1ca4e255d5e9,alexander tress,11 niedermhle weg,bad wurzach,88410,344869433.0,DE
c034a533-2216-40cd-9a07-6535a1c3735b,chiemsee schifffahrt,108 seestr,prien am chiemsee,83209,341583136.0,DE
92e801cd-f0f7-4b84-805b-abe88e7f40ab,le joint francais,17 rue andre charles boulle,thure,86540,,FR
8f239e71-ab99-4b5d-a205-7e69cd14f043,realfm e v,schiffbauerdamm,berlin,10117,,DE
a283a3f9-bd69-45a7-9189-b5d2f7bd2105,ramon martin sa,0001 calle rafael beca mateos,seville,41007,463004531.0,ES
0a0bb7ad-7e74-4f5e-b93e-0a358db3ec5d,blyenburgh co,86 rue michel ange,paris,75016,501881234.0,FR
9ea8c914-0501-4fbc-a725-c669805cfa5a,eurosint forum asbl,161 boulevard general jacques,ixelles,1050,,BE
7f9ead84-8b23-439f-9218-8f21efc16d34,ceka,1 erich krause str,alsfeld,36304,,DE
27dce5c8-4e35-46f3-8d46-15f8f543f668,emac inc,emac way,carbondale,62902,,US
00a0bae6-335a-4adf-8260-f2cbecbfc79f,mollerus lftungs klimatechnik gm,1 torenstr,meersburg,88709,,DE
d7e2147f-0819-4157-b16a-f84a2c6d5f62,safran aero boosters,121 route de liers,herstal,4041,,BE
d7e7a473-675d-44ce-a4a5-3b8a58e63647,kavlico corporation,av 14401 princeton avenue,moorpark,93021,,US
7ff2b1d2-bf47-4b26-849a-0d150fca7b66,h media,329 heistraat,antwerp,2610,,BE
5dabb313-d485-4f20-a688-1660631b46e6,mattheus,24 falderbaumstr,kassel,34123,332678267.0,DE
6b0146ff-c243-488a-a0ac-60bc6ce221cd,centa antriebe,7 bergstr,haan,42781,,DE
ac5716fe-c193-4348-bb2f-352301fbe849,slind parts sa,km10 avenida de andaluca,madrid,28021,564889467.0,ES
936fd02b-74bc-4b67-89dc-d941a42e1a58,first sensor ag,10 boschstr,puchheim,82178,315794797.0,DE
22ce10aa-32ef-438d-803c-b828400ad715,aviasport sa,11 calle almazara,tres cantos,28760,,ES
95f19f0b-7bd7-41cf-9e23-ad239b3d3330,planeta hebetechnik gmbh,resser str,herne,44653,,DE
bfc8c872-458e-486c-b197-4f780f3085f8,tapicerias limpias,5 calle florida,villaviciosa,28670,,ES
67add9be-0daf-45b8-a945-ef1ca6bba38e,schiessl gmbh und co,14 kolpingring,oberhaching,82041,316707645.0,DE
38fb9a44-4073-4787-a57f-c4fc8b19b7b8,slv schweisstechnische lehr,37 schachenmeierstr,munich,80000,,DE
fecf422e-bd93-4698-b826-9dbe52899b43,vieweg gmbh,13 gewerbepark,kranzberg,85402,325718823.0,DE
46978d7f-de8b-4412-8941-dff7fd81144c,chiemsee schifffahrt,seestr 108,prien am chiemsee,83209,,DE
f4386172-5aba-4f81-83eb-11d3bd396c2c,marketline,sheepen place,colchester,co3 3lp,,GB
e5e77b34-eb6b-445f-9d66-154f74bb4dab,witas gmbh,35 stiftstr,minden,32427,,DE
875fbe05-dd53-4262-9362-ce3734eada44,cif,11 rue charles michels,bagneux,92220,392502647.0,FR
aa48fb6e-95f9-49bb-a673-30e4a1619ae2,brammer gmbh,51 daimlerstr,karlsruhe,76185,,DE
a2924139-bf18-4784-81eb-fe8afbd98c4b,villa hentzel,bauhausstr,weimar,99423,,DE
8b16163c-a5c1-41cb-8856-07a3c5d35c6c,jaco aerospace,lincoln ave,pasadena,91103,,US
813a34be-f99c-46e8-8da1-540e15531e6e,printec ds keyboard gmbh,31 35 herrenlandstr,radolfzell,78315,,DE
0c908473-c4f6-44c4-ad74-b32a4e8c1bcc,jp aero com engineering co ltd,cherry tree,hull,hu11 5,216202267.0,GB
989ba440-ccc3-41c7-adce-cae3470ebb9a,ulmer volkshoch,5 kornhausplatz,ulm,89073,329382126.0,DE
4e200722-ef56-4c1c-a016-b35cd4e52be5,clp gmbh,paul gerhardt allee,munich,80000,,DE
bf351476-f797-41f9-a2a9-86a9ca95751a,crystalfontz america inc,e saltese,spokane valley,99027,,US
312b935f-2ec8-4f2a-b983-456697806cd6,oberflaechenkompetenz steinl,22 jakob oswald str,ursensollen,92289,,DE
8f034f29-acf6-4683-8a24-de8f17b9563f,kartenkaufhaus,12a allerkampstr,celle,29223,344982694.0,DE
f8db7942-610b-445d-a299-c4ae23c45217,citaku gbr,32 papenbreede,bad essen,49152,,DE
3a6c61ba-b47c-4c5d-a1ab-ea2b6fba304e,kasper richter gmbh co kg,14 erlanger str,uttenreuth,91080,,DE
05730d16-cdfc-4ba4-b967-689806bb1fbb,paul spencer signs ltd,sheffield street,stockport,sk4 1ru,290891498.0,GB
9744e4b9-e478-45cf-8ed0-4f65461bdf6f,deutsche rockwool,14 karl schneider str,gladbeck,45966,31519896.0,DE
4e26b405-e3c7-4827-9d6a-fe4b3877a70f,seefelder gmbh,46 finninger str,neu ulm,89231,,DE
8638314d-e8ee-48b0-a7ed-f290c054c4ea,salicru electronics,calle parque ind,seville,41016,633486162.0,ES
1cb784b9-18cd-4b34-b99c-5c1c93bbba23,binz ambulance und,21 am vogelherd,ilmenau,98693,330862327.0,DE
a82de69a-0439-4ce4-9ece-58242941ce78,sterne kessler goldstein fox,110 new york ave,washington,20005,14225643.0,US
91885be6-9ed2-4f70-9e64-75e4dd582118,witt gasetechnik gmbh und co,4 8 salinger feld,witten,58454,,DE
385bcbef-26a5-4483-9115-86bf7a905102,safran aero boosters safran aero boosters safran aero boosters,121 route de liers,herstal,4041,,BE
b41dc527-097f-4c13-83ae-52e121d7c436,hoefer gmbh,14a keferloher str,haar,85540,,DE
efd9b1bc-6310-4eb9-8d6f-42c4d8375166,goetz service gmbh,2 2 zillenhardtstr,goppingen,73037,,DE
4e52a4ef-c039-415f-8685-c65eb5dbaf58,arrow central europe gmbh,211 frankfurter str,neu isenburg,63263,,DE
bcd0d8b8-bff4-4803-b0fc-5e5b7a82c022,manuel riesgo sa,o 22 desengaa,madrid,28004,,ES
a1bab05d-dac5-4da5-bf7c-5e52705dfd1d,brammer gmbh,19 industriestr,karlsruhe,76189,,DE
cd1dd2bc-4587-4ac7-9614-0414af5ea327,relats sa,s n priorat,caldes de montbui,08140,,ES
dd9bdc05-0219-46c3-8153-42200c5d6d19,latim,44 rue roger salengro,fontenay sous bois,94120,,FR
39786c7e-a807-49cf-84bf-13f4ff95474b,gottschalk michaelis gmbh,11 23 lahnstr,berlin,12055,324956846.0,DE
c12869cc-0a3b-49ca-93cf-bcb50c30c3f4,spectra sa,8 rue manurhin,richwiller,68120,502222417.0,FR
7d26f4c0-8d69-4cd6-bf7b-4085fbbf3032,spirit aerosystems inc,3801 s oliver st,wichita,67202,362176773.0,US
b2348153-a399-4b48-a6e8-4593dcb0da9f,banderas navas sl,122 calle de castell,madrid,28006,461270485.0,ES
02ca54ed-2f77-4d84-9adb-4dfe7852279a,polyplas,kiebitzweg,emmerthal,31860,,DE
