ix,name,street,city,postalcode,duns,countrycode
1a6ccbe5,vri gmbh,wilhelm maybach str,ellwangen,73479,,DE
b3d57f9d,aeroflex ltd,monks brook industrial park,chandler s ford,so534ra,,GB
f2e19b58,altron gmbh co kg,10 gaustr,lehrte,31275,315672964,DE
fe5db42f,le joint francais,centre administratif,thure,86540,,FR
1b69ccb6,nespresso deutschland gmbh,speditionsstrae,dusseldorf,40221,,DE
303a4b5d,muehlinghaus hildesheim,klingelholl,wuppertal,42281,319390084,DE
78b4a267,buerklin ohg,80 am wehrhahn,dusseldorf,40211,316757657,DE
7a037111,dr ursula matschke,33 emilienstr,stuttgart,70563,,DE
9acc114b,ats gmbh,14 schanzenstr,waldbrol,51545,323710764,DE
5e02efdb,bozic tours,32 zinglerstr,ulm,89077,,DE
8b5d81b9,nespresso deutschland gmbh,23 speditionstr,dusseldorf,40221,333868649,DE
39e80128,alexander speith gmbh co kg,14 bahnhofstr,varel,26316,319220083,DE
b5729da0,brklin ohg,41 schillerstr,munich,80336,316757657,DE
6c39db4f,natixis factor,1012 avenue winston churchill,charenton le pont,94220,,FR
0259216a,hotel villa hentzel,bauhausstr,weimar,99423,,DE
4c115719,hamilton sundstrand aerospace,4747 harrison ave,rockford,61108-7929,,US
dcc308de,drei bond gmbh,17 carl zeiss ring,ismaning,85737,319143681,DE
d6557d2d,maximilian wigger suttner,jahnstr,ulm,89073,,DE
a029fb9a,delta computer products gmbh,4 rntgenstr,reinbek,21465,031634716,DE
680f5a62,genkinger hubtex gmbh,albstrae,munsingen,72525,332679625,DE
6537b899,utc aerospace systems,250 knotter dr,kansas city,64101,041668195,US
e1a325bd,klever gmbh und co kg,20 hauptstr,aham,84168,,DE
be102af6,aspen electronics limited,1 kildare close,ruislip,ha4 9lg,217199405,GB
3c4377c9,ergonomia verlag ohg,29a julius halder s trasse,stuttgart,70597,,DE
a9b7c40b,selex sensors and airborne systems,2 crewe road north,edinburgh,eh5 2xs,023226769,GB
19c06e93,denzel kg,12 mhlwinkel,wertingen,86637,316456565,DE
4c1e2c61,swansea university,singleton park,swansea,sa2 8pp,232227629,GB
8ae6cdb0,ge sensing,fir tree lane,groby,le6 0fh,219144201,GB
4c772645,mewa textil mietservice,5 hermann gebauer str,meisenheim,77974,314496969,DE
39082433,sinus electronic gmbh,schleifweg,untereisesheim,74257,,DE
5c91b347,phoenix contact hmi ipc,29 kurze str,filderstadt,70794,,DE
893c79db,gesa equipos y suministros indus,19 carrer de la industria,teia,8329,,ES
d23b2dac,aaf sa,avenue de paris,vincennes,94300,,FR
77f5274a,selex es spa,via piemonte,rome,187,434003576,IT
3ff0a037,siemens ag,1 gnther scharowsky strae,erlangen,91058,331491514,DE
2b6c43e5,industrie und,fasanenstr,berlin,10623,,DE
97571df1,kvt koenig gmbh,14 max eyth str,illerrieden,89186,,DE
bace2c59,vri,wilhelm maybach str,ellwangen,73479,342019866,DE
0297485a,gross karlheinz,37 ulmenweg,zweibrucken,66482,,DE
37fa1e22,marconi selenia communications spa,1a via ambrogio negrone,genoa,16153,,IT
8946d1cc,isr stephan walter,56 nahestr,rodgau,63110,,DE
fa96a218,vds schadenverhtung gmbh,rheinstr,darmstadt,64283,332836506,DE
8c071814,ge aviation systems ltdcustomer services,evesham road,cheltenham,gl528sf,211207784,GB
f21fdcf5,smiths aerospace customer services,bishops cleeve,cheltenham,gl528yb,288525181,GB
f02cb731,selex sensos and airborne systems,lg,edinburgh,28000,023226769,ES
e649baee,blumenhof frey,wa3rmbachstraerasse,unterschleissheim,85716,,DE
b1120134,sogeti high tech,bp n 90076,blagnac,31700,287711456,FR
0a8de44c,rdmadrid sl,79 calle de caleruega,madrid,28033,056330515,ES
a30fe96c,edmund optics inc,lysander close,york,yo30 4xb,236713199,GB
01c34b3a,haufe gmbhcokg,weilburger str,usingen,61250,,DE
6880aa5d,ge aviation systems ltd,arle court,cheltenham,gl51 0,,GB
b8f79f98,phytec messtechnik gmbh,robert koch str,mainz,55129,,DE
f7da5ee1,e a elektro automatik gmbh,31 37 helmholtzstr,viersen,41747,344304634,DE
1d2e777b,citaku gbr,32 papenbreede,bad essen,49152,,DE
35508103,hr kommunikation,max von mller s trasse,rottenburg,84056,340190931,DE
150322b3,fako gmbh,peutestr,hamburg,20539,313518398,DE
83024ff7,battery direct gmbh,1 ewald renz str,bad schonborn,76669,331599808,DE
7a60d395,battery direct gmbh,ewald renz str,bad schonborn,76669,,DE
39734970,oracle deutschland gmbh,14 schiffbauergasse,potsdam,14467,033170335,DE
0ad4aa46,algner safety consulting services,14 weiherstr,friedrichshafen,88048,,DE
77ca58f8,buchde,an den speichern,munster,48157,031539316,DE
b5596907,dga techniques aeronautique dga techniques aeronautique dga techniques aeronautique,47 rue saint jean,balma,31130,,FR
0908a0aa,selex es spa,4 piazza monte grappa,rome,195,,IT
8e647a80,general dynamics uk ltd,bryn briithdir,blackwood,np12,295449961,GB
816d262e,ge measurement control,fir tree lane,groby,le60fh,226525053,GB
13e982e5,landeshauptstadt mnchen referat f,sendlinger strae,munich,80331,,DE
3c4c091c,industrie und,olgastr,ulm,89073,,DE
05ab6b6a,cablematic dos mil s l,85 carrer de santander,barcelona,8020,464065908,ES
d63e3340,umt umweltingenieure gmbh,1 adolph kolping platz,ulm,89073,333374796,DE
71747e06,tropack packmittel gmbh,8 vor dem polstck,lahnau,35633,,DE
8de0b63f,bueromarkt boettcher ag,3 brusseler str,jena,07745,,DE
76e834db,datalis,8 avenue gutenberg,portet sur garonne,31125,260332779,FR
f0d34671,hamilton sundstrand,cl4747 harrison ave,rockford,61125,,US
591099fe,nespresso deutschland gmbh,speditionsstrae,dusseldorf,40221,,DE
7deb146f,smiths aerospace electronic systems,cheltenham,cheltenham,gl528sf,,GB
c6401891,dr ing k busch gmbh,1 schauinslandstr,maulburg,79689,,DE
e67441ba,ma componentes sl,pg el pino calle,seville,41016,,ES
b9b20b60,translogic inc,5641 engineer dr,huntington beach,92648,075072116,US
d42eb6b4,tino winter,obere au,rechtenstein,89611,,DE
b60f09c2,stc steyr wlzlager,40 41 rosenthaler str,berlin,10178,,DE
4389becc,ask distribution,rue de la boucherie,molsheim,67120,,FR
7675fecc,salicru electronics,calle parque ind,seville,41016,,ES
2f0901d9,mike garwood ltd,shelleys lane,alton,gu34,,GB
e8c68ece,uk space agency,north star avenue,swindon,sn2 1sz,,GB
7bb6b025,mayre sc,5 b calle lopez de legazpi,seville,41008,,ES
ea3544e6,honeywell international sarl honeywell international sarl honeywell international sarl,4 avenue saint granier,toulouse,31024,,FR
9438b5e4,dichtelemente arcus gmbh,6 gromoor ring,hamburg,21079,313821894,DE
f51fd948,adf technologies,6 avenue jean monnet,colomiers,31770,,FR
68ba9560,frey blumenhof,mittenheimer str,oberschleissheim,85764,342418069,DE
a9f4905c,inficon gmbh,bonner str,cologne,50968,,DE
4fe4ecd1,le manoir de gressy,chemin des carrosses,gressy,77410,,FR
291ef3cc,fako chemische fabrik,15 peutestr,hamburg,20539,340213235,DE
ea4e028b,franz spahn,7 wiedhof,bad salzdetfurth,31162,,DE
43cb5eea,kerb konus vertriebs gmbh,7 werner von braun str,amberg,92224,,DE
a0a1b780,pts automation gmbh,166 donatusstr,pulheim,50259,332540769,DE
787940de,marconi selenia communications spa,1a via ambrogio negrone,genoa,16153,440028405,IT
9b938f7e,siemens ag,16 sieboldstr,erlangen,91052,342558576,DE
84ba9e9f,rts elektronik systeme gmbh,66 preysingstr,wolnzach,85283,,DE
149303db,casa compras,calle la mata,seville,41002,,ES
536d4a08,ge aviation,arle court,cheltenham,gl51 0tp,505518316,GB
2948b589,ea elektro automatik ea elektro automatik gmbh co kg ea elektro automatik,31 37 helmholtzstr,viersen,41747,,DE
afe75b2f,galileo avionica spa,2 via dei castelli romani,pomeziarome,00040,,IT
c88a84fd,hartmetallwerkzeugf a maier gmbh,2 stegwiesen,schwendi,88477,343071213,DE
417a8fd6,siemens ag,67 siemens str,erlangen,91052,506764468,DE
3e254c40,hahnkolb werkzeuge gmbh,schlieffenstr,ludwigsburg,71636,,DE
e2dbddca,kalzbw reglab 4 cottbus,66 sielower landstr,cottbus,3044,,DE
07587bc5,wuerttembergische allplastik,12 johannes kepler str,herrenberg,71083,,DE
864118ea,selex sensors and airborne,2 crewe road north,edinburgh,eh5 2xs,,GB
daeb8443,fleurop gmbh,3 4 lindenstr,berlin,12207,313232118,DE
398fd377,uwe sieber,36 morgenstr,magdeburg,39114,,DE
95f31722,galileo avionica spa,2 via dei castelli romani,pomezia,00040,,IT
ea502496,northrop grumman systems corporation,8710 freport pkwy ste 180,irving,75063,624839184,US
f925cc7a,r g gmbh r g gmbh faserverbundwerkstoffe r g gmbh,7 im meiel,waldenbuch,71111,,DE
e6e0f237,fako heinrich a anton,suderstr,hamburg,20537,,DE
ad6aa35d,yoshida deutschland gmbh ykk,33 ostring,mainhausen,63533,,DE
087ec076,waycon,4 mehlbeerenstr,taufkirchen,82024,315952668,DE
bfe44ff1,honeywell aerospace,23500 w 105th st,olathe,66061-8425,,US
3d27ce91,isocel management conseil,rue robert caumont,bordeaux,33049,,FR
35b7cba1,clinter traducciones e,57 calle gran via,madrid,28013,,ES
f89ddf6d,aeroflex test solutions,school close,chandler s ford,so534ra,216834002,GB
3e20c961,les parents et amis des enfants de,8 rue jules ferry,frouzins,31270,273813845,FR
d01db847,wuerttembergische allplastik,12 johannes kepler str,herrenberg,71083,,DE
65f1dcb1,srtechnics,calle de mario roso de luna,madrid,28022,,ES
225abc01,marconi selenia,1a via a negrone calda,genoa,16153,339927545,IT
87f5d711,zarm technik ag,am fallturm,bremen,28359,537384638,DE
480d52bc,mbs ag,51 eisbachstr,sulzbach laufen,74429,316133263,DE
42778260,buerklin ohg,grnwalder weg,oberhaching,82041,,DE
f6dbbbb7,bats feuerschutz,7 heckenweg,pfaffenhofen,89284,,DE
9e20622b,general dynamics uk ltd,blackwood,blackwood,np12,,GB
46a13500,ge aviation,bishops cleeve po box 162,cheltenham,gl528yb,,GB
125d44ed,knab gmbh,4 himmelkronstr,bayreuth,95445,312951213,DE
0f8eb8df,ucon ag containersysteme kg,sechsheldener str,haiger,35708,341057797,DE
96a49b82,druck ltd,fir tree lane,groby,le60fh,,GB
de51d1e5,von roll uk limited,wharfedale road,bradford,bd4 6sg,021309974,GB
f3020ce6,linde technische gase gmbh,70 seitnerstr,pullach,82049,329252832,DE
f37452c7,swansea university prifysgol aberta,singleton park,swansea,sa2 8pp,232227629,GB
82a5d8aa,gss kalender gmbh,11 carl zeiss str,heiligenhaus,42579,,DE
6694cef8,roth gmbh und co kg,28 zusamstr,augsburg,86165,313234338,DE
9e25be5b,selex galileo,strada privata aeroporto caselle smaurizioc se,,10077,,IT
a17ba961,honeywell aerospace,190th st,torrance,25250,,US
0cb14cd7,en deko vertriebs gmbh,4 zeppelinstr,dornstadt,89160,,DE
b67216e7,juliane rode,33 leonrodstr,munich,80000,,DE
932b06e8,natixis factor starplast,avenue winston churchill,charenton le pont,94220,281985668,FR
79533769,ristorante roma,17 marktstr,ostheim,97645,,DE
d6f7e7e1,witec elektrotechnik gmbh,hauptstr,leichlingen,42799,312570586,DE
289e052c,comptoir du sud ouest,58 boulevard pierre lefaucheux,le mans,72029,,FR
c4101dee,ht instruments gmbh,1b am waldfriedhof,korschenbroich,41352,,DE
1cbe52ce,fischer pierce und waldburg,8 frst maximilian str,kilegg,88353,322962465,DE
b05a1ef5,wupptool,herbringhausen,wuppertal,42399,341522115,DE
7d694999,nespresso deutschland gmbh,8 zollhof,dusseldorf,40221,333868649,DE
e29b4c7f,frey blumenhof,mittenheimerstrasse,unterschleissheim,85716,,DE
911661a6,josef hubersmd technik und nc metechnik,42 hauptstr,palling,83349,340637959,DE
ccd0b6df,luces sl,46 calle del general diaz porlier,madrid,28001,,ES
77d9d097,copac,calle bahia de pollensa,madrid,28042,,ES
85defdc1,hamilton sundstrand,4747 harrison ave,rockford,61108-7929,,US
63370b08,nm medical,200 avenue des gresillons,asnieres sur seine,92600,038107119,FR
8e8b6e06,gorlo,12 am buhl,gerbershausen,37318,,DE
afa3b342,honeywell aerospace,23500 w 105th st,olathe,66061-8425,021214283,US
bc538853,strher druckerei verlag,h h warnke strae,celle,29227,,DE
c5f81518,ge aviation systems ltd,bishops cleeve,cheltenham,gl528yb,,GB
0384d657,noveltis,2 pl canal,ramonville saint agne,31520,,FR
e6950a84,temai ingenieros,10 calle de rivas,coslada,28821,,ES
079d4185,maxstore gmbh,31 gunterstr,helmbrechts,95233,,DE
5a985e0b,polytec pt gmbh,1 7 polytec platz,waldbronn,76337,,DE
7ca58742,united parcel service,1 grlitzer strae,neuss,41401,315081096,DE
1c697ecd,dga techniques aeronautiques,47 rue saint jean,balma,31130,,FR
f3bfed60,vds,29 rheinstr,darmstadt,64283,,DE
b4c7a05a,intercomp europe ltd,manor farm road,reading,rg10 0py,221393783,GB
d0fec07a,honeywell international sarl,4 avenue saint granier,toulouse,31024,,FR
b92be33e,gaudin gerard,43 rue victor hugo,puteaux,92800,279719202,FR
9bb2f5d9,specialty fasteners components,unit d seymour wharf,totnes,tq9,233148675,GB
2d652dca,natixis factor hi techmetal,avenue winston churchill,charenton le pont,94220,281985668,FR
de3c7522,spieth maschinenelemente,41 alleenstr,esslingen am neckar,73728,317648764,DE
93094ac3,kfv kasse,13 heimstr,asselfingen,89176,,DE
4007988f,nerb kg,16 ingolstadter str,manching,85077,,DE
9b5a40f0,miller company pc,4929 main st,kansas city,64112-2631,021212477,US
6bc2d697,hbs electronic gmbh,89 91 mannheimer str,bruhl,50321,,DE
40dc815f,febrotec gmbh,frankfurter str,halver,58553,,DE
3b3b9e66,arrow iberia electronica slu,75 calle albasnz,madrid,28037,056509457,ES
c55aca6c,viking direct,lancer house,leicester,le31ub,505049999,GB
793de89f,kalzbw reglab 4 cottbus,66 sielower landstr,cottbus,3044,,DE
86ca1988,dataprof espaa sa,63 calle santa leonor,madrid,28037,466352929,ES
ae724f31,ernst haefele siehe 157m0,22 hafenbad,ulm,89073,,DE
066c325e,intersport,6 am westpark,ingolstadt,85057,,DE
6bec18c7,sealershop gmbh,siemensstr,kleve,47533,312678741,DE
34152c07,buerklin ohg,30 grunwalder weg,oberhaching,82041,,DE
94c93a16,csb battery store,14 badstr,neumarkt in der oberpfalz,92318,,DE
5fae6160,ads analyse detection securite,31 route de paris,jouars pontchartrain,78760,,FR
c6270995,ups deutschland inc co ohg,1 grlitzer str,neuss,41460,318066107,DE
f1a33bdb,moravia gesellschaft fuer,10 rostocker str,wiesbaden,65191,,DE
ff973ba5,acm,9 rue de la gare,villiers saint frederic,78640,380071407,FR
9a51e10b,cover construction company limited,filkins mill,lechlade on thames,gl7,,GB
9d90ddbc,faure herman,route de bonnetable,la ferte bernard,72400,,FR
9f0dae5b,specialty fasteners components,unit d seymour wharf,totnes,tq9,233148675,GB
f21848af,united parcel service,garlitzer str,neuss,41401,,DE
af7f506c,lapp gmbh und co kg,25 schulze delitzsch str,stuttgart,70565,,DE
f7a9a181,honeywell,415 lind ave sw,renton,98057-5959,602570855,US
5868e71c,aspen electronics limited,kildare close,ruislip,ha4 9ur,,GB
20082566,delta computer,4 rntgen str,reinbek,21465,031634716,DE
0483c61c,bruggemann gmbh co kg,2 am kalkheck,herdecke,58313,,DE
d6da86b4,chartworld gmbhco,90 ruhrstr,hamburg,22761,331067814,DE
8f282398,amtag,lise meitner str,meerbusch,40670,,DE
7d1269cf,wuerttembergische allplastik,12 johannes kepler str,herrenberg,71083,316084979,DE
ab9e5ecd,editorial planeta sa,662 664 avinguda diagonal,barcelona,8034,460024151,ES
06cbd331,casa compras,calle la mata,seville,41002,462422616,ES
e0a1ea00,honeywell consumables solutions sas,4 avenue saint granier,toulouse,31024,380951202,FR
79a01cd7,weinmann emt gmbh co kg,12 frohbase str,hamburg,22525,,DE
bd8d35b0,thales communications,83 85 rue emile brault,laval,53000,,FR
9c87ac4e,intercompany,internal ap intercompany account,newport,np108fz,,GB
3009cbca,ge measurement control,fir tree lane,groby,le60fh,,GB
26eaed40,sew eurodrive gmbh co,42 ernst blickle str,bruchsal,76646,316073634,DE
f704e1f0,bildungswerk der wirtschaft hamburg,10 kapstadtring,hamburg,22297,,DE
cba3b588,vega grieshaber kg,113 am hohenstein,schiltach,77761,315640268,DE
3b673006,heisslufttechnik flocke gmbh,2 4 mondstr,feldkirchen,85622,,DE
6afadc90,international farbenwerk gmbh,lauenburger landstrae,bornsen,21039,327670568,DE
a65009a4,sna europe,willettstr,mettmann,40822,,DE
e20bbf3a,fhf gmbh,waterbergstrae 11,bremen,28237,328761531,DE
877c733f,ad aerospace ltd,abbots park,runcorn,wa73gh,778562785,GB
212fd244,buerklin ohg,245 hherweg,dusseldorf,40231,325678258,DE
6a6bf243,jura zentralservice singen,16 otto hahn str,singen,78224,,DE
31ea5edd,h media,329 heistraat,antwerp,2610,372377817,BE
705f3215,honeywell,4150 lind ave sw,renton,98057-4973,,US
517bc079,acl digital ltd,unit 20 city business centre,lower road london,se16 2xb,345662639,GB
4c549e3e,bail expansion,4 place de la coupole,charenton le pont,94220,281985668,FR
97a76c1e,genex srl,via torre sant eusebio,rome,131,,IT
27214aac,stumpf,37b marienburger str,landshut,84028,340225397,DE
c9f2444f,natixis factor,10 12 avenue winston churchill,charenton le pont,94220,281985668,FR
dd2d6cef,snap on industrial germany snap on industrial germany division of sna germany gmbh snap on industrial germany,10 willettstr,mettmann,40822,,DE
0e02feec,heider druck gmbh,102 116 paffrather str,bergisch gladbach,51465,323117283,DE
441201cc,fhf gmbh,26 kap horn str,bremen,28237,328761531,DE
e8748ac9,sogeti high tech sogeti high tech sogeti high tech,3 chemin de laporte,toulouse,31300,,FR
489551b4,wurth elektronik france,1861 avenue henri schneider,jonage,69330,,FR
de01875a,cpd lieferanten div inland,ottobrunn,ottobrunn,85521,,DE
aed69ed2,pri performance review institute,1 york street,london,w1u 6pa,211485159,GB
430107b3,mewa textil mietservice,4 tiergartenstr,meisenheim,77974,,DE
20bfa4e2,industrie elektronik brilon gmbh,40 almerfeldweg,brilon,59929,341296051,DE
8e71eb0a,nespresso deutschland gmbh b 746m6,8 zollhof,dusseldorf,40221,333868649,DE
aa588573,herco sa,km 7 700 carretera valencia,cuarte de huerva,50410,,ES
e31e7851,aeroflex test solutions,school close,chandler s ford,so534ra,,GB
39b835d7,relats sa,s n carrer priorat,caldes de montbui,08140,460034838,ES
cf3e271a,mti 1998 ltd,paramount industrial estate,watford,wd247xd,023023731,GB
6f983ec3,smiths aerospace electronic systems,cheltenham,cheltenham,gl528sf,288525181,GB
2d083328,finder relais gmbh,30 eisenstr,russelsheim,65428,321645632,DE
26d9662d,performance plastics,max planck str,karben,61184,537523854,DE
d204f151,analisis y simulacion sl,14 plaza t alava c leonardo da vinci,vitoria gasteiz,1510,565189297,ES
1cdf9fef,buerklin ohg,grunwalder weg,oberhaching,82041,,DE
b025e040,forum luft und raumfahrt e v,10 flensburger str,berlin,10557,312583942,DE
62cb855d,siemens ag,98 frauenauracher str,erlangen,91056,331535687,DE
338a8e03,syskomp gmbh emico,max plank s trasse,amberg,92224,038800273,DE
785fd028,tenovis direct gmbh,23 waldstr,dietzenbach,63128,330443438,DE
ded97524,grimm metallpulver gmbh,1 am wasserturm,roth,91154,316106467,DE
bb51afdf,gestion y valorizacion integral del,calle tecnologia,getafe,28906,,ES
9675372e,sunaero,70 rue ampere,genay,69730,,FR
cb7e6e32,wirtshaus in der au,lilienstrae,munich,81669,,DE
5482cb6f,isocel management conseil sarl,rue robert caumont,bordeaux,33049,,FR
0a6ce927,abstract electronics inc,11526 53rd st n,clearwater,33760-4825,,US
f82ae003,stahlgruber,22 auchertwiesenweg,ulm,89081,333567183,DE
c42aecca,sogeti high tech,2 av l escadrille normandie niemen,blagnac,31700,287711456,FR
5bc46d34,umt,1 adolph kolping platz,ulm,89073,,DE
d4f89691,clem sau,8 avenida fuente nueva,san sebastian de los reyes,28703,,ES
218daa95,busse design engineering gmbh,18 nersinger str,elchingen,89275,,DE
50c0a262,supplier loaned equipment,the quadrant,newport,np108fz,,GB
a45fa6f8,asup gmbh,10 beckedorfer bogen,seevetal,21218,314690277,DE
4e1873e2,heisslufttechnik flocke gmbh,2 4 mondstr,feldkirchen,85622,,DE
b6d715b7,neurtek sa,3a pg azitain,eibar,20600,,ES
c26ff6ce,zf gastronomie service gmbh,alfred colsmann platz,friedrichshafen,88045,341635338,DE
5b4d312a,fritz osk michallik gmbh co kg,kilingweg 60,muhlacker,75417,323802124,DE
1f9ecb03,sinus electronic gmbh,6 schleifweg,untereisesheim,74257,330960878,DE
399eaa83,manuel riesgo sa,00 avenida real de pinto,madrid,28021,046865961,ES
782a5b93,3p gmbh,27 max planck str,karben,61184,537523854,DE
252c7286,grupo proyemer sca,s n carretera a lagos del serrano,el ronquillo,41880,633456546,ES
953bbfa7,nm medical,200 avenue des gresillons,asnieres sur seine,92600,278082214,FR
b2b091c3,vtr ruether,cl steinheide 43,tonisvorst,47918,,DE
62417f75,r g gmbh,13 im meiel,waldenbuch,71111,,DE
1a7157e2,hybeta gmbh,15 im breitspiel,heidelberg,69126,312527225,DE
1a8f3989,technolit gmbh,industriestrae,grossenluder,36137,031582798,DE
caa9b691,cosset md,rue jean mermoz,le haillan,33185,277271321,FR
8528e518,smarttools,52 luisenstr,bramsche,49565,326272437,DE
1e8a4a96,thales communications,83 85 rue mile brault,laval,53000,064773277,FR
2cad6fb3,buchhandlung gerd stiebert,kupferstr,ingolstadt,85049,,DE
7a17d0c9,alter ego 31,chemin de gramont,colomiers,31770,779097252,FR
d38a1e31,hahnkolb werkzeuge gmbh,postfach 06 60,ludwigsburg,71606,343074233,DE
adb29e37,selex es spa,via giulio vincenzo bona 85,rome,156,434387298,IT
c77b780e,hodt korrosionsschutz,flurstrae 8,hamburg,21465,317577443,DE
39c6607f,hoefer gmbh,14a keferloher str,haar,85540,,DE
e86664b8,klever gmbh und co kg,20 hauptstr,aham,84168,326107463,DE
1a2538df,mel aviation ltd,60 woolmer way,bordon,gu35,,GB
9e14e359,dhci,83 baker street,london,w1u 6ag,719325297,GB
9763015e,rochester electronics,fenice court,saint neots,pe19,,GB
da103a5d,slind parts sa,km10 avenida de andalucia,madrid,28021,,ES
b7dff1be,mayre sc,5b calle lopez de legazpi,seville,41008,,ES
4a66bfa6,nespresso deutschland gmbh,speditionsstrasse,dusseldorf,40221,341618791,DE
3c32bf99,kerb konus vertriebs gmbh,7 wernher von braun str,amberg,92224,327960993,DE
258f846f,omnilab laborzentrum gmbh co kg,8 robert hooke str,bremen,28359,,DE
7ebcc13b,viking direct,po box 279,leicester,le31yu,,GB
b2bd34fb,sport in,17 jesuitenstr,ingolstadt,85049,340898242,DE
e3c0d785,gruschwitz gmbh tech twist,68 memminger str,leutkirch im allgau,88299,,DE
61f33364,thales uk limited,manor road,crawley,rh109ha,,GB
0d5ea3e3,bilz,25 bblinger str,leonberg,71229,322944653,DE
cfcf9b8c,keithley instruments gmbh,65 landsberger str,germering,82110,031609217,DE
2b288390,swansea university,singleton park,swanseasa28pp,sa2 8pp,232227629,GB
cb47ddd6,infoscore forderungsmanagement gmbh,99 rheinstr,baden baden,76532,,DE
56828152,futronic gmbh,tolnauer str,tettnang,88069,031612328,DE
82bd2594,sna europe deutschland,5 auf dem hls,mettmann,40822,344805481,DE
42b4a934,rdmadrid sl,79 1 calle de caleruega,madrid,28033,,ES
0bcf1f54,northrop grumman corporation,225 e john carpenter fwy,irving,75062-2282,624839184,US
c48d2aae,thales uk ltd,newton road,crawley,rh10 9ts,232257352,GB
e4931485,aermec,rue du developpement,guereins,01090,,FR
f0d73756,insa sa,34 paseo del pintor rosales,madrid,28008,,ES
4c2bd98f,aucosys,12 hofhalde,goppingen,73035,,DE
d1406ede,sna europe,willettstr,mettmann,40822,,DE
efc19188,tts tooltechnic systems ag co kg tts tooltechnic systems ag co kg tts tooltechnic systems ag co kg,20 wertstr,wendlingen,73240,,DE
6ee56e9a,reinartz kleinteileversand gmbh c,15 sachsstr,pulheim,50259,,DE
da473681,telkron informatica sl,13 avenida de donostiarra,madrid,28027,466848012,ES
73616d1e,honeywell,4150 lind ave sw,renton,98057-4973,,US
953c0298,dajv,10 alte bahnhof strae,bonn,53173,342801286,DE
b8e81c89,le manoir de gressy,2 rue saint denis,gressy,77410,,FR
b1048531,barr vertriebs gmbh,5 robert bosch str,heddesheim,68542,,DE
fc00de12,b z werkzeuge gmbh,carl peters strae,korntal munchingen,70825,,DE
7d5c9986,lambda gmbhco kg,12 am bahnhof,bischofswiesen,83483,551265957,DE
98b81beb,buerklin,40 schillerstr,munich,80336,316757657,DE
576c60fa,richardson rfpd italy srl,viale fulvio testi,milan,20126,,IT
e4af5c6f,techspace aero sa,route de liers 121,herstal,4041,372380824,BE
6b20710b,triumph actuation systems uk iom,cheltenham,cheltenham,gl52 8sf,211207784,GB
7e12b971,schlicker,5 gewerbestr,radevormwald,42477,312835861,DE
c906f2e3,botschaft afghanistan,3 taunusstr,berlin,14193,,DE
8c9bc065,verion gmbh,22e unter den buchen,schorfheide,16244,,DE
d96f5c2b,casa compras casa compras casa compras,calle la mata,seville,41002,,ES
7b945201,deutsche messe ag,messegelande,hanover,30521,315766592,DE
6a27215d,stahl schaltgeraete gmbh,30 am bahnhof,waldenburg,74638,,DE
a05b9a23,maschinenhandel meyer,10b reinhard rube str,gottingen,37077,341887429,DE
d13e9fb6,belfor deutschland gmbh,24 keniastr,duisburg,47269,,DE
5fb580f9,tfc ltd,58 pfaffenhaule,singen,78224,,DE
ac4b18e7,timmer pneumatik gmbh,37 dieselstrae,neuenkirchen,17498,317314334,DE
c5ac2407,r g faserverbundwerkstoffe gmbh,7 im meiel,waldenbuch,71111,319932075,DE
bfa7ec3e,gluetec,8a am biotop,geisenheim,65366,312578667,DE
98373637,insa sa,34 paseo del pintor rosales,madrid,28008,478818925,ES
a6361f15,cz handels gmbh,klaus groth weg,delmenhorst,27753,,DE
d8fa1b69,fako,15 peutestrae,hamburg,20539,340213235,DE
a2f3cbce,sennheiser vs gmbh co kg,karl wiechert allee,hanover,30625,499187367,DE
5d5ec1f6,schmersal gmbh und co,30 mddinghofe,wuppertal,42279,331310735,DE
009a86ad,sogeti high tech toulouse,3 chemin de laporte,toulouse,31300,261969181,FR
e22830a5,technifast ltd,north folds road,corby,nn18 9at,,GB
8a1b9f76,sz druck verlagsservice gmbh,2 6 martin luther str,sankt augustin,53757,,DE
2ed5bec0,east view geospatial inc,10601 wayzata blvd,minnetonka,55305-1515,,US
805ea6f8,biko bildungskooperation regionen,schillerstrasse,ludwigsburg,71638,,DE
834f832d,flm gmbhfoto licht und messtechn zubeh r,18 schtzen strae,emmendingen,79312,312664618,DE
e149186a,precintia internacional sa,22 avenida de manoteras,madrid,28050,,ES
81c95c87,speedpoint next generations gmbh,rheinstr,darmstadt,64295,,DE
6cf59033,architektenkammer der,geeren,bremen,28195,,DE
c0f0bdab,seton gmbh,5 7 otto hahn str,langen,49838,322762329,DE
6898f92e,dwt gmbh,wilhelm tenhagen str,bottrop,46240,,DE
923a799d,gross karlheinz,37 ulmenweg,zweibrucken,66482,342096003,DE
9335eaa3,banderas y mastiles sosa dias sa,poligono ind sur,colmenar viejo,28770,,ES
79c98d45,organisation pro software,11a innere wiener str,munich,80000,,DE
551a20a0,essentra components gmbh,lauterbachstrae,geretsried,82538,,DE
22be1313,fako heinrich a anton,sderstr,hamburg,20537,340213235,DE
fd1727b8,essentra components gmbh,19 lauterbachstr,geretsried,82538,,DE
ed00abba,datalis,8 avenue gutenberg,portet sur garonne,31125,896814522,FR
f8c181dc,trescal limited,park gate close,stockport,sk6 2sl,215592268,GB
b021806d,pratt whitney pratt whitney component solutions pratt whitney,4905 stariha dr,norton shores,49444,,US
e97356be,universal service mller,11 an der hansalinie,munster,48163,,DE
ea4fa8d4,dr ing k busch gmbh,1 schauinslandstr,maulburg,79689,,DE
2c65057e,sauter gmbh und co kg,30 sonnenstr,munich,80000,,DE
a5c9f06f,kathleen schulze,1 kolumbusstr,munich,80000,,DE
646c5c56,sogeti high tech,3 chemin de laporte,toulouse,31300,287711456,FR
604e23d5,wimo antennen und elektronik gmbh,14 am gxwald,herxheim bei landau pfalz,76863,341245025,DE
111f4fbf,polytec pt gmbh,polytec platz,waldbronn,76337,,DE
807fa50c,sommer gmbh cokg,rotwandweg,taufkirchen,82024,,DE
a25238a4,zarm technik gmbh,am fallturm,bremen,28359,537384638,DE
784559d0,aphisa aplicaciones,calle 33,alcala de guadaira,41500,,ES
7ad9c282,verbindungs techniken ruether,43 steinheide,tonisvorst,47918,342438298,DE
eda78704,air sea containers ltd,cavendish street,birkenheadmerseyside,ch41 9dh,,GB
30e90e70,ametek mro florida inc,5900 nw 97th ave,doral,33178-1642,,US
b39d0af4,fischer plath gmbh,4 gansper helmer,berne,27804,317668911,DE
c8dbf7a8,gl events exhibitions,24 rue saint victor,paris,75005,264017122,FR
0ecd1216,sandsackshopde,12 rohnaer str,thiendorf,1561,,DE
6e17a467,honeywell aerospace,4 avenue saint granier,toulouse,31024,380951202,FR
6a721494,domino deutschland gmbh,3 lorenz schott str,wiesbaden,55252,318455441,DE
c7f90e3b,intercomp europe ltd,manor farm road,reading,rg10 0py,,GB
0a966627,proroll gmbh,9 heinrich schicht str,huckeswagen,42499,,DE
0129a092,kroschke,kroschkestr,brunswick,38112,,DE
73a56e4d,selex sensors and airborne systems,2 crewe road north,edinburgh,eh5 2xs,,GB
d22b2cb0,zentro elektrik gmbh kg,7 hahen strae,eisingen,75239,003165552,DE
a9246643,muenchner knoedelei,51 lilienstr,munich,81669,342593012,DE
6643fcf3,cleverbridge ag,brabanter str,cologne,50674,,DE
7e61a523,courriers automobiles picards,la haute borne,rivery,80136,275345411,FR
0f77f9ee,r g faserverbundwerkstoffe gmbh,im meiel,waldenbuch,71111,,DE
c1cdd98b,goodrich sensorsintegrated syst,14300 judicial rd,burnsville,55306-4890,,US
df8b52ad,sunaero,70 rue ampere,genay,69730,502114143,FR
52f9921c,yoshida deutschland gmbh ykk,33 ostring,mainhausen,63533,,DE
f111ee4e,dga techniques aeronautique,47 rue saint jean,balma,31130,635165124,FR
253ce464,hamilton sundstrand,4747 harrison ave,rockford,61108-7929,051079937,US
4af3a76c,hamilton sundstrand hamilton sundstrand hamilton sundstrand,4747 harrison ave,rockford,61108-7929,,US
9870c64b,juergen maurer,39 zur eisengrube,bitz,72475,332690044,DE
439e24fd,kremer pigmente gmbh co kg,41 47 hauptstr,aichstetten,88317,318233954,DE
6dd6ba94,ergodata gmbh,lessingstrae 27,dresden langebrrck,1465,330457995,DE
690ce70a,steep gmbh,hagenauer forst,schrobenhausen,86529,507174261,DE
fd6ccca7,viking direct,lancer house,leicester,le31ub,,GB
b6d85802,lupenhandelde,8 siriusstr,unterschleissheim,85716,,DE
6602b62d,nespresso deutschland gmbh,speditionsstrasse,dusseldorf,40221,341618791,DE
9a0597f8,brauner siegfried,fraunhoferstrae 5,planegg,82152,328639633,DE
8ce398a8,macherey nagel gmbh co kg macherey nagel gmbh co kg macherey nagel gmbh co kg,6 8 neumann neander str,duren,52355,,DE
d0c95a90,hotel und gasthof bauer,mnchner str,feldkirchen,85622,,DE
6a65543a,schempp decker gmbh,6 8 am stichkanal,berlin,14167,320463268,DE
ee2e8aec,pc box lugo,59 rua ourense,lugo,27004,,ES
fbb6c400,hoffman engineering,8 riverbend dr,stamford,69070,,US
7beeb7c7,ffw ernsgaden,19 geisenfelder str,ernsgaden,85119,,DE
77c66fd9,rg gmbh,7 im meiel,waldenbuch,71111,319932075,DE
8183683d,hotel und gasthof bauer,mnchner str,feldkirchen,85622,322170721,DE
819eebf4,sogeti high tech,13 rue andre villet,toulouse,31030,260806277,FR
538d479c,schmidt hoffmann gmbh,163 hamburger chaussee,bergisch gladbach,51429,,DE
6e23c40a,robuso stahlwarenfabrik,75 neuenhofer str,solingen,42657,322853813,DE
ab94c508,fpw prueftechnik gmbhco kg,8 frst maximilian str,kilegg,88353,322962465,DE
cb5ef7d5,gardner denver schopfheim gmbh,roggenbachstr,schopfheim,79650,551205594,DE
fb97c3ec,supplier loaned equipment,the quadrant,newport,np108fz,,GB
ca12e2ba,quality office supplier sl,7 avenida de los pirineos,san sebastian de los reyes,28703,,ES
ea464e59,adf technologies championdoor adf technologies championdoor groupement adf technologies championdoor,6 avenue jean monnet,colomiers,31770,,FR
8e0b3f0a,btt gmbh,dieselstr,hamburg,22307,324932342,DE
38187adb,elkubema,3 bilsener weg,hemdingen,25485,343391785,DE
fa6d9ad1,sogeti high tech,3 chemin de laporte,toulouse,31300,,FR
2362fbac,rae france,rue de la fee aux eaux,vernaison,69390,275078975,FR
2b6db9ee,stuttgarter verlagskontor svk gmbh,77 rotebhl str,stuttgart,70178,320556574,DE
c77984b0,dataprof espaa sa,63 calle santa leonor,madrid,28037,,ES
d48eca66,selex es spa,60 close via piemonte,rome,187,,IT
1d891d0d,framos electronic vertriebs gmbh,zugspitzstr,pullach,82049,316089887,DE
e6d450a4,neurtek sa,3a pg azitain,eibar,20600,461196396,ES
eb81bc94,evosource ag,80 berliner str,potsdam,14467,,DE
02f8a26c,manfrotto distribution,44 rue de la couture,rungis,94390,263172699,FR
78cbcaf9,ernst diekgraefe gmbh,13 altenaer str,altena,58762,,DE
cbe60e87,rittal lieferzentrum,32 dieselstr,garching,85748,551050883,DE
48d37150,ea elektro automatik,31 33 helmholtzstr,viersen,41747,330862074,DE
90ae2627,re in retail international gmbh,98a nordring,nuremberg,90409,,DE
ab17a815,noveltis,2 pl canal,ramonville saint agne,31520,502521953,FR
8232ccbe,eidex gmbh,1a schorner str,baierbrunn,82065,033093506,DE
18d3383f,aeroflex test solutionsunits 14 15,monks brook ind pk,chandler s ford,so534ra,,GB
87ab85b1,hanna instruments sl,3b azitain bidea,eibar,20600,460733194,ES
759e162c,druck limited druck limited ge sensing druck limited,fir tree lane,groby,le6 0fh,,GB
878ef369,acmos chemie gmbh und co,industriestr,bremen,28199,,DE
4b48608b,franz scheuerle ulm kg,2 ernst abbe str,ulm,89079,,DE
15ddb77a,ge aviation systems ltd,bishops cleeve,cheltenham,gl52 8yb,211207784,GB
4f0686dd,ime mobile solutions,7 borsigstr,barbing,93092,,DE
ac909ab7,electrofluid,665 rue de la maison blanche,orgeval,78630,,FR
29d1f197,ui lapp gmbh,25 schulze delitzsch str,stuttgart,70565,,DE
f88f8bf5,nea electronics inc,14370 white sage rd,moorpark,93021,009488545,US
d4468f99,le manoir de gressy,chemin des carrosses,gressy,77410,,FR
b02bd885,honeywell aerospace,4 avenue saint granier,toulouse,31024,,FR
38816555,wirtshaus in der au,lilienstrae 51,munich,81669,342593012,DE
7ce3ca3c,medicare biomedizintechnik gmbh,lohkamp,langenhagen,30855,315702733,DE
2959e1db,buerk mobatime gmbh,46 steinkirchring,villingen schwenningen,78056,313291792,DE
97d46a1f,vtr,43 steinheide,tonisvorst,47918,,DE
319f4a76,ag sexton gmbh,16 rathausstr,jagsthausen,74249,,DE
367960ef,auswrtiges amt,1 werderscher markt,berlin,10117,344891643,DE
253f31ae,genex srl,via torre sant eusebio,rome,131,,IT
73d2b3e7,copelbe,16 rue grange dame rose,velizy villacoublay,78140,027646928,FR
cc34f045,absatzplus gmbh,37 hofer str,schauenstein,95197,312504658,DE
78ff41ff,parkett wanke,charlottenstr,spaichingen,78549,312812453,DE
c0b48772,sogeti high tech sas,2 av l escadrille normandie niemen,blagnac,31700,287711456,FR
2605d0f6,friedrich heck gmbh,27 an der iserkuhle,hemer,58675,325771681,DE
f4f35c3f,weinmann emergency medical,12 frohbsestr,hamburg,22525,317198315,DE
5d2e9e3d,selex es spa sener azur,piazza monte grappa,rome,195,339051809,IT
e42f6b6c,temai ingenieros sl temai ingenieros sl temai ingenieros sl,10 calle de rivas,coslada,28821,,ES
39584f83,rost graphisches systemhaus gmbh,holderacker strae,stuttgart,70499,,DE
6ea6ed15,netmakers,rue du 1er mai,nanterre,92000,,FR
81ff1e9f,elettronica gmbh,10 am ham bruch,meckenheim,53340,,DE
d03b0fcc,tintoreria macias sl,5 calle tomas cologan osborne,el puerto de santa maria,11500,,ES
aaa5650b,gregor chemie gmbh,8 homburgstr,eschershausen,37632,,DE
1bd2d98a,tauchsportservice,5 hofwies,stuhlingen,79780,,DE
3b4a9463,pratt whitney canada,4 dr ernst zimmermann str,ludwigsfelde,14974,,DE
a06752f3,acmos chemie gmbh und co,industriestr,bremen,28199,,DE
fb3921f1,barth blumen,60 raiffeisenstr,unterschleissheim,85716,328208322,DE
b5167696,testo se co kgaa,1 testostr,lenzkirch,79853,,DE
f0ec3f43,r g gmbh,7 im meiel,waldenbuch,71111,,DE
98a23369,rae france,rue de la fee aux eaux,vernaison,69390,,FR
7eb83931,vieweg gmbh,13 gewerbepark,kranzberg,85402,325718823,DE
8a4ebdbd,stahlgruber gmbh co,margot kalinke str,munich,80000,,DE
0c07244b,fako heinrich a anton,159a suderstr,hamburg,20537,,DE
c81cca30,tetraguard systems gmbh,24 kasinostrae,troisdorf,53840,003332694,DE
e8b86147,buero wenger,119 manchinger str,ingolstadt,85053,312568929,DE
6097f4c6,bildungswerk der wirtschaft hamburg,10 kapstadtring,hamburg,22297,,DE
9511612e,adf technologies adf technologies adf technologies,6 avenue jean monnet,colomiers,31770,,FR
32009d04,raasch luftfilter,11 13 scharrenberger str,solingen,42699,316424134,DE
22fa259d,aeronix produkte peter magin,5 albert einstein str,walldorf,69190,,DE
3b7341ce,marconi selenia communications spa,1a via ambrogio negrone,genoa,16153,,IT
dc1fbe70,drahtwerk elisental w erdmann,40 werdohler str,neuenrade,58809,,DE
41cd604b,manuel riesgo sa,00 avenida real de pinto,madrid,28021,,ES
546c2c52,licatec gmbh,7 erzstr,brand erbisdorf,9618,330944281,DE
e6a61f64,industrie elektronik brilon gmbh,40 almerfeldweg,brilon,59929,,DE
642a1d31,nord schrott gmbh,30 lilienthalstr,flensburg,24941,320637101,DE
28874a33,zarm technik ag,am fallturm,bremen,28359,,DE
65d52735,performance plastics products 3p performance plastics products 3p gmbh performance plastics products 3p,27 max planck str,karben,61184,,DE
ba8b6218,plastiques poppelmann,3 rue r schuman,rixheim,68172,057636483,FR
eef729a2,dichtelemente arcus gmbh,16 beckedorfer bogen,seevetal,21218,313821894,DE
06045ef8,temai ingenieros,10 rivas,coslada,28821,046234408,ES
8af3a891,lapp systems gmbh,5 oskar lapp strae,stuttgart,70565,031792249,DE
b7be227e,abc tools spa,via stefano canzio,milan,20131,,IT
e6119ac4,euroshine valeting,69 ravensden road,bedford,mk41 0jy,,GB
e8e5ef88,gloria gmbh,diestedder str,wadersloh,59329,,DE
8f518e93,gbc deutschland gmbh,40 42 uferweg,gelnhausen,63571,333234206,DE
f6d4c1fe,honeywell international inc,4150 lind ave sw,renton,98057-4973,602570855,US
af561fb1,hc pacific,19844 quiroz ct,walnut,51577,057356776,US
791834ad,aha zweckverband abfallwirtschaft r,karl wiechert allee,hanover,30625,,DE
1244efc0,le manoir de gressy,chemin des carrosses,gressy,77410,383204575,FR
accfff68,grupo proyemer sca,s n carretera a lagos del serrano,el ronquillo,41880,,ES
0cdda6c2,lambrecht wilhelm gmbh,65 67 friedlnder weg,gottingen,37085,315859603,DE
f9c1cd63,mdai mobile solutions gmbh,24 hans urmiller ring,wolfratshausen,82515,342595262,DE
e86bc269,pulch lorenz gmbh,am untergra3n,march,79232,,DE
17673c8f,laystil sa,avinguda generalitat,abrera,08630,,ES
63e87fe1,erich grau gmbh,3 7 uhlandstr,sersheim,74372,031613993,DE
9100ac66,knab gmbh,4 himmelkronstr,bayreuth,95445,,DE
bdcb5ed2,systempartner computervertriebs,wrzburger s trasse,aschaffenburg,63743,032898285,DE
ca468513,reiter gmbh,weddigenstr,augsburg,86179,031888058,DE
ed6c58f8,fedota ing giuseppe,via padre f lancellotti,oppido lucano,85015,,IT
d4ff295b,honeywell aerospace,190th st,torrance,25250,,US
48a1e774,lm therm elektrotechnik ag,15 sulzbachstr,aldersbach,94501,,DE
41b06fb4,aero electronic malter sikora gmbh,1 am birkenbhl,herzogenaurach,91074,507370836,DE
ce8a3993,abb automation gmbh,6 grner weg,friedberg,61169,344889824,DE
12dd8563,alpha taxis,56 rue albert,paris,75013,391949286,FR
0dd38705,hydro cleansing ltd,hcl house beddington farm road,croydon,cr0 4xb,239268969,GB
a8ec99a6,vtr,43 steinheide,tonisvorst,47918,,DE
13688540,ost und mitteleuropa verein,36 ferdinandstr,hamburg,20095,326404191,DE
ddc40482,snap on industrial germany,10 willettstr,mettmann,40822,,DE
c3470a67,latim sa,44 rue roger salengro,fontenay sous bois,94120,,FR
e41a7166,brklin ohg,haherweg,dusseldorf,40231,325678258,DE
28c9bf9a,performance plastics products 3p gmbh,27 max planck str,karben,61184,,DE
fca9ce98,kfv kasse,13 helm str,asselfingen,89176,,DE
b04a972a,pz planen und zelte gmbh,5 aindlinger str,augsburg,86167,319871752,DE
7461a27b,sam screws and more gmbh,43 virchowstr,leverkusen,51373,340886743,DE
83aed1a5,gorlo,12 am bhl,gerbershausen,37318,342972085,DE
b37479a6,faure herman,route de bonntable la monge,la ferte bernard,72400,278699061,FR
28f0feb9,blumenhof frey,wa3rmbachstraerasse,unterschleissheim,85716,,DE
ba79bdef,kerb konus vertriebs gmbh,7 wernher von braun str,amberg,92224,,DE
3c047412,sg world limited,duchy road,crewe,cw1 6nd,536465164,GB
4cfb01da,kavlico corp,14401 princeton ave,moorpark,93021,008267262,US
32f433b3,sogeti high tech,bp n 90076,blagnac,31700,,FR
1811fb7c,tui limited,esplanade,sthelierjersey,je11ft,,GB
a939e3e1,honeywell aerospace,23500 w 105th st,olathe,66061-8425,614705783,US
5d82d20c,essentra components gmbh,19 lauterbachstr,geretsried,82538,313090787,DE
32571bf3,lapp gmbh und co kg,25 schulze delitzsch str,stuttgart,70565,316086383,DE
86c8695e,halco iberia sa,pq empresarial sant cugat,sant cugat del valls,8174,464727759,ES
77db3165,slv schweisstechnische lehr,37 schachenmeierstr,munich,80636,329291983,DE
eb7bae3c,elektro automatik,33 35 helmholtzstr,viersen,41747,342379806,DE
dc8d1a61,wmh herion antriebstechnik gmbh,stanglmuehle 9 11 1,wolnzach,85283,331893797,DE
cbe3c7e4,ge aviation,cheltenham,cheltenham,gl52 8sf,067221824,GB
91c8e214,boote pfister gmbh,6 wahlweg,schwebheim,97525,,DE
3b69a348,notariat viii ulm,14 zeughausgasse,ulm,89073,,DE
58e9d4fc,wtd 81,bergstr,greding,91171,,DE
8d94d762,electrofluid systems,665 rue de la maison blanche,orgeval,78630,276361763,FR
9d6bc785,honeywell consumables solutions sas,30 rue raymond grimaud,blagnac,31700,380951202,FR
7d8787c1,rahmen shop de,7 industriestr,rothenburg ob der tauber,91541,341655724,DE
505938ae,hanhart gmbh co kg i i,33 hauptstr,gutenbach,78148,,DE
92537496,pts automation gmbh,166 donatusstr,pulheim,50259,,DE
63643da0,marconi selenia communications spa,1 a via negrone,genoa,16153,339927547,IT
ab3ef870,association deltas sqy,1 boulevard jean moulin,elancourt,78996,,FR
4c22ea5b,peddinghaus,halinghauser str,gevelsberg,58285,,DE
b2940ab5,stumpf,37b marienburger str,landshut,84028,,DE
b507374f,ge aviation systems ltd,arle court,cheltenham,gl51 0tp,211207784,GB
692fcdf3,netmakers,rue du 1er mai,nanterre,92000,260176907,FR
c6436756,gvf des dlr,kaniqswinterer str,bonn,53227,,DE
78ff3962,hamilton sundstrand aerospace,4747 harrison ave,rockford,61108-7929,149872194,US
49dff353,martin wei,4 birkenweg,ilmmunster,85304,312828019,DE
80c27449,sport in,17 jesuitenstr,ingolstadt,85049,,DE
abd16599,shp,5 zeiss str,ratekau,23626,,DE
e72763f6,macherey nagel gmbh und co kg,valencienner str,duren,52355,341183377,DE
486e3937,powerledsde,26 28 neustadter str,oldenburg,23758,,DE
c8efedca,marconi selenia communications spa,1 a via negrone,genoa,16153,,IT
c0890928,licatec gmbh,2 14 alfred nobel str,frechen,50226,316012194,DE
98d0d332,binz ambulance und,21 am vogelherd,ilmenau,98693,342642038,DE
d85c45d2,e a elektro automatik gmbh,31 37 helmholtzstr,viersen,41747,,DE
ccae9a88,lockheed martin,1801 state route 17c,owego,13827,,US
4d24a12c,isocontrol sl,av ofelia nieto 0067,madrid,28039,,ES
3b15f832,arrow iberia,75 calle albasanz,madrid,28037,,ES
faacdb94,hames gmbh,hererostrae,munich,80000,,DE
a78af68e,dr ing paul christiani gmbh co,hermann hesse weg,konstanz,78464,,DE
ba852050,ge aviation ge aviation ge aviation,cheltenham,cheltenham,gl52 8sf,,GB
ec6e3c43,plastiques poppelmann,3 rue r schuman,rixheim,68172,,FR
bc18e8e2,taxi candel jean,route de castelmaurou,saint loup cammas,31180,005440086,FR
f9d94010,conrad electronic,14 16 binger str,mainz,55122,312613229,DE
f9a47b93,hahnkolb werkzeuge gmbh,postfach 06 60,ludwigsburg,71606,,DE
b9287ffa,muslim shopcom,31 an der brunnenstube,mainz,55120,,DE
b326c887,seilflechter tauwerk,7 9 auf dem anger,brunswick,38110,,DE
f6c4cea8,selex es spa,via laurentina 760,rome,143,339927556,IT
58da522b,aeroflex international ltd,school close,eastleigh,so53 4ra,,GB
c204c7b7,l amphitryon restaurant,chemin de gramont,colomiers,31770,779097252,FR
0675a2a8,medicom service e k,wankelstr,korschenbroich,41352,537440336,DE
720277b6,cif,11 rue charles michels,bagneux,92220,,FR
4bd3cfa4,august schmelzer sohn gmbh,1 auf der acht,idar oberstein,55743,317535607,DE
e52f0da8,dirak,1 knigsfelder str,ennepetal,58256,312547397,DE
8ba3c958,aeroflex test solutions,monks brook ind pk,chandler s ford,so53 4ra,216834002,GB
e4e87c6a,assmann electronic gmbh,auf dem schffel,ludenscheid,58513,,DE
e974ef74,tulli elettronica di tulli marcello,via francesco gai,rome,196,,IT
5a33b026,gluetec,8a am biotop,geisenheim,65366,,DE
1b7312a0,sunaero,70 rue ampere,genay,69730,,FR
331e0689,hydraulik center dietz,18 heideland ost,handewitt,24983,,DE
a240b509,selex es spa,piazza monte grappa nr 4,rome,195,339051809,IT
b24a5771,zarm technik gmbh,am fallturm,bremen,28359,,DE
278ba4c8,centro comercial chino antonio,6 ra da agricultura,lugo,27003,462425518,ES
6fe5c5bd,curtiss wright,lambourne cres,llanishencardiff,cf14,211242694,GB
6d738788,bedifol gmbh,august borsig str,konstanz,78467,312606563,DE
941ec1ab,airtanker services ltd,airtanker hub raf brize norton,carterton,ox18,,GB
a34c487c,thales uk limited,manor royal,crawley,,217452627,GB
3ac81de6,snap on tools,5 auf dem hls,mettmann,40822,032934672,DE
5aae09d4,kvt koenig gmbh,14 max eyth str,illerrieden,89186,,DE
95862890,airflow lufttechnik gmbh,postfach 12 08,rheinbach,53359,318818127,DE
4ce5b1e1,wirtshaus in der au gmbh,pettenkoferstr,munich,80000,,DE
82dcb316,duangta barz,landshuter allee,munich,80000,,DE
823ef152,leco instrumente gmbh,31 marie bernays ring,monchengladbach,41199,316721976,DE
d345e1a8,bit biether,da12tzhofer str 7,swisttal,53913,,DE
7ef31ca1,ingenieurkammer der freien,41 43 geeren,bremen,28195,326694234,DE
134e55ca,manoir de gressy,chemin des carrosses,gressy,77410,,FR
0893b797,harmony software ag,tischlerstr,isernhagen,30916,537603925,DE
54c89a0c,elettronica gmbh,10 am ham bruch,meckenheim,53340,,DE
c539d14c,data device corporation,11716 wilbur place bohemis ny,bohemia,11716,,US
dbf54700,krueger raumausstatter,693 konigswinterer str,bonn,53227,,DE
38012b2d,westland helicopters ltd,lysander road,yeovil,ba20 2yb,217538273,GB
4e1dc91f,cleverbridge ag,2 4 brabanter str,cologne,50674,537461787,DE
08890639,spl patin,rue charles cros,surville,27400,525474904,FR
9c423197,dr feierabend chemisches und,19 gllerstr,berlingen,54570,328067137,DE
7c11b51d,acl digital ltd,lower road,london,se16 2xb,,GB
43e03f0e,thales communications thales communications thales communications,83 85 rue emile brault,laval,53000,,FR
e6aee316,edmund optics ltd,1 opus avenue,york,yo26 6bl,,GB
8a10ccca,floordirekt inh walter wesemeyer,markircher str,mannheim,68229,342768755,DE
ab957489,copper and brass sales inc,5 sterling dr,wallingford,06492,,US
0358d8de,thales uk limited,manor royal,crawley,rh10 9ha,,GB
0c5ded04,peter greiffer,58 albrecht drer ring,holzkirchen,83607,313394124,DE
b9f0d39e,pratt whitney canada,2 dr ernst zimmermann str,ludwigsfelde,14974,331130179,DE
cc928005,quadrant connections ltd,unit 1 a1 m business centre,welham green,al9 7je,,GB
626debb6,signal constructgmbh,4 brckenckerweg,niefern oschelbronn,75223,327823159,DE
1b932c6a,hatfield and dawson consulting,greenwood ave n,seattle,98103,,US
661a0913,phoenix contact hmi ipc,29 kurze str,filderstadt,70794,,DE
cadb6587,ge aviation,bishops cleeve po box 162,cheltenham,gl528yb,211207784,GB
6067485f,gesellschaft fr fertigungstechnik,28 rosenbergstr,stuttgart,70174,031829101,DE
88c9374e,temai ingenieros,10 calle de rivas,coslada,28821,046234408,ES
cfb8ec8d,business visum gmbh,dusseldorfer str,frankfurt,60329,,DE
c6498e19,gps tchnologies gmbh,23a heinrich hertz str,langen,49838,,DE
3d206e69,airshop vetter luftfahrtbedarf,flug platz,pritzwalk,16928,,DE
0025e9ae,maschinenbau kitz gmbh,84 glockenstr,troisdorf,53844,315996355,DE
2568f61a,poppelmann,3 rue robert schuman,rixheim,68170,057636483,FR
536899d7,rochester electronics ltd,phoenix park,saint neots,pe19,,GB
bc7b7e0d,clickconcepts gmbh,12 hoher weg,ellwangen,73479,344129031,DE
322eb731,thaysen telecom,23a am oxer,harrislee,24955,320641319,DE
6b1b704a,copelbe,16 rue grange dame rose,velizy villacoublay,78140,263896649,FR
9e0a9062,dynamic systems gmbh,11 inninge str,worthsee,82237,,DE
6ee09ef6,akka aeroconsiel ltd,bristol,bristol,bs347pz,216553403,GB
5e081f0e,werkzeugkoffer shopde,rosenstr,ziegendorf,19372,312585066,DE
5579240e,hubert waltermann eisenwaren,4 rt loh,balve,58802,341143894,DE
04552123,georg mattheus gmbh,24 falderbaumstr,kassel,34123,332678267,DE
5f10218d,clinter traducciones e,57 calle gran va,madrid,28013,468285916,ES
e0857916,tesa germany,32 netzestr,ludwigsburg,71638,,DE
878b2071,slv schweisstechnische lehr,37 schachenmeierstr,munich,80000,,DE
8bd0463e,kleintierzuchtverein manching,20 am burgfeld,manching,85077,,DE
4785cf9e,fischers,10 am hirschbach,gundremmingen,89355,342880072,DE
cbe8ff6d,bals elektrotechnik,22 burgweg,kirchhundem,57399,317074672,DE
fc5a80a9,alpha taxis,56 rue albert,paris,75013,,FR
1de5bcc9,schubert kunststoffbehaelter,319 truderinger str,munich,80000,,DE
0900a4d6,plug dayhe sl,1 calle poligono,aldaia,46960,,ES
68923734,modellbau deutsch,33 hindenburgstr,donauworth,86609,,DE
054aa318,lloyds bank commercial finance sky,po box 10484,harlow,cm17,215591977,GB
110d2436,l com inc,45 beechwood dr,north andover,01845,040199572,US
cce26ebb,ge aviation,evesham road,cheltenham,gl52 8sf,288525181,GB
6d6d1d3f,isocel management conseil,du lac ii,bordeaux,33300,762822153,FR
664d02a2,alexander krasner gravierbedarf,27 wuppertaler str,schwerin,19063,,DE
5daf4ea3,inforson sl,18 calle julio palacios,leganes,28914,,ES
8a9e4ab1,mk medizintechnik,120 primelstr,puchheim,82178,,DE
530192aa,uk space agency,north star avenue,swindon,sn2 1sz,217621868,GB
25bd969a,micro optic nosch ohg,2 berthold str,freiburg,79098,333121221,DE
1f772c01,delta computer products gmbh,rontgenstr,reinbek,21465,031634716,DE
141d83c1,albert berner gmbh,4 bernerstr,kunzelsau,74653,,DE
427fff0e,blyenburgh co,86 rue michel ange,paris,75016,,FR
c8047775,sigg strahltechnik gmbh,21 randenweg,jestetten,79798,320161771,DE
ab83db1d,ge measurement control,fir tree lane,groby,le60fh,,GB
f807543d,paul winter schule,bahnhofstr,neuburg an der donau,86633,,DE
5a53817a,trobak vertrieb,14 schillerstr,eckental,90542,,DE
ceee4324,klettshop24de,blossiner str,heidesee,15754,,DE
6d75a9de,plug in electronic gmbh,am sonnenlicht,alling,82239,,DE
edadd42d,nea electronics inc,14370 white sage rd,moorpark,93021,009488545,US
7d0324f9,hodt korrosionsschutz gmbh,flurstr,wentorf bei hamburg,21465,317577443,DE
685d1a81,tesa germany,32 netzestr,ludwigsburg,71638,,DE
b5f16ae7,frey blumenhof,mittenheimer str,oberschleissheim,85764,,DE
5678d159,hds ventilatoren vertriebs gmbh,1 glaswiesenstr,dorzbach,74677,,DE
8636d1a6,rts elektronik systeme gmbh,66 preysingstr,wolnzach,85283,341400579,DE
4b61a6e1,c stiefelmayer gmbh co kg,4 htten weg,wertheim am main,97877,313042822,DE
589eb4bd,sensortechnics gmbh,boschstr,puchheim,82178,315794797,DE
26f1006c,easy elox,86 ganghoferstr,munich,80000,,DE
a75b5bc0,georg pforr gefo gmbh co kg,16 holterkamp,ratingen,40880,317099893,DE
2b75cf9c,stulz gmbh,holsteiner chaussee,hamburg,22457,,DE
bb3e4157,temai ingenieros,10 calle de rivas,coslada,28821,461592987,ES
2a07c334,shp primaflex gmbh shp primaflex gmbh shp primaflex gmbh,3 zeiss str,ratekau,23626,,DE
37603d42,amergint technologies inc,briargate parkway,colorado springs,80916,829274674,US
529cd6fd,united parcel service,grlitzer str,neuss,41460,315081096,DE
c018f6b1,adlon datenverarbeitung,99 kemptener str,lindau,88131,,DE
251a3154,aalco metall,12 aindlinger str,augsburg,86167,333354707,DE
6fc8402e,lumitronix led technik gmbh,42 haigerlocher str,hechingen,72379,,DE
2da79fc5,digital river gmbh,78 vogelsanger str,cologne,50823,551512882,DE
c3200b89,acm,9 rue de la gare,villiers saint frederic,78640,,FR
2f83a976,fti,1 rue de la grange laidet,beauvoir sur niort,79360,038197902,FR
c35be655,chauvin arnoux,190 rue championnet,paris,75876,,FR
d694d372,rich ad brandt ek,12 rantgen strae,schwarzenbek,21493,,DE
b45183ad,abh nord gmbh,121 barkauer str,bergisch gladbach,51429,312923398,DE
71b9a10c,racing kart jade,14 rue des forgerons,saint michel chef chef,44730,002645923,FR
fa55c17b,anton paar germany gmbh,6 hellmuth hirth str,ostfildern,73760,328269782,DE
c00511a4,selex es ltd,crewe road north,edinburgh,eh5 2xs,,GB
5ee8ee92,abc tools spa,via stefano canzio,milan,20131,,IT
2c85458b,dr mach gmbh co kg,28 flomannstr,ebersberg,85560,031557138,DE
56a3da87,sogeti high tech,1 av l escadrille normandie niemen,blagnac,31700,278490599,FR
b967c930,hirschmann gmbh,9 kirchentannenstr,fluorn winzeln,78737,317651644,DE
f294a08a,khn beratung,5 markgraf albrecht str,berlin,10711,342347578,DE
eb94c368,ag sexton gmbh,rathausstr,jagsthausen,74249,,DE
a4047b6a,banderas navas sl,122 calle de castello,madrid,28006,,ES
af5f04c9,aeroflex test solutions,monks brook ind pk,chandler s ford,so534ra,,GB
0472d735,mayre sc,5 b calle lpez de legazpi,seville,41008,474119414,ES
8b0d71b8,telecomputer sistemas sl,0029 calle de julin camarillo,madrid,28037,460667038,ES
64920ce2,selex es spa,via tiburtina km 12 400,rome,131,339051809,IT
0b369747,ups deutschland inc co ohg,gorlitzer str,neuss,41460,,DE
04c2bc34,kalzbw reglab 4 cottbus,66 sielower landstr,cottbus,3044,,DE
89182ab0,gvf des dlr,k niqswinterer strae,bonn,53227,,DE
cca12802,tkl gmbh,7 grebbener str,heinsberg,52525,,DE
6e48f0b5,gross karlheinz,37 ulmenweg,zweibrucken,66482,,DE
8c476df0,adf technologies,6 avenue jean monnet,colomiers,31770,286032433,FR
1d00d08f,erich grau gmbh,3 7 uhlandstr,sersheim,74372,,DE
ba8ad6d2,eisenwarenteam vertriebsges mbh,58 edisonstrae,bergisch gladbach,51429,031356644,DE
60b92a14,edmund optics ltd,1 opus avenue,york,yo26 6bl,,GB
3a62f0be,eichamt landshut,1 rontgenstr,landshut,84030,,DE
27ac189d,vega grieshaber gmbh und co,113 am hohenstein,schiltach,77761,,DE
69805a0b,cepe forniture industriali srl,via lopi di sotto,castiglione del lago,06061,,IT
86fc7e07,ma co maritimes competenz,kahlbrandd eich,hamburg,20457,342194137,DE
7783a664,techspace aero sa,121 route de liers,herstal,4041,372380824,BE
08798f70,hamilton sundstrand,7002 po box,rockford,61124,051079937,US
42962be0,afl europe gmbh,2 benzstr,frickenhausen,72636,329800387,DE
bb49d430,hamilton sundstrand,7002 po box,rockford,61124,149872194,US
f9e55289,umt,15 lise meitner str,ulm,89081,333374796,DE
ee32e7b9,freundeskreis der bundesakademie,44 ossietzkystr,berlin,13187,,DE
12891d26,dga techniques aeronautiques,47 rue saint jean,balma,31130,,FR
ec2fc6a1,febrotec gmbh,76 frankfurter str,halver,58553,,DE
86d7c7bf,arex gmbh,4 dieselstr,neu ulm,89231,,DE
ebc2fccf,anodizados especiales,calle mallutz,ordizia,20240,,ES
501ad89f,ge aviation systems ltd,cheltenham,cheltenham,gl528sf,,GB
5b73dbc1,goodrich sensorsintegrated syst,14300 judicial rd,burnsville,55306-4890,080481707,US
25fa875a,suedruf kommunikations,14 dieselstr,dornstadt,89160,322815655,DE
6ea076cf,sunaero,70 rue ampere,genay,69730,,FR
10a76f60,glacier garlock bearings,9 ochsenbrunnenstr,heilbronn,74078,,DE
9bb9a739,hivitec,rue aim cotton,boisset saint priest,42560,,FR
4585aaf2,ng 911 imc,815 s highland st,williamsburg,52361-9333,828884101,US
79bdd228,blankenhorn gmbh,51 ruiter str,esslingen am neckar,73728,319015764,DE
429c5ea3,palmar compass,105 via pavia,rivoli,10098,,IT
97c71f2f,astro med gmbh,1 senefelder str,rodgau,63110,,DE
f144056d,quadrant connections ltd,green,hertfordshire,al97je,,GB
5e66b346,realfm e v,schiffbauerdamm,berlin,10117,,DE
e2af45bd,notariat viii ulm,14 zeughausgasse,ulm,89073,,DE
b77c7074,biccnet,3 boltzmannstr,garching,85748,,DE
4dd48241,siegle server workstations,250 kaiser friedrich str,duisburg,47167,,DE
424803ef,tulli elettronica di tulli marcello,via francesco gai,rome,196,,IT
c88f82c3,hirschmann gmbh,9 kirchentannenstr,fluorn winzeln,78737,,DE
b6fbcd7a,specialty fasteners components,unit d seymour wharf,totnes,tq9,,GB
34c833c9,industrie elektronik brilon gmbh,40 almerfeldweg,brilon,59929,,DE
642fe3e6,pressup gmbh,wandsbeker allee,hamburg,22041,313340213,DE
30725868,super micro computer spain sl,32 avenida jose luis goyoaga,erandio,48950,,ES
e8e7ecef,bardusch sa,poligono ind la estacion,meco,28880,,ES
2918dcb8,schuetz messtechnik gmbh,7a rheinstr,teltow,14513,324213826,DE
531ae142,cavotec fladung gmbh,26 heimbach,mombris,63776,332870737,DE
16a2f4f0,pro idee,205 auf der hls,aachen,52068,333463339,DE
a4a69975,prechter renner,2 siemensstr,wimsheim,71299,318241445,DE
199b0f77,stadtjugendring ingolstadt,25 jahnstr,ingolstadt,85049,,DE
8086977a,one time vendor gbp pspc,stevenage,ingelheim am rhein,55218,,DE
1da7f6bc,polytec pt gmbh,1 7 polytec platz,waldbronn,76337,,DE
e8ae025e,selex es ltd,2 crewe road north,edinburgh,eh5 2xs,023226769,GB
94564c01,re in retail international gmbh,nordring,nuremberg,90409,312665815,DE
dd584a78,sata io administration,3855 sw 153rd dr,beaverton,48612,002690149,US
31977c06,siemens ag,16 hartmannstr,erlangen,91052,,DE
42a5e929,ge aviation,cheltenham,cheltenham,gl52 7,,GB
5b8c8711,selex es ltd,crewe road north,edinburgh,eh52xs,,GB
7d49ff77,bundesanstalt f arbeitsschutz,1 25 friedrich henkel weg,dortmund,44149,344398474,DE
eb712390,amergint technologies inc,briargate parkway,colorado springs,80916,,US
aa79a9e3,kaffee management,22 josef feuser str,elsdorf,50189,,DE
dbbd7851,galileo avionica spa,2 via dei castelli romani,pomezia,00040,,IT
8670bf90,diagnosticum manching,6a ingolstadter str,manching,85077,,DE
4c9d0555,natixis factor,10 12 avenue winston churchill,charenton le pont,94220,390877715,FR
3e0ef0e6,simancas ediciones sa,pg municipal de dueas,duenas,34210,046215304,ES
b52c7c8e,selex es spa,12 via tiburtina,rome,185,434003576,IT
2ec03647,arex gmbh,4 dieselstr,neu ulm,89231,318217924,DE
913ad10b,elektro automatik,33 35 helmholtzstr,viersen,41747,,DE
43423aef,scharnhorst reincke gmbh,19 betsbruchdamm,martfeld,27327,329663025,DE
348def32,polyplas gmbh,kiebitzweg,emmerthal,31860,,DE
a37728be,blyenburgh co,86 rue michel ange,paris,75016,,FR
e670ecd1,copelbe graphic,30 32 boulevard de sbastopol,paris,75010,027646928,FR
c42d1668,selex es spa,piazza monte grappa,rome,195,,IT
977aeded,barox kommunikation gmbh,8 marie curie str,lorrach,79539,332499545,DE
e69e5c0d,kleintierzuchtverein manching,20 am burgfeld,manching,85077,,DE
bd2cf1f0,ing hubert maldaner gmbh,3 max planck ring,langenfeld rheinland,40764,316026582,DE
1b262287,dekra automobil gmbh,21 nartenstr,hamburg,21079,,DE
06d2cd8e,signal construct gmbh,brueckenaeckerweg,niefern oschelbronn,75223,327823159,DE
b9e9bc02,amergint,briargate pkwy,colorado springs,80916,,US
57ae6923,landeshauptstadt mnchen,implerstr 9,munich,80466,317193084,DE
e4662b68,voltus gmbh,14 16 seelandstr,lubeck,23569,,DE
8aa5141d,seefelder gmbh,finninger str,neu ulm,89231,312608228,DE
4f8f68cd,renewa ingeniero sl,11 avenida ribera de axpe,erandio,48950,,ES
484866fb,ea elektro automatik,31 37 helmholtzstr,viersen,41747,330862074,DE
9d55cdbd,adlon datenverarbeitung gmbh,15 lise meitner str,ulm,89081,342582336,DE
e121ab94,pz planen und zelte gmbh,5 aindlinger str,augsburg,86167,,DE
1289d400,febrotec gmbh,76 frankfurter str,halver,58553,319710398,DE
c52d24d2,r g faserverbundwerkstoffe gmbh,13 im meiel,waldenbuch,71111,,DE
1b19857e,united parcel service deutschland,1 grlitzer str,neuss,41460,318066107,DE
6065ae26,eriks gmbh,bronninghauser str,bielefeld,33729,,DE
49072979,ricoh deutschland gmbh,am kaiserkai,hamburg,20457,314306114,DE
32db62cd,alternate gmbh,9 philipp reis str,gerhardshofen,91466,341125433,DE
a23aabae,bacus deltron gmbh,hauptstr,holzmaden,73271,551292704,DE
48f8eaa4,spraydosen shopde,ha12nders trasse,heilbronn,74080,,DE
b43406aa,jako o gmbh,23 werner von siemens str,bad rodach,96476,,DE
a7a163a4,ge aviation systems ltd,evesham road,cheltenham,gl528sf,,GB
08fbd646,data device corporation,105 wilbur pl,bohemia,11716,054978952,US
e199c5d8,loeschmann gmbh,ufhofer stzrae,balingen,72336,342513546,DE
7102f3a6,maschinenfabrik,32 dibbetweg,aerzen,31855,341159764,DE
da989736,performance plastics products 3p,27 max planck str,karben,61184,537523854,DE
fe540410,siga electronics ltd,3 darlington close,sandy,sg19,217244185,GB
525f24e8,fondation telecom,46 rue barrault,paris,75634,,FR
7994f026,keck energieservice gmbh co kg,rieseler feld,brakel,33034,341842416,DE
0a545341,hugo brennenstuhl gmbhco kg,seestr,tubingen,72074,316115989,DE
b5d720be,macherey nagel gmbh,neumann neander str,duren,52355,,DE
58a42eee,heider druck gmbh,pfaffrather str,bergisch gladbach,51465,,DE
31913897,moss express gmbh,19 lauterbachstr,geretsried,82538,,DE
68c0e896,acopian technical company,po box 638,easton,18044-0638,002388098,US
06ec6021,buerk mobatime gmbh,46 steinkirchring,villingen schwenningen,78056,312979099,DE
cabfce54,herwe chemisch technische,16 20 kleines feldlein,sinsheim,74889,,DE
ab212abd,kasper richter gmbh co kg,14 erlanger str,uttenreuth,91080,,DE
6ffbeae6,schraubenbudede,beesenlaublingen,konnern,6420,,DE
b85fa781,smiths industries,cheltenham,cheltenham,gl524sf,288525181,GB
0c1c75cf,buerklin ohg,grunwalder weg,oberhaching,82041,,DE
aac0214f,lapp kabelsysteme gmbh,30 gewerbestr,stuttgart,70565,031792249,DE
324badae,atecsi sarl,14 zi espace,le haillan,33185,276635872,FR
145addb9,dicronite ute pohl gmbh,14 gra12ner weg,iserlohn,58644,,DE
a87aea9e,gustav klauke gmbh co,auf dem knapp,remscheid,42855,317886018,DE
08a90fec,robuso stahlwarenfabrik,75 neuenhofer str,solingen,42657,322853813,DE
3fa1da32,siga electronics limited,darlington close,sandy,sg19,217244185,GB
06a44c5e,isocel management conseils,rue robert caumont,bordeaux,33049,762822153,FR
f8c1836e,snap on industrial germany,10 willettstr,mettmann,40822,,DE
c7f39e26,gottschalk michaelis gmbh,11 23 lahnstr,berlin,12055,,DE
be4b777b,kaufbeuren marketing,3a kaiser max str,kaufbeuren,87600,,DE
1f788a77,techspace aero sa,route de liers 121,herstal,4041,,BE
872b264f,latim sa,44 rue roger salengro,fontenay sous bois,94120,275372563,FR
5da397ca,siemens ag,16 hartmannstr,erlangen,91052,032222111,DE
64210b3b,hecker werke gmbh und co kg,1 arthur hecker str,weil im schonbuch,71093,341183628,DE
e303f71e,dawson france dawson france dawson france,3 rue galvani,massy,71250,,FR
a7f73d0b,ruko gmbh,robert bosch str,holzgerlingen,71088,316116789,DE
4157810a,noris medienverpackungen,14 lenkersheimer str,nuremberg,90431,,DE
8520ec85,intersport,6 am westpark,ingolstadt,85057,,DE
5a2c044c,dixi polytool gmbh,carl benz str,birkenfeld,55765,,DE
6c6a77d1,pertegaz sl,163 carrer de josep pla,barcelona,8020,,ES
5ff72d9e,cepe forniture industriali srl,via lopi di sotto,castiglione del lago,06061,,IT
00076444,pri european office,york street,london,wiu6pa,211485159,GB
56e54d50,berges rohrverbinder,92a im emscherbruch,gelsenkirchen,45892,,DE
2ac809be,sommer automatik gmbh,32 36 humboldtstr,straubenhardt,75334,314273603,DE
e4917d10,specialty fasteners components lt,seymour wharf steamer quay road,totnes,tq9,,GB
d5f42d64,jakob lach gmbh,17 donaustr,hanau,63452,315256404,DE
d9edc3e2,tts tooltechnic systems ag co kg,20 wertstr,wendlingen,73240,342794047,DE
d34a7c55,rdmadrid sl rdmadrid sl rdmadrid sl,79 calle de caleruega,madrid,28033,,ES
75f17ff0,eltek valere sas,de bastillac nord,tarbes,65000,276686938,FR
e6f50811,performance plastics products 3p performance plastics products 3p performance plastics products 3p gmbh,27 max planck str,karben,61184,,DE
d1940797,bueromarkt boettcher ag,3 brsseler str,jena,07745,344634485,DE
6e2df51b,cci dialog gmbh,3 borsigstr,karlsruhe,76185,316307305,DE
e464e7da,paul spencer signs ltd,sheffield street,stockport,sk4 1ru,,GB
d974d9fa,la flora,10 kapellengasse,ulm,89077,,DE
c8012c1b,mel aviation ltd,60 woolmer way,bordon,gu35,,GB
2f5cd78f,lambrecht meteo gmbh,65 67 friedlander weg,gottingen,37085,,DE
f6ea706c,dga techniques aeronautique,47 rue saint jean,balma,31130,,FR
f7c598aa,ao technologies,avenue du chateau,l etang la ville,78160,,FR
002c559b,weinmann,40 kronsaalsweg,hamburg,22525,317198315,DE
4871bf92,eriks gmbh,brnninghauser str,bielefeld,33729,031257136,DE
5636a032,tts tooltechnic systems deutschland,20 wertstr,wendlingen,73240,344102058,DE
035d337d,verbindungs techniken rther vtr,43 steinheide,tonisvorst,47918,342438298,DE
fca6d368,reinartz kleinteileversand gmbh c,15 sachsstr,pulheim,50259,,DE
3b79b4b8,performance review institute,28 32 wellington road,london,nw8 9sp,216704465,GB
298e91d9,selex es ltd,2 crewe road north,edinburgh,eh5 2xs,,GB
3115d8aa,cablematic dos mil s l,85 carrer de santander,barcelona,8020,,ES
806737b8,mediq france,200 avenue des gresillons,asnieres sur seine,92600,278082214,FR
080e9920,field fisher waterhouse,gmunder str,munich,81379,342645537,DE
9ac3c6f9,druck limited,fir tree lane,groby,le6ofh,,GB
d53672e4,gema gesellschaft fuer musi,schierenberg,hamburg,22145,498648021,DE
bd33ae4f,d labs gmbh,185 189 rudolf breitscheid str,potsdam,14482,,DE
8440876d,landratsamt bodenseekreis,1 3 glarnisch str,friedrichshafen,88045,330386074,DE
86a52f85,snap on industrial germany,10 willettstr,mettmann,40822,344805481,DE
93fc7732,akka aeroconsiel ltd,bristol,bristol,bs347pz,,GB
277ab6c9,nederman gmbh,nurtinger str 50,munich,81547,551142649,DE
cb10efc3,der neue eisenhenkel,59 hamburger chaussee,bergisch gladbach,51429,340614168,DE
290f2993,elettronica gmbh,10 am hambuch,meckenheim,53340,315996603,DE
031704b5,licatec gmbh,7 erzstr,brand erbisdorf,9618,,DE
d926869c,technikexpert,1 3 werdauer str,dresden,1069,,DE
4b5d7308,clem sau,8 avenida fuente nueva,san sebastian de los reyes,28703,,ES
546fb9c6,hohmann elektronik,36 eisenbahnstr,germering,82110,314628199,DE
0167f9b6,cz handels gmbhcomputer zubehoer,7 klaus groth weg,delmenhorst,27753,326449048,DE
fe71135d,viking direkt gmbh,50 babenhauser str,grossostheim,63762,,DE
4ca998f2,weinmann geraete fuer medizin,40 kronsaalsweg,hamburg,22525,317198315,DE
e99ed83c,gl events exhibitions,38 40 avenue de new york,paris,75116,262174638,FR
1ea968b3,dga techniques aeronautiques,47 rue saint jean,balma,31130,263974591,FR
036c39fe,fako,15 peutestr,hamburg,20539,,DE
8ec882ce,bindesysteme,17 rbenkamp,seevetal,21220,323054676,DE
d0a1e2fb,binz ambulance und,21 am vogelherd,ilmenau,98693,,DE
c339bc9b,flm gmbh,18 schtzen strae,emmendingen,79312,,DE
2362762d,metrax gmbh,22 rheinwaldstr,rottweil,78628,,DE
3a841674,snap on industrial germany,10 willettstr,mettmann,40822,,DE
98906cd1,dube aero technik,langer weg,monchengladbach,41065,,DE
4066e199,hr kommunikation,max von mller s trasse,rottenburg,84056,320038763,DE
e7a30d9e,kfp five star conference service gm,4 solmsstr,frankfurt,60486,341544388,DE
ae2558fc,tesa technology deutschland gmbh,32 netzestrae,ludwigsburg,71638,551366458,DE
710cebde,eisenschmidt gmbh,flug platz,egelsbach,63324,320510886,DE
716a90f4,horizon platforms limited horizon platforms limited horizon platforms limited,rosie road,normanton,wf6 1zb,,GB
f8af5445,pfannenberg,1 werner witt str,hamburg,21035,031554856,DE
ec8b00e5,hamilton sundstrand,cl4747 harrison ave,rockford,61125,611017299,US
174349f3,hartmetallwerkzeugfabrik a mai,2 stegwiesen,schwendi,88477,343071213,DE
b42f8e2d,lokoma lorenz kollmann gmbh,7 lokomastr,hochstadt,91315,318881042,DE
b5c699a1,dr med ch schnepper,dr wilhelm klz strae 43,stralsund,18435,388720468,DE
b1d66180,sg world,duchy road,crewe,cw16nb,536465164,GB
5295bc6e,inforson sl,18 calle julio palacios,leganes,28914,469125553,ES
44d357fa,united parcel service,1 grlitzer s trasse,neuss,41401,318066107,DE
bc73ff8f,kroschke gmbh,20 daimlerstr,brunswick,38112,,DE
762901d0,thales uk limitedthales group,manor road,crawley,rh109ha,217452627,GB
610a4b05,lockheed martin,1801 state route 17c,owego,13827,002232973,US
87e64b24,mdai,24 hans urmiller ring,wolfratshausen,82515,,DE
e746f428,edmund optics ltd,1 opus avenue,york,yo26 6bl,236713199,GB
8478b7cb,safran aero boosters,121 route de liers,herstal,4041,372380824,BE
b106c9c3,quarzwerke gmbh,40 kaskadenweg,frechen,50226,315730754,DE
7dcb00a9,deutscher sparkassen verlag gmbh,115 am wallgraben,stuttgart,70565,,DE
82d7b471,lextenso editions,33 rue du gouv general felix eboue,issy les moulineaux,92131,,FR
5d40d103,hydrobar,16 umberto nobile str,sindelfingen,71063,,DE
f67ba778,wtl wickel technik lauterbach gmb,11 immendorfer str,bruhl,50321,,DE
837188f3,crc industries iberia slu,96 calle del gremio cuero,segovia,40195,,ES
b29e36c4,dr ing paul christiani gmbh co,hermann hesse weg,konstanz,78464,,DE
a4dc11a0,poppelmann poppelmann poppelmann,3 rue robert schuman,rixheim,68170,,FR
1267bfd5,hc pacific,19844 quiroz ct,walnut,51577,,US
b1befeba,elettrolazio spa,via carlo buttarelli,rome,155,,IT
59ffce72,gardner denver schopfheim gmbh,58 roggenbachstr,schopfheim,79650,315458729,DE
10086d8f,boerner gmbh,6 borsigstr,ingolstadt,85053,341142073,DE
39b576eb,miodex miodex miodex,13 rue vincent van gogh,magny les hameaux,78114,,FR
1a8feb4f,tts tooltechnic systems deutschland,20 wertstr,wendlingen,73240,034447547,DE
be905644,tierra tech sl,pq empresarial de morero,,39611,,ES
4f81bfcc,field fisher waterhouse,gmunder strae,munich,81379,,DE
5be8345b,easy elox,86 ganghoferstr,munich,80000,,DE
d90bd6f1,meersburg tourismus,kirchstr,meersburg,88709,,DE
aeba4b32,druck limited,fir tree lane,groby,le6 ofh,226525053,GB
12245de1,mollerus lftungs klimatechnik gm,1 torenstr,meersburg,88709,,DE
554a68e2,max vinzenz,70 auere mnchener strae,rosenheim,83026,325249253,DE
6e01f520,carney gmbh,96 westerwaldstr,wutha farnroda,99848,,DE
f3e853e9,bird bird llp dsseldorf,carl theodor str,dusseldorf,40213,,DE
a736ab5e,mnzinger,12 danziger str,senden,89250,,DE
d1bba4b8,freundeskreis der bundesakademie,44 ossietzkystr,berlin,13187,,DE
cb90cde0,framos imaging solutions gmbh,zugspitzstr,pullach,82049,,DE
440fc4e6,rainer pfanz,22 sandackerweg,aichtal,72631,,DE
ac51d95c,wimo antennen und elektronik gmbh,14 am gaxwald,herxheim bei landau pfalz,76863,,DE
4de8d106,ucon ag,122 sechsheldener str,haiger,35708,341829459,DE
0ae07252,hoga edv services gmbh,4 jenaer str,idstein,65510,,DE
57b30aa4,fssen tourismus und marketing,kaiser maximilian platz,fussen,87629,507533169,DE
ff41fd50,koki deutschland,haderunstrae,munich,80000,,DE
8f20d3df,etikettenstar gmbh,vogelbeerweg,bad zwischenahn,26160,312587183,DE
b8437e74,dga,47 rue saitn jean,balma,31131,026075634,FR
20e3c794,korntex gmbh,9 theodor heuss str,stuttgart,70174,341704754,DE
b61c62e9,specialty fasteners and components,unit d seymour wharf,steamerquayroadtotnes,tq9,,GB
61276b80,kerb konus vertriebs gmbh,wernher von braun str,amberg,92224,,DE
2253b32d,wtd 81,bergstr,greding,91171,,DE
d8447317,tristar plastics corp,cl906 boston tpke,shrewsbury,01536,005128293,US
2ce998f9,ge aviation,bishops cleeve po box 162,cheltenham,gl528yb,,GB
f5f9718e,sinn ihn birgit sinn,ba12chner weg,pfungstadt,64319,,DE
e4e4c115,hotel wrttemberger hof,karlsvorstadt,uhingen,74613,,DE
9727627d,ahc oberflaechentechnik gmbh,2 2 zillenhardtstr,goppingen,73037,341053885,DE
81e6ecce,gfie,rue amiral,paris,75783,,FR
e1bada9c,telecomputer sistemas sl,0029 calle de julian camarillo,madrid,28037,,ES
cea9c426,ruhstrat gmbh,12 heinestr,bovenden,37120,034139143,DE
edb95e6a,alternate gmbh,2 3 philipp reis str,gerhardshofen,91466,,DE
7c7ed72b,le manoir de gressy,2 rue saint denis,gressy,77410,,FR
3373571a,specialty fasteners and components,unit d seymour wharf,steamerquayroadtotnes,tq9,,GB
3b5e774a,crc industries iberia slu,96 calle del gremio cuero,segovia,40195,462138132,ES
a83fa5a8,peres gmbh,kahlstr 14,cologne,50827,,DE
5f27519f,arnz flott gmbh,131 vieringhausen,remscheid,42857,,DE
524f7477,ao technologies,avenue du chateau,l etang la ville,78160,270707313,FR
fbba638f,aeroflex ltd,monks brook industrial park,chandler s ford,so534ra,216834002,GB
38966efe,rutronik elektronische bauelemente,industriestrae5,ispringen,75228,312776222,DE
d26840d2,meyer industrie electronic gmbh,19 knigsberger str,lengerich,49525,327245171,DE
51f411d4,knuerr gmbh sales office,1a emil hoffmann str,cologne,50996,,DE
70145d3e,muetron mueller gmbh co kg,theodor barth str,achim,28832,,DE
6ce56c1e,kaffee management,22 josef feuser str,elsdorf,50189,,DE
2fb5a40d,sahin electronic,1 salzburger str,munich,81241,327867664,DE
54a6b32d,spectra sa,8 rue manurhin,richwiller,68120,,FR
a7b5cba3,keithley instruments gmbh,65 landsberger str,germering,82110,003166444,DE
d72ceb49,kathleen schulze,1 kolumbusstr,munich,80000,,DE
4fc025f1,druck ltd,2 fir tree lane,leicester,le6 0fh,226525053,GB
6bb99b89,snap on industrial germany,10 willettstr,mettmann,40822,332477905,DE
bc7276ac,elettrolazio spa,via carlo buttarelli,rome,155,,IT
e4415069,mewa textil mietservice,4 tiergartenstr,meisenheim,77974,314496969,DE
ee49e4f3,lockheed martin corporation,1801 state rd 17c 17 c,owego,13827,147329606,US
5591e5ea,business visum gmbh,52 niddastr,frankfurt,60329,341705856,DE
5bc679cc,icom communication,15 rue du general lionel de marmier,toulouse,31300,,FR
65b2d221,tci deutschland gmbh,79 81 mergenthalerallee,eschborn,65760,,DE
b911b552,fhf gmbh,26 kap horn str,bremen,28237,,DE
d0101eab,eisele case systems gmbh,14 siemensstr,massing,84323,,DE
a495ea44,cullmann gmbh,waldstr,langenzenn,90579,315679662,DE
b2035396,istituto vigilanza dellurbe spa,via rina monti,rome,155,,IT
d16c17e6,hilti espaola sa,35 calle de la isla de java,madrid,28034,,ES
92aaa669,gregor chemie gmbh,8 homburgstr,eschershausen,37632,333716202,DE
30857054,vtr,43 steinheide,tonisvorst,47918,,DE
a32da5d0,druck ltd,fir tree lane,groby,le60fh,,GB
e4bfc7ea,gl events exhibitions,38 40 avenue de new york,paris,75116,,FR
d92923e8,wirtshaus in der au gmbh,24 pettenkoferstr,munich,80336,343691945,DE
1bf66a20,aeroflex ltd,monks brook industrial park,chandler s ford,so534ra,,GB
e92c4ec1,u i lapp kg,schulze delitzsch str,stuttgart,70565,,DE
7c809a35,gleichmann co electronics gmbh,44 schraderstr,frankenthal,67227,316261924,DE
0f105f6e,herdt verlag fuer bildungs,21 25 am kmmerling,bodenheim,55294,343058111,DE
3ff6395a,licefa kunststoffverarbeitung,11 lemgoer str,bad salzuflen,32108,316471598,DE
875615ec,me systeme,2 august bebel str,kolleda,99625,,DE
e46be1d9,robuso stahlwarenfabrik buntenbach soh,postfach 17 02 20,solingen,42624,322853813,DE
dc52465a,snap on industrial germany,10 willettstr,mettmann,40822,,DE
9bc7bcee,sna europe deutschland a range of sna germany gmbh,10 willettstr,mettmann,40822,,DE
386ab623,comtec cable accessories,cardinal way,huntingdon,pe29 2xn,219291069,GB
aa32d2be,fondation telecom,rue barrault,paris,75013,,FR
9b027bb6,esmeyer gmbh co kg,3 5 bessemerstr,erkrath,40699,320767494,DE
d69c5c27,fedota ing giuseppe,via padre f lancellotti,oppido lucano,85015,,IT
6daee762,gim geographic information manag,5 interleuvenlaan,leuven,3001,,BE
97d256b8,seilflechter tauwerk gmbh,7 9 auf dem anger,brunswick,38110,321547515,DE
0a871c45,karcher sa,15 carretera de alcobendas barajas,alcobendas,28108,462087413,ES
1e180a85,kugellager shop,64 bismarckstr,berlin,13585,,DE
d6accf13,aspen produkte handels gmbh,160 beihinger str,benningen,71726,,DE
766fe422,vermessungsamt gnzburg,1 augsburger str,gunzburg,89312,034266514,DE
d5d68f3f,simancas ediciones sa,pg municipal de dueas,duenas,34210,,ES
ff83f00d,flair hotel am kamin,62 fssener str,kaufbeuren,87600,034294747,DE
daf81d44,ads analyse detection securite,31 route de paris,jouars pontchartrain,78760,265604157,FR
6c9f5c5c,licefa kunststoffverarbeitung,lemgoer str,bad salzuflen,32108,316471598,DE
4dbf8766,regensburg tourismus gmbh,roter herzfleck,regensburg,93047,,DE
7b3c2e8e,richardson rfpd italy srl,viale fulvio testi,milan,20126,,IT
416bc525,audio ton medizinisch technische,24 rntgenstr,hamburg,22335,341235919,DE
3b56172e,tx design gmbh,8 loosesweg,bremen,28219,,DE
4df177f7,hivitec,rue aim cotton,boisset saint priest,42560,349029256,FR
3bf645de,eisele case systems gmbh,14 siemensstr,massing,84323,507584295,DE
db58556b,translogic inc,engineer dr,huntington beach,92648,,US
7cfb5e17,akka aeroconseil uk,golf course lane,bristol,bs34 7pz,216553403,GB
de750d22,east view geospatial inc,10601 wayzata blvd,minnetonka,55305-1515,622514941,US
dac7a53d,expeditors intl str,6 kraichgaustr,neuhausen,73765,,DE
877c0076,heisslufttechnik flocke gmbh,mondstraaye 2 4,feldkirchen,85622,,DE
a13d7a2f,sinus `messtechnik gmbh,fappelstrae 13,leipzig,4347,330473349,DE
43b5ff3f,jura zentralservice singen,16 otto hahn str,singen,78224,342653791,DE
5d075ac7,fssen tourismus und marketing,kaiser maximilian platz,fussen,87629,,DE
e268e671,dga techniques aeronautiques,rue saint jean,balma,31131,263974591,FR
5777e1a9,adriana flores y cosas,11 calle ramn y cajal,getafe,28902,460916933,ES
2e5d4b89,sunaero,70 rue ampere bp 58,genay,69730,,FR
f33b147c,aeroflex gmbh,2 4 gutenbergstr,ismaning,85737,316191626,DE
96f4e3d0,intercomp europe ltd,the old barn manor farm manor rd,reading,rg100py,,GB
4c86d887,sortimo international gmbh,13 landshuter str,unterschleissheim,85716,,DE
fbd3b951,knuerr gmbh sales office,1a emil hoffmann str,cologne,50996,,DE
e93cda20,malteser hilfsdienst ev,3a axdorfer str,traunstein,83278,,DE
7d8405d5,geosand,calle dona carmen,alhaurin de la torre,29130,,ES
34c850f5,kraus naimer gmbh,wikingerstr,karlsruhe,76189,316073089,DE
68f9281d,schempp decker gmbh,6 8 am stichkanal,berlin,14167,032872645,DE
7e7693b9,score services,30 cours de l le seguin,boulogne billancourt,92100,293431677,FR
2324faf7,interflex datensystem gmbh,maybachstr,hildesheim,31135,344563601,DE
5c1a028d,tetraguard systems gmbh,24 kasinostr,troisdorf,53840,341491436,DE
b64d389c,albert berner gmbh,4 bernerstr,kunzelsau,74653,315731075,DE
f79a6dc7,deutscher fachjournalisten verband,84 karmeliterweg,berlin,13465,,DE
588c0c4a,fischer pierce,8 frst maximilian str,kilegg,88349,322962465,DE
ed5f397e,bocom kommunikationstechnik,1 poststr,langgons,35428,,DE
a7b73637,bundesverband dt,oberwallstr,berlin,10117,,DE
8c7975b3,quarzwerke gmbh,40 kaskadenweg,frechen,50226,,DE
705b8c5b,sew eurodrive gmbh co sew eurodrive gmbh co sew eurodrive gmbh co hpt verwaltg,42 ernst blickle str,bruchsal,76646,,DE
ddd07b3e,vtr,43 steinheide,tonisvorst,47918,342438298,DE
e5b8c3bc,sennheiser vertrieb,76a karl wiechert allee,hanover,30625,499187367,DE
5b920641,sortimo international gmbh,13 landshuter str,unterschleissheim,85716,,DE
032a495d,lach diamant,17 donaustr,hanau,63452,315256404,DE
3973a412,inficon gmbh,498 bonner str,cologne,50968,314521394,DE
823da760,blumenhaus ertl,17 hauptstr,unterhaching,82008,,DE
3978124b,rg faserverbundwerkstoff gmbh,7 13 im meiel,waldenbuch,71111,319932075,DE
b8c05ae3,hydraulik center dietz,18 heideland ost,handewitt,24983,341754747,DE
d75f9298,alltec gmbh,22 jahnstr,hungen,35410,328486832,DE
fe246cde,dawson france,rue galvani,massy,71250,,FR
914aa8bb,lloyds bank commercial finance sky,po box 10484,harlow,cm17,,GB
a9de00fc,autohaus feldmann kg,2 burgstr,borken,46325,,DE
4968995e,kabelscheune ek,6 schulstr,burgbernheim,91593,,DE
ab6b811a,aalco metall ltd,12 aindlinger str,augsburg,86167,324899095,DE
51979b62,hbg marina krger,13 walpertshofer str,laupheim,88471,,DE
248d3f46,kroll ontrack ltd,weston road,surry,kt171jg,770541647,GB
665725e1,radladen gmeiner gmbh,29 werastr,friedrichshafen,88045,,DE
4ffcba99,linux trading distribution,unter den buchen,bockelwitz,04703,,DE
2320f218,stahlgruber otto gruber gmbh,130 einsteinstr,munich,81675,312679625,DE
744859fd,geo center,1 calle poligono,aldaia,46960,,ES
303825e9,unitronic ag,9 mndelheimer weg,dusseldorf,40472,341331228,DE
22901dc9,hillenbrand gmbh co,5 zainerstr,ingolstadt,85053,318155264,DE
90eea53b,conectrol sa,57 58 calle de jorge juan,madrid,28001,,ES
65099899,u i lapp gmbh,25 schulze delitzsch str,stuttgart,70565,322009895,DE
bcaea76c,fiz karlsruhe,1 hermann von helmholtz platz,eggenstein leopoldshafen,76344,317426773,DE
256bfed8,unitronic ag,9 mndelheimer weg,dusseldorf,40472,316027101,DE
1e38f6fd,hq patronen gmbh,21 23 am bauhof,seevetal,21218,341567119,DE
996c7f2a,notariat ulm b2,30 griesbadgasse,ulm,89073,,DE
fc8bf3d0,ge sensing,fir tree lane,groby,le60fh,219144201,GB
db8217ed,wurth elektronik france,1861 avenue henri schneider,jonage,69330,,FR
0f808894,tropack packmittel gmbh,8 vor dem postck,lahnau,35633,329711691,DE
97cd92c7,tauchsportservice,5 hofwies,stuhlingen,79780,,DE
045c4309,analisis y simulacion sl,14 calle leonardo da vinci,vitoria gasteiz,1510,,ES
bdda4e98,arrow central europe gmbh,frankfurter str,neu isenburg,63263,,DE
50a1e322,eisenschmidt gmbh,1 am flugplatz,egelsbach,63329,320510886,DE
38153802,stahlgruber otto gruber gmbh,130 einsteinstr,munich,80000,,DE
1c1a8908,juliane rode,33 leonrodstr,munich,80000,,DE
47adc8d0,java user group stuttgart ev,schanaicher str,stuttgart,70597,344706747,DE
575c56a1,asup gmbh,10 beckedorfer bogen,seevetal,21218,,DE
5a8f05e2,horst zaun,46 eduard rhein str,konigswinter,53639,,DE
568f366b,institut francais munich,kaulbachstrae,munich,80539,,DE
c971e1b6,otto versand gmbh und co,wandsbeker chaussee,hamburg,22179,315016931,DE
91e8f44e,hilti espaola s a,2 avenida de fuente de la mora,madrid,28050,462022385,ES
2a07374b,chauvin arnoux chauvin arnoux chauvin arnoux,190 rue championnet,paris,75876,,FR
0c030810,ramon martin sa,0001 calle rafael beca mateos,seville,41007,,ES
fe3fee3d,curtiss wright,lambourne cres,llanishencardiff,cf14,,GB
00dd00ff,nexus gb ltd,horsebridge road,stockbridge,so20,,GB
96f1787f,gardner denver schopfheim gmbh,9 grienmatt,schopfheim,79650,315458729,DE
a1b69176,technischer handel kahlhorn,5 waaler str,buchloe,86807,342274366,DE
9b611972,geramond verlag gmbh,11a infanteriestr,munich,80797,329231971,DE
9b01ca05,fiz karlsruhe,1 hermann von helmholtz platz,eggenstein leopoldshafen,76344,,DE
48ba03c8,brk datentechnik zeitdienst,46 burkstr,villingen schwenningen,78054,,DE
f13b694b,copelbe graphic,30 32 boulevard de sebastopol,paris,75004,,FR
9e022562,richter frenzel gmbh cokg,5 9 stauffenbergstr,augsburg,86161,340853604,DE
de535b21,kalthoff gmbh,1 grabenstr,schalksmuhle,58579,315983015,DE
77d04dd9,comtec cable accessories,cardinal way,huntingdon,pe29 2xn,,GB
93342459,oest modellbau,davenstedter str,hanover,30455,,DE
62a112ba,officept gmbh co kg,amerikastrasse,zweibrucken,66482,331359526,DE
8d99cc9a,ulmer volkshoch,5 kornhausplatz,ulm,89073,,DE
63ed7f38,gustav klauke gmbh,auf dem knapp,remscheid,42855,325287258,DE
bb3817d8,opitec handel gmbh,sulzdorf hohl weg,giebelstadt,97232,,DE
330ace6e,gruschwitz gmbh tech twist,68 memminger str,leutkirch im allgau,88299,315396515,DE
a19f342d,vg wort,49 goethestr,munich,80336,319649125,DE
afd66828,milaboratorio web sl,calle puente alto,colmenar viejo,28770,,ES
34e073ae,aaf sa,avenue de paris,vincennes,94300,264511045,FR
d373c382,lapp systems gmbh,oskar lapp str,stuttgart,70565,,DE
402f02cd,inficon gmbh,498 bonner str,cologne,50968,,DE
876f70d2,score services,rue de sevres,boulogne billancourt,92100,,FR
a355554d,acopian technical company,po box 638,easton,18044-0638,,US
3094921b,filzring ohg,3 4 werrastr,bad sooden allendorf,37242,032929178,DE
e8695ac0,cadilac laser gmbh,herderstr,albstadt,72459,,DE
e036ab79,otto roth gmbh co kg,rutesheimer str,stuttgart,70499,315483297,DE
273ccd4e,luftwaffen offizierheim gesellschaf,19 wilhelm frankl kaserne,neuburg an der donau,86633,,DE
60a24034,gruse gmbh,32 dibbetweg,aerzen,31855,341159764,DE
27ea5da4,stuttgarter verlagskontor,77 rotebhls trasse,stuttgart,70178,320556574,DE
17caa304,lupenhandelde,8 siriusstr,unterschleissheim,85716,,DE
5d463a2e,meyer industrie electronic gmbh,19 kanigsberger str,lengerich,49525,,DE
904ed31a,brillux gmbh co kg,10 josephine hirner str,lindau,88131,033074268,DE
97fb6c78,hamburg travel gmbh,steinstr,hamburg,20095,537713203,DE
8610d264,suedruf kommunikations,14 dieselstr,dornstadt,89160,,DE
cf054ad7,fahrrad brenner,5 unterlettenweg,ingolstadt,85051,,DE
68f7421e,db vertrieb gmbh,stephensonstr,frankfurt,60326,,DE
2c354a23,stuttgarter verlagskontor,77 rotebahls trasse,stuttgart,70178,,DE
9899ac4c,landratsamt bodenseekreis,1 3 glrnischstr,friedrichshafen,88045,330386074,DE
77e3fd62,andreas maier gmbh,stegwiesen,schwendi,88477,343071213,DE
aeec2ddb,siemens ag,henkestr,erlangen,91052,313366613,DE
b54f1933,selex es spa,via piemonte,rome,187,,IT
95e97275,gim,researchpark haasrode interleuvenl,leuven,3001,374189587,BE
86cc1913,landeshauptstadt mnchen referat f,sendlinger strae,munich,80331,340221955,DE
17ce75d1,k busch gmbh,1 schauinslandstr,maulburg,79689,317541456,DE
6a0fa6cd,temai ingenieros,10 calle de rivas,coslada,28821,,ES
96621a2e,febrotec gmbh,frankfurter str,halver,58553,,DE
df577810,air sea containers ltd,cavendish street,birkenheadmerseyside,ch41 9dh,294322169,GB
2a5783fb,intercompany,internal ap intercompany account,newport,np108fz,,GB
ad765a75,edmund optics ltd,lysander close,york,yo30 4xb,,GB
db59efd5,bit biether,d3tzhofer str 7,swisttal,53913,038805715,DE
df82aecc,endrich bauelemente vertriebs gmbh,hauptstr,nagold,72202,,DE
bcc60d05,otto roth gmbh co kg,22 rutesheimer str,stuttgart,70499,,DE
15e562a8,factorem international visio,avenue winston churchill,charenton le pont,94220,281985668,FR
6a347f9e,jp aero com engineering co ltd,cherry tree rise,buckhursthillessexig96ey,ig9 6ey,216202267,GB
3cb21cae,siegfried hintz,paul friedlander str,wiesbaden,65203,,DE
625f95de,gfie,rue amiral,paris,75783,500757836,FR
181d12eb,dia nielsen gmbh co kg,1 industriestr,duren,52355,318979739,DE
54939dc0,polizeidirektion ravensburg,97 gartenstr,ravensburg,88212,,DE
a6cfdb78,vg wort,untere weidenstrasse,munich,81543,326517216,DE
4e8e253b,witas gmbh,35 stiftstr,minden,32427,323514612,DE
ba5c212c,ralf michael mohr,2 rosenstr,ziegendorf,19372,,DE
4d1232f4,m isabel nieto ramirez,1 calle gabriel garcia marquez,bollullos de la mitacion,41110,,ES
3c19d4df,flughafen leipzig halle gmbh,terminalring,schkeuditz,04435,,DE
8e9f45d7,buchhandlung gerd stiebert,kupferstr,ingolstadt,85049,,DE
df9c740e,bit graphik marketing,carl benz str,owingen,88696,,DE
a3d63f5d,suse online shop,4 an der hasenjagd,remscheid,42897,320813942,DE
3024ec6d,vvg befestigungstechnik gmbh co,friedrich wohler str,neumunster,24536,,DE
3a18bde8,koki deutschland,haderunstrae,munich,80000,312517723,DE
42c3820a,java user group stuttgart ev,schanaicher str,stuttgart,70597,,DE
50a496d2,dawson france,3 rue galvani,massy,71250,277316121,FR
4fbf5626,hq patronen gmbh,glsinger str,seevetal,21217,341131705,DE
d2400b13,dgfp deutsche gesellschaft,16 niederkasseler lohweg,dusseldorf,40547,316827112,DE
7dc68a9d,los caracoles,60 calle rosario,gijon,33201,,ES
e3cc5842,medtronic gmbh,20 emanuel leutze str,dusseldorf,40547,031810795,DE
00d11a3d,morgui clima sl,11 13 carrer monturiol,badalona,8918,565061678,ES
077fdf56,ratioplast gmbh,9 spitalwaldstr,schwabach,91126,,DE
92c50f3e,medicom service e k,13a wankelstr,korschenbroich,41352,,DE
ea0d41e6,airflow lufttechnik gmbh,21 kleine heeg,rheinbach,53359,318818127,DE
01906e48,mohawk rubber,industrial trce,alpharetta,30004,,US
279251a5,chartworld gmbhco,90 ruhrstr,hamburg,22761,,DE
c3fc6545,macherey nagel gmbh co kg,6 8 neumann neander str,duren,52355,315128884,DE
722f2d1e,mira consulting gmbh,strombergstr,balingen,72336,,DE
f0379ca8,kar lynn art frame,611 n center st,arlington,76011-7146,078888902,US
bc923a6d,tourismusamt,1 sendlinger str,munich,80331,342504707,DE
8e9f5f23,neon centro,via adriatico,potenza,85100,,IT
f8667412,avc,7 boulevard du marechal juin,verrieres le buisson,91370,,FR
99ec7fe5,pfannenberg gmbh,1 werner witt str,hamburg,21035,,DE
389de625,aphisa aplicaciones,3 calle barrio nuevo,alcala de guadaira,41500,463080697,ES
86d19b2c,bilz vibration technology ag,25 bblinger str,leonberg,71229,319009478,DE
85af0461,regierung von niederbayern,540 regierungsplatz,landshut,84028,,DE
14294e01,hornung gmbh co kg,55 rathenaustr,neu isenburg,63263,316806165,DE
7cb00d98,forum luft und raumfahrt e v,41 luisenstr,berlin,10117,,DE
033f628b,grimm metallpulver gmbh,1 am wasserturm,roth,91154,,DE
2279f732,luces sl,46 calle del general daz porlier,madrid,28001,046645728,ES
272b6437,picmg,401 edgewater pl,wakefield,01880,960394963,US
c7ce28e0,quadrant connections ltd,green,hertfordshire,al97je,221474815,GB
92186950,diamond point international europe,sir thomas longley road,rochester,me2 4fa,,GB
baf6afc1,oneaccess belgium nv,335 geldenaaksebaan,leuven,3001,376064072,BE
90fc1d3e,eltek valere sas,de bastillac nord,tarbes,65000,,FR
26d063d0,palmar compass,105 via pavia,rivoli,10098,,IT
ce2ab968,united parcel service deutschland,1 grlitzer str,neuss,41401,318066107,DE
99d4e66e,audio ton,24 rntgen str,hamburg,22335,341235919,DE
c002c4fd,signal constructgmbh,brueckenaeckerweg,niefern oschelbronn,75223,,DE
dd4ccf8c,sauter gmbh und co kg,30 sonnenstr,munich,80000,,DE
ab21a14b,ernst haefele,hafenbad,ulm,89073,316113257,DE
c1c91995,dominikus krger,18 planiestr,giengen,89537,,DE
79394802,khn beratung,56 59 schillerstr,berlin,10627,,DE
68b6b49f,bundesnetzagentur,27 zur allmannshahe,konstanz,78464,,DE
2a43899e,hoffman engineering,8 riverbend dr,stamford,69070,,US
4b728af1,m u w schlecker,3 1 scheffeltgasse,ulm,89077,322962614,DE
39c25b75,sna europesna germany gmbh,10 willettstr,mettmann,40822,344805481,DE
2e7b3b12,multi circuit boards ltd,2 brunnthaler str,brunnthal,85649,342177911,DE
3a310ba4,thales uk ltd,manor royal,crawley,rh10 9pz,217452627,GB
eb617207,taxi candel jean,route de castelmaurou,saint loup cammas,31180,,FR
fca26e51,wtl wickel technik lauterbach gmb,11 immendorfer str,bruhl,50321,331249768,DE
bc958624,selex es spa,60 close via piemonte,rome,187,434003576,IT
1866ad0e,uwe sieber,36 morgenstr,magdeburg,39114,,DE
e786d189,zitec vb muenchen,13 henschelring,kirchheim unter teck,85551,,DE
eb1090d6,zimmermann gmbh,6 am knick,oststeinbek,22113,340203652,DE
764e1696,france photons,rue du dauphine,boisset saint priest,42560,,FR
622ba449,phenobond,eisenhnmmer str,sulzbach rosenberg,92237,537398203,DE
b5b6c64a,fleurop ag,lindenstr,berlin,12207,317835841,DE
041f9944,micro optik nosch ohg,bertholdstrae 2,freiburg,,333121221,DE
3767a743,proroll gmbh,9 heinrich schicht str,huckeswagen,42499,,DE
f49460e3,le verdier,allee du progres,vanves,92130,,FR
aca8087e,pratt whitney component solutions,4905 stariha dr,norton shores,49444,038243176,US
35b3854c,rost graphisches systemhaus gmbh,holderacker strae,stuttgart,70499,,DE
8eaf246e,chauvin arnoux,190 rue championnet,paris,75876,275472264,FR
b4f277e0,sna europe,willettstr,mettmann,40822,,DE
7878c231,vri,wilhelm maybach str,ellwangen,73479,,DE
dfaddbc3,hydro cleansing ltd,hcl house beddington farm road,croydon,cr04xb,,GB
4f3b00d1,snap on industrial germany,10 willettstr,mettmann,40822,318538097,DE
1bc1ab2a,nespresso deutschland gmbh,speditionss trasse,dusseldorf,40221,341618791,DE
ab98728a,pertegaz sl,163 carrer de josep pla,barcelona,8020,460061773,ES
9913e18c,srtechnics,calle de mario roso de luna,madrid,28022,,ES
51aefd2a,fleurafleur,4 rue bernard chedeville,le vaudreuil,27100,,FR
8b19dede,primeros qualification gmbh,am wollhaus,heilbronn,74072,341217467,DE
940b1e4a,ws weinmann und schanz gmbh,beethovenstr,balingen,72336,,DE
6096b0c3,michallik gmbh und co,60 kilingweg,muhlacker,75417,323802124,DE
d08fc808,jaco aerospace,2010 lincoln ave,pasadena,91103-1323,027716757,US
b25a948b,ge aviation systems,cheltenham,cheltenham,gl528sf,,GB
f2ef106d,zeppelin power systems,3 zeppelinstr,wiedemar,4509,312825878,DE
d9996bd2,techspace aero sa safran aero boosters techspace aero sa,121 route de liers,herstal,4041,,BE
3206f8ea,aeroflex international ltd,school close,eastleigh,so53 4ra,216834002,GB
9b1f0231,hoffman engineering,8 riverbend dr,stamford,69070,,US
4ccfda23,bundesanstalt f arbeitsschutz,1 25 friedrich henkel weg,dortmund,44149,344398474,DE
9dcbbe15,graphic controls dia nielsen,8 industriestr,duren,52355,318979739,DE
48d4cadf,nexus gb ltd,horsebridge road,stockbridge,so20,,GB
748923e9,adriana flores y cosas,11 calle ramon y cajal,getafe,28902,,ES
741c6dc2,natixis factor,avenue winston churchill,charenton le pont,94220,,FR
0b2448c7,latim sa,44 rue roger salengro,fontenay sous bois,94120,,FR
216daa64,editorial planeta sa,662 664 avinguda diagonal,barcelona,8034,,ES
a4156a84,hoffman engineering,8 riverbend dr,stamford,06902,000145258,US
0ca56dd2,diamond point international,suite 13 ashford house thomas long,rochester,me1 2up,397197088,GB
97692657,still gmbh,15a zum panrepel,bremen,28307,,DE
55b5d16b,vink kunststoffe gmbh,35 hahnenbalz,nuremberg,90411,342642397,DE
eabdefc6,ge aviation,cheltenham,cheltenham,gl52 8sf,,GB
eb3dc9cb,tristar plastics corp,cl906 boston tpke,shrewsbury,01536,,US
b3ea4269,comptoir du sud ouest,58 boulevard pierre lefaucheux,le mans,72029,,FR
18749ad5,data device corporation,wilbur pl,bohemia,11716,054978952,US
e28368e7,l com global connectivity,45 beechwood dr,north andover,01845,,US
f8dcb0cc,m isabel nieto ramirez,1 calle gabriel garcia marquez,bollullos de la mitacion,41110,,ES
cf08af7f,atlantic inertial systems inc,250 knotter dr,cheshire,06410-1137,041668195,US
34193e8b,reservistenkameradschaft ingolstadt,7 lanzstr,ingolstadt,85051,,DE
4eb0ae85,cif,11 rue charles michels,bagneux,92220,266764158,FR
c4d1ed16,hopf elektronik gmbh,nottebohmstr,ludenscheid,58511,318562717,DE
666666f3,le joint francais,centre services partages,thure,86540,766251516,FR
d1d8f03c,ge aviation,hatherley lane,cheltenham,gl51 0tp,211207784,GB
81d2cf90,dirak gmbh,1 knigsfelder str,ennepetal,58256,325539633,DE
e9a8e8f8,icom,zone d activites de la plaine,toulouse,31500,262394125,FR
c79d2420,hotel neuses,6 schmetterlingsweg,cuxhaven,27478,,DE
e6287028,copac,calle baha de pollensa,madrid,28042,463998793,ES
89f97a50,ing hubert maldaner gmbh,3 max planck ring,langenfeld rheinland,40764,,DE
57fb4d86,schuetz messtechnik gmbh schuetz messtechnik gmbh schuetz messtechnik gmbh,7a rheinstr,teltow,14513,,DE
095ad03b,juergen maurer,39 zur eisengrube,bitz,72475,,DE
db6dc9a5,prosol lacke farben gmbh,dachauer str,munich,80000,,DE
b9af4d29,hd electronic gmbh,adolf kolping str,simbach am inn,84359,328607648,DE
7bb5c03f,ernst diekgraefe gmbh,altenaer str,altena,58762,317868339,DE
a44d8243,jugs ev java user group,31 fruwirthstr,stuttgart,70599,344706747,DE
94e01f06,hydrobar,16 umberto nobile str,sindelfingen,71063,,DE
e9001fee,sistemas de regulacin y,11 avenida del cantabrico,vitoria gasteiz,1013,,ES
c463b0d1,stealth components inc,11430 n community house rd,charlotte,28277-1591,788490212,US
347393c1,franz scheuerle ulm kg,2 ernst abbe str,ulm,89079,312675997,DE
ac79d308,meersburg tourismus,kirchstr,meersburg,88709,,DE
1e6586fc,dr walter gruber,33 pestalozzistr,munich,80469,031256899,DE
083608e9,morgui clima sl,11 13 carrer monturiol,badalona,8918,,ES
8ae5cbfc,kvt koenig gmbh,14 max eyth str,illerrieden,89186,342720122,DE
62060056,domino deutschland gmbh domino deutschland gmbh domino deutschland gmbh,3 lorenz schott str,wiesbaden,55252,,DE
e4f2d173,flair hotel am kamin,62 fssener s trasse,kaufbeuren,87600,,DE
235a0ce6,prototyp werke gmbh,10 franz disch str,zell,56856,,DE
d9f41bb7,los caracoles,60 calle rosario,gijon,33201,,ES
9f34a6ef,gainpath agencies,11 13 dukes ride,crowthorne,rg45 6lz,,GB
c682e74b,keck energieservice gmbh co kg,4 rieseler feld,brakel,33034,343732744,DE
c9f6d5af,aix marseille universite,bd charles livon,marseille,13285,,FR
a7bcfb1c,phytec messtechnik gmbh,39 robert koch str,mainz,55129,340413079,DE
b10e90c2,gainpath agencies,11 13 dukes ride,crowthorne,rg45 6lz,221623411,GB
97cb8ebd,taktifol gmbh,im derra3ck10,neuburg an der donau,76776,,DE
7f70ca89,mft mikrofiltertechnik gmbh,marzahner str,geesthacht,21502,341327058,DE
862a30ca,sew eurodrive gmbh co sew eurodrive gmbh co hpt verwaltg sew eurodrive gmbh co,42 ernst blickle str,bruchsal,76646,,DE
8de39d71,isr stephan walter,56 nahestr,rodgau,63110,,DE
4b084216,omnilab laborzentrum gmbh co kg,8 robert hooke str,bremen,28359,315101543,DE
f1a498a3,tt datentechnik gmbh,4 jagerstr,ludwigsfelde,14974,,DE
59012354,dierck,preetzer chaus see,schwentinental,24147,,DE
8e425b37,rae systems,305 rue des 4 chemins,millery,69390,275078975,FR
fd3bac22,buerklin ohg,grnwalder weg,oberhaching,82041,316757657,DE
ee2457f9,ge sensing,fir tree lane,groby,le60fh,,GB
d2701be4,tourist information konstanz gmbh,bahnhofplatz,konstanz,78462,,DE
5a63ce93,stadtverwgeislingen,7 schlogasse,geislingen,73312,366349637,DE
ea0e4b6d,spectra sa spectra sa spectra sa,8 rue manurhin,richwiller,68120,,FR
86956866,b z werkzeuge gmbh,carl peters strae,korntal munchingen,70825,,DE
05548a30,karcher sa,15 carretera de alcobendas barajas,alcobendas,28108,,ES
35beaf8a,miodex,13 rue vincent van gogh,magny les hameaux,78114,263762376,FR
02fd0b2e,pulch lorenz gmbh,23 am untergrn,march,79232,320166879,DE
83a3c2c3,mohawk rubber,industrial trce,alpharetta,30004,,US
49e9c0b5,arrow iberia electronica slu,75 calle albasanz,madrid,28037,,ES
ecac4340,kfp,4 solmsstr,frankfurt,60486,327438461,DE
4b7cf7cd,sistemas de regulacin y,11 avenida del cantabrico,vitoria gasteiz,1013,,ES
7554a1bb,vwr international gmbh,42 whlerstr,hanover,30163,341869043,DE
315b9cfd,jedermann verlag,6 kaiserstr,heidelberg,69115,340662459,DE
511e0c78,werit kunststoffwerke,59a kolner str,altenkirchen,57610,,DE
63bee0fd,flughafen leipzig halle gmbh,11 terminalring,schkeuditz,04435,330611666,DE
3967f071,diagnostikzentrum am klinikum,2 rantgen str,friedrichshafen,88048,,DE
c4a15437,framos imaging solutions,5 zugspitzstr,pullach,82049,316089887,DE
6cf58aaf,posalux gmbh,15 hesselbachstr,neuhausen,75242,,DE
f935896c,neurtek sa neurtek sa neurtek sa,3a pg azitain,eibar,20600,,ES
86b78350,stealth components inc,n community house rd,charlotte,28277,,US
5985579c,linux trading distribution,unter den buchen,bockelwitz,04703,,DE
df34d4aa,tsin,11 adolf kolping str,ingolstadt,85049,,DE
b5b53f7a,stilgut gmbh,5 geneststr,berlin,10829,,DE
70ee6c6c,ontrack data recovery europe ltd,weston road,epsom,kt17 1jg,770541647,GB
80f0088a,gps technologies gmbh,23a heinrich hertz str,langen,49838,344352971,DE
7bd39e82,simancas ediciones sa,m 6 pol municipal de dueaas,duenas,34210,,ES
538abe39,bodo kirbach,25 hauffstr,friedrichshafen,88046,,DE
77a53c30,clgb edition,16 rue neuve des boulets,paris,75011,273817549,FR
5762a908,luftwaffen offizierheim gesellschaf,wilhelm frankl kaserne,neuburg an der donau,86633,,DE
07bea237,e m o swopperwelt,54 pestalozzistr,diedorf,86420,,DE
c3b61af7,mti 1998 ltd,sandown road,watford,wd24 7xa,023023731,GB
0651a667,otto renner gmbh,16 frant wachter strae,stuttgart,70188,,DE
a1b0d6fd,istituto vigilanza dellurbe spa,via rina monti,rome,155,,IT
32d10f1c,ma componentes sl,pg el pino calle,seville,41016,479193724,ES
e48fc3be,aermec,rue du developpement,guereins,1090,501990647,FR
097913ca,regierung von niederbayern,540 regierungsplatz,landshut,84028,332093678,DE
a0fb7e0b,dicronite ute pohl gmbh,grner weg,iserlohn,58644,333900124,DE
a3a8b55c,hazet werk hermann zerver gmbh,25 gueldenwerther bahnhfst,remscheid,42857,315937482,DE
b7f630c7,copper brass sales,5 sterling dr,wallingford,06492,006515207,US
1d1ac70b,bosch siemens hausgeraete gmbh,34 carl wery str,munich,80000,,DE
88aaa3a3,united parcel service deutschland,1 gorlitzer str,neuss,41460,,DE
a1f85200,primeros qualification gmbh,am wollhaus,heilbronn,74072,,DE
bbdc577d,score sas,42 44 rue de bellevue,boulogne billancourt,92513,262314388,FR
e9f0acd2,sealed air gmbh,2 ernst diegel str,alsfeld,36304,,DE
0defc034,cz handels gmbh,klaus groth weg,delmenhorst,27753,,DE
da2f9ef0,beamer more gmbh,vogelsangstr,stuttgart,70197,331088075,DE
20e222c2,api movilidad sa,26 avenida de manoteras,madrid,28050,462203662,ES
fb342a87,centa antriebe,7 bergische str,haan,42781,327844791,DE
b4291e9f,los caracoles,60 calle rosario,gijon,33201,474582678,ES
3dc2bf89,gim nv geographic information,researchpark haasrode,leuven,3001,,BE
15534b20,fondation telecom,46 rue barrault,paris,75013,264249963,FR
4a59c0ef,aeroflex gmbh,2 gutenbergstr,ismaning,85737,,DE
cc36b708,airtanker services,airtanker hub,carterton,ox18,,GB
ed6089e2,tropack packmittel gmbh,6 gewerbestr,lahnau,35633,329711691,DE
fed89dac,idtronic gmbh,1 donnersbergweg,ludwigshafen,67059,,DE
beaaeb9b,rotary club biberach,9 11 karl str,biberach,88382,,DE
2b11c004,regierung von niederbayern,540 regierungsplatz,landshut,84028,,DE
24c183ca,esp entertainment sports partners,8972 royal birkdale ln,orlando,40460,016194792,US
dcecaed1,hubert waltermann eisenwaren,4 rat loh,balve,58802,,DE
e3937797,bundesanstalt f arbeitsschutz,1 25 friedrich henkel weg,dortmund,44149,,DE
23629446,boehnke,57a wall er heerstrae,bremen,28217,034430146,DE
b0b107f2,emg esolia emg esolia emg esolia zi de la chaussee,zone de bernay,sainte gemmes sur loire,49130,,FR
c2cfc79e,alexander krasner gravierbedarf,27 wuppertaler str,schwerin,19063,,DE
0e19515a,amergint,briargate pkwy,colorado springs,80916,,US
f5d35a7f,voelmle rickert gmbh co kg,14 zeppelinstr,ostfildern,73760,323956276,DE
97c4d824,sterne kessler goldstein fox sterne kessler goldstein fox sterne kessler goldstein fox,110 new york ave,washington,20005,,US
e4d2c6d0,luftwaffen offizierheim gesellschaf,wilhelm frankl kaserne,neuburg an der donau,86633,,DE
ece875ee,neon centro,via adriatico,potenza,85100,,IT
c52c2a41,rochester electronics,fenice court,saint neots,pe19,,GB
ec3c8752,selex es ltd,crewe road north,edinburgh,eh5 2xs,023226769,GB
a7906fc8,edmund optics,nether poppleton,york,yo260 6bl,236713199,GB
4f044724,gesellschaft fr umweltsimulation e,7 joseph von fraunhofer str,pfinztal,76327,343915737,DE
50329a02,taunuslicht,taunusstr,neu anspach,61267,,DE
353fc184,shp primaflex gmbh,zeiss str,ratekau,23626,317337517,DE
8bd50f9c,kemper gmbh,20 von siemens str,vreden,48691,317319242,DE
6900fd67,alexander tress,11 niedermhle weg,bad wurzach,88410,344869433,DE
c034a533,chiemsee schifffahrt,108 seestr,prien am chiemsee,83209,341583136,DE
92e801cd,le joint francais,17 rue andre charles boulle,thure,86540,,FR
8f239e71,realfm e v,schiffbauerdamm,berlin,10117,,DE
a283a3f9,ramon martin sa,0001 calle rafael beca mateos,seville,41007,463004531,ES
0a0bb7ad,blyenburgh co,86 rue michel ange,paris,75016,501881234,FR
9ea8c914,eurosint forum asbl,161 boulevard general jacques,ixelles,1050,,BE
7f9ead84,ceka,1 erich krause str,alsfeld,36304,,DE
27dce5c8,emac inc,emac way,carbondale,62902,,US
00a0bae6,mollerus lftungs klimatechnik gm,1 torenstr,meersburg,88709,,DE
d7e2147f,safran aero boosters,121 route de liers,herstal,4041,,BE
d7e7a473,kavlico corporation,av 14401 princeton avenue,moorpark,93021,,US
7ff2b1d2,h media,329 heistraat,antwerp,2610,,BE
5dabb313,mattheus,24 falderbaumstr,kassel,34123,332678267,DE
6b0146ff,centa antriebe,7 bergstr,haan,42781,,DE
ac5716fe,slind parts sa,km10 avenida de andaluca,madrid,28021,564889467,ES
936fd02b,first sensor ag,10 boschstr,puchheim,82178,315794797,DE
22ce10aa,aviasport sa,11 calle almazara,tres cantos,28760,,ES
95f19f0b,planeta hebetechnik gmbh,resser str,herne,44653,,DE
bfc8c872,tapicerias limpias,5 calle florida,villaviciosa,28670,,ES
67add9be,schiessl gmbh und co,14 kolpingring,oberhaching,82041,316707645,DE
38fb9a44,slv schweisstechnische lehr,37 schachenmeierstr,munich,80000,,DE
fecf422e,vieweg gmbh,13 gewerbepark,kranzberg,85402,325718823,DE
46978d7f,chiemsee schifffahrt,seestr 108,prien am chiemsee,83209,,DE
f4386172,marketline,sheepen place,colchester,co3 3lp,,GB
e5e77b34,witas gmbh,35 stiftstr,minden,32427,,DE
875fbe05,cif,11 rue charles michels,bagneux,92220,392502647,FR
aa48fb6e,brammer gmbh,51 daimlerstr,karlsruhe,76185,,DE
a2924139,villa hentzel,bauhausstr,weimar,99423,,DE
8b16163c,jaco aerospace,lincoln ave,pasadena,91103,,US
813a34be,printec ds keyboard gmbh,31 35 herrenlandstr,radolfzell,78315,,DE
0c908473,jp aero com engineering co ltd,cherry tree,hull,hu11 5,216202267,GB
989ba440,ulmer volkshoch,5 kornhausplatz,ulm,89073,329382126,DE
4e200722,clp gmbh,paul gerhardt allee,munich,80000,,DE
bf351476,crystalfontz america inc,e saltese,spokane valley,99027,,US
312b935f,oberflaechenkompetenz steinl,22 jakob oswald str,ursensollen,92289,,DE
8f034f29,kartenkaufhaus,12a allerkampstr,celle,29223,344982694,DE
f8db7942,citaku gbr,32 papenbreede,bad essen,49152,,DE
3a6c61ba,kasper richter gmbh co kg,14 erlanger str,uttenreuth,91080,,DE
05730d16,paul spencer signs ltd,sheffield street,stockport,sk4 1ru,290891498,GB
9744e4b9,deutsche rockwool,14 karl schneider str,gladbeck,45966,031519896,DE
4e26b405,seefelder gmbh,46 finninger str,neu ulm,89231,,DE
8638314d,salicru electronics,calle parque ind,seville,41016,633486162,ES
1cb784b9,binz ambulance und,21 am vogelherd,ilmenau,98693,330862327,DE
a82de69a,sterne kessler goldstein fox,110 new york ave,washington,20005,014225643,US
91885be6,witt gasetechnik gmbh und co,4 8 salinger feld,witten,58454,,DE
385bcbef,safran aero boosters safran aero boosters safran aero boosters,121 route de liers,herstal,4041,,BE
b41dc527,hoefer gmbh,14a keferloher str,haar,85540,,DE
efd9b1bc,goetz service gmbh,2 2 zillenhardtstr,goppingen,73037,,DE
4e52a4ef,arrow central europe gmbh,211 frankfurter str,neu isenburg,63263,,DE
bcd0d8b8,manuel riesgo sa,o 22 desengaa,madrid,28004,,ES
a1bab05d,brammer gmbh,19 industriestr,karlsruhe,76189,,DE
cd1dd2bc,relats sa,s n priorat,caldes de montbui,08140,,ES
dd9bdc05,latim,44 rue roger salengro,fontenay sous bois,94120,,FR
39786c7e,gottschalk michaelis gmbh,11 23 lahnstr,berlin,12055,324956846,DE
c12869cc,spectra sa,8 rue manurhin,richwiller,68120,502222417,FR
7d26f4c0,spirit aerosystems inc,3801 s oliver st,wichita,67202,362176773,US
b2348153,banderas navas sl,122 calle de castell,madrid,28006,461270485,ES
02ca54ed,polyplas,kiebitzweg,emmerthal,31860,,DE
